AREA NAME,AREA CODE,District Name,District,LEAD FINANCE NBR,ZIP CODE,ZIP CLASS CODE,LOCALE NAME,LOCALE KEY,LOCALE TYPE,PHYSICAL DELV ADDR,PHYSICAL CITY,PHYSICAL STATE,PHYSICAL ZIP,PHYSICAL ZIP 4
SOUTHERN,4G,PUERTO RICO,006,426930,00734,P,PONCE,PV17246,P,2340 AVE EDUARDO RUBERTE,PONCE,PR,00717,9998
SOUTHERN,4G,PUERTO RICO,006,422250,00742,,CEIBA,PV17169,P,305 AVE LAURO PINERO,CEIBA,PR,00735,9998
SOUTHERN,4G,PUERTO RICO,006,428460,00906,P,SAN JUAN,PV17274,P,585 AVE FD ROOSEVELT STE 202,SAN JUAN,PR,00936,9998
ATLANTIC,4B,MA-RI,020,240136,01003,,AMHERST,PV21413,P,145 UNIVERSITY DR,AMHERST,MA,01002,9998
ATLANTIC,4B,MA-RI,020,243366,01088,,HATFIELD,PV21878,P,7 SCHOOL ST,HATFIELD,MA,01038,9998
ATLANTIC,4B,MA-RI,020,247820,01144,,SPRINGFIELD,PV22552,P,1883 MAIN ST,SPRINGFIELD,MA,01101,9998
ATLANTIC,4B,MA-RI,020,247820,01152,,SPRINGFIELD,PV22552,P,1883 MAIN ST,SPRINGFIELD,MA,01101,9998
ATLANTIC,4B,MA-RI,020,246188,01203,P,PITTSFIELD,PV22313,P,212 FENN ST,PITTSFIELD,MA,01201,9998
ATLANTIC,4B,MA-RI,020,247429,01252,,SOUTH EGREMONT,PV22504,P,64 MAIN ST,SOUTH EGREMONT,MA,01258,9998
ATLANTIC,4B,MA-RI,020,240068,01256,,ADAMS,PV21396,P,1 CENTER ST,ADAMS,MA,01220,9998
ATLANTIC,4B,MA-RI,020,241190,01343,,CHARLEMONT,PV21595,P,90-3 MAIN ST,CHARLEMONT,MA,01339,9998
ATLANTIC,4B,MA-RI,020,246545,01350,P,ROWE,PV22365,P,321 ZOAR RD STE 1,ROWE,MA,01367,9998
ATLANTIC,4B,MA-RI,020,245967,01378,,ORANGE,PV22282,P,72 S MAIN ST,ORANGE,MA,01364,9998
ATLANTIC,4B,MA-RI,020,248551,01380,,WENDELL DEPOT,PV22746,P,466 WENDELL DEPOT RD,WENDELL DEPOT,MA,01380,9998
ATLANTIC,4B,MA-RI,020,249622,01601,P,WORCESTER,PV22863,P,4 E CENTRAL ST,WORCESTER,MA,01613,9998
ATLANTIC,4B,MA-RI,020,249622,01614,P,WORCESTER,PV22863,P,4 E CENTRAL ST,WORCESTER,MA,01613,9998
ATLANTIC,4B,MA-RI,020,249622,01655,,WORCESTER,PV22863,P,4 E CENTRAL ST,WORCESTER,MA,01613,9998
ATLANTIC,4B,MA-RI,020,245661,01825,P,NORTH READING,PV22246,P,174 PARK ST,NORTH READING,MA,01864,9998
ATLANTIC,4B,MA-RI,020,245032,02714,P,NEW BEDFORD,PV22149,P,695 PLEASANT ST,NEW BEDFORD,MA,02740,9998
ATLANTIC,4B,MA-RI,020,432240,02815,,CLAYVILLE,PV25856,P,479 FIELD HILL RD,CLAYVILLE,RI,02815,1107
ATLANTIC,4B,MA-RI,020,431960,02836,,CHARLESTOWN,PV25854,P,3970 OLD POST RD,CHARLESTOWN,RI,02813,9998
ATLANTIC,4B,MA-RI,020,434480,02858,,HARRISVILLE,PV25891,P,131 HARRISVILLE MAIN ST,HARRISVILLE,RI,02830,9998
ATLANTIC,4B,ME-NH-VT,040,328580,03575,P,TWIN MOUNTAIN,PV25763,P,120 US HIGHWAY 3 N,TWIN MOUNTAIN,NH,03595,9998
ATLANTIC,4B,ME-NH-VT,040,328580,03589,P,TWIN MOUNTAIN,PV25763,P,120 US HIGHWAY 3 N,TWIN MOUNTAIN,NH,03595,9998
ATLANTIC,4B,ME-NH-VT,040,328700,03609,,WALPOLE,PV25785,P,47 MAIN ST UNIT 1,WALPOLE,NH,03608,9998
ATLANTIC,4B,ME-NH-VT,040,324470,03756,,LEBANON,PV25545,P,11 E PARK ST,LEBANON,NH,03766,1355
ATLANTIC,4B,ME-NH-VT,040,220600,04007,P,BIDDEFORD,PV24744,P,100 ALFRED ST,BIDDEFORD,ME,04005,9998
ATLANTIC,4B,ME-NH-VT,040,228130,04013,,SOUTH FREEPORT,PV25199,P,95 S FREEPORT RD,SOUTH FREEPORT,ME,04078,9998
ATLANTIC,4B,ME-NH-VT,040,226900,04109,,PORTLAND,PV25132,P,125 FOREST AVE,PORTLAND,ME,04101,9998
ATLANTIC,4B,ME-NH-VT,040,228940,04454,P,VANCEBORO,PV25263,P,23 WATER ST,VANCEBORO,ME,04491,9998
ATLANTIC,4B,ME-NH-VT,040,223360,04485,P,GREENVILLE,PV24920,P,25 LILY BAY RD,GREENVILLE,ME,04441,9998
ATLANTIC,4B,ME-NH-VT,040,220750,04549,,BOOTHBAY,PV24753,P,13 COREY LN,BOOTHBAY,ME,04537,9998
ATLANTIC,4B,ME-NH-VT,040,220765,04570,P,BOOTHBAY HARBOR,PV24754,P,15 OAK ST,BOOTHBAY HARBOR,ME,04538,9998
ATLANTIC,4B,ME-NH-VT,040,226960,04637,P,PRINCETON,PV25135,P,20 MAIN ST,PRINCETON,ME,04668,9998
ATLANTIC,4B,ME-NH-VT,040,220950,04642,,BROOKSVILLE,PV24765,P,945 COASTAL RD,BROOKSVILLE,ME,04617,9998
ATLANTIC,4B,ME-NH-VT,040,224800,04686,,MACHIAS,PV25003,P,89 COURT ST STE 1,MACHIAS,ME,04654,9998
ATLANTIC,4B,ME-NH-VT,040,222985,04737,P,FORT KENT,PV24893,P,152 W MAIN ST,FORT KENT,ME,04743,9998
ATLANTIC,4B,ME-NH-VT,040,222985,04741,P,FORT KENT,PV24893,P,152 W MAIN ST,FORT KENT,ME,04743,9998
ATLANTIC,4B,ME-NH-VT,040,220180,04764,,ASHLAND,PV24718,P,14 SHERIDAN RD,ASHLAND,ME,04732,9998
ATLANTIC,4B,ME-NH-VT,040,220180,04775,P,ASHLAND,PV24718,P,14 SHERIDAN RD,ASHLAND,ME,04732,9998
ATLANTIC,4B,ME-NH-VT,040,222895,04940,,FARMINGTON FALLS,PV24891,P,174 CROSWELL RD,FARMINGTON FALLS,ME,04940,9998
ATLANTIC,4B,CONNECTICUT,060,086460,06091,,RIVERTON,PV20562,P,5 RIVERTON RD,RIVERTON,CT,06065,9998
ATLANTIC,4B,CONNECTICUT,060,083366,06101,,HARTFORD,PV20285,P,141 WESTON ST,HARTFORD,CT,06101,9998
ATLANTIC,4B,CONNECTICUT,060,083366,06152,,HARTFORD,PV20285,P,141 WESTON ST,HARTFORD,CT,06101,9998
ATLANTIC,4B,CONNECTICUT,060,086120,06230,P,POMFRET CENTER,PV20531,P,144 MURDOCK RD,POMFRET CENTER,CT,06259,9998
ATLANTIC,4B,CONNECTICUT,060,087446,06265,,SOUTH WILLINGTON,PV20630,P,310 ROUTE 169,SOUTH WILLINGTON,CT,06265,
ATLANTIC,4B,CONNECTICUT,060,085270,06474,P,NORTH WESTCHESTER,PV20471,P,103 S MAIN ST STE 3A,COLCHESTER,CT,06415,9992
ATLANTIC,4B,CONNECTICUT,060,080578,06602,P,BRIDGEPORT,PV20069,P,120 MIDDLE ST,BRIDGEPORT,CT,06602,9998
ATLANTIC,4B,CONNECTICUT,060,088704,06701,,WATERBURY,PV20783,P,135 GRAND ST,WATERBURY,CT,06701,9998
ATLANTIC,4B,CONNECTICUT,060,082550,06828,,FAIRFIELD,PV20221,P,1300 POST RD STE 5,FAIRFIELD,CT,06824,9998
ATLANTIC,4B,CONNECTICUT,060,087718,06910,,STAMFORD,PV20671,P,24 CAMP AVE,STAMFORD,CT,06907,9998
ATLANTIC,4B,NEW JERSEY,070,336420,07510,,PATERSON,PV11161,P,194 WARD ST,PATERSON,NJ,07510,9998
ATLANTIC,4B,NEW JERSEY,070,337095,07703,,RED BANK,PV11284,P,171 BROAD ST UNIT 1,RED BANK,NJ,07701,9998
ATLANTIC,4B,NEW JERSEY,070,332310,07799,,EATONTOWN,PV10394,P,409 SOUTH ST,EATONTOWN,NJ,07724,9998
ATLANTIC,4B,NEW JERSEY,070,332205,07806,,DOVER,PV10347,P,22 N SUSSEX ST,DOVER,NJ,07801,9998
ATLANTIC,4B,NEW JERSEY,070,331785,07881,,COLUMBIA,PV10292,P,27 DECATUR ST,COLUMBIA,NJ,07832,9998
ATLANTIC,4B,NEW JERSEY,070,335460,07999,,MORRISTOWN,PV10956,P,166 RIDGEDALE AVE STE 9,MORRISTOWN,NJ,07960,4085
ATLANTIC,4B,NEW JERSEY,070,337290,08076,P,RIVERTON,PV11307,P,605 MAIN ST STE 100,RIVERTON,NJ,08077,9998
ATLANTIC,4B,NEW JERSEY,070,332347,08899,,EDISON,PV10401,P,2101 STATE ROUTE 27,EDISON,NJ,08817,9998
OVERSEAS,4M,MILITARY POSTAL SERVSHANNON KELLY,090,600001,09000,M,APO,PV10001,P,80 COUNTY RD,JERSEY CITY,NJ,07097,9997
OVERSEAS,4M,MILITARY POSTAL SERVSHANNON KELLY,090,600001,09002,M,APO,PV10001,P,80 COUNTY RD,JERSEY CITY,NJ,07097,9997
OVERSEAS,4M,MILITARY POSTAL SERVSHANNON KELLY,090,600001,09003,M,APO,PV10001,P,80 COUNTY RD,JERSEY CITY,NJ,07097,9997
OVERSEAS,4M,MILITARY POSTAL SERVSHANNON KELLY,090,600001,09004,M,APO,PV10001,P,80 COUNTY RD,JERSEY CITY,NJ,07097,9997
OVERSEAS,4M,MILITARY POSTAL SERVSHANNON KELLY,090,600001,09005,M,APO,PV10001,P,80 COUNTY RD,JERSEY CITY,NJ,07097,9997
OVERSEAS,4M,MILITARY POSTAL SERVSHANNON KELLY,090,600001,09006,M,APO,PV10001,P,80 COUNTY RD,JERSEY CITY,NJ,07097,9997
OVERSEAS,4M,MILITARY POSTAL SERVSHANNON KELLY,090,600001,09008,M,APO,PV10001,P,80 COUNTY RD,JERSEY CITY,NJ,07097,9997
OVERSEAS,4M,MILITARY POSTAL SERVSHANNON KELLY,090,600001,09009,M,APO,PV10001,P,80 COUNTY RD,JERSEY CITY,NJ,07097,9997
OVERSEAS,4M,MILITARY POSTAL SERVSHANNON KELLY,090,600001,09010,M,APO,PV10001,P,80 COUNTY RD,JERSEY CITY,NJ,07097,9997
OVERSEAS,4M,MILITARY POSTAL SERVSHANNON KELLY,090,600001,09011,M,APO,PV10001,P,80 COUNTY RD,JERSEY CITY,NJ,07097,9997
OVERSEAS,4M,MILITARY POSTAL SERVSHANNON KELLY,090,600001,09012,M,APO,PV10001,P,80 COUNTY RD,JERSEY CITY,NJ,07097,9997
OVERSEAS,4M,MILITARY POSTAL SERVSHANNON KELLY,090,600001,09013,M,APO,PV10001,P,80 COUNTY RD,JERSEY CITY,NJ,07097,9997
OVERSEAS,4M,MILITARY POSTAL SERVSHANNON KELLY,090,600001,09014,M,APO,PV10001,P,80 COUNTY RD,JERSEY CITY,NJ,07097,9997
OVERSEAS,4M,MILITARY POSTAL SERVSHANNON KELLY,090,600001,09015,M,APO,PV10001,P,80 COUNTY RD,JERSEY CITY,NJ,07097,9997
OVERSEAS,4M,MILITARY POSTAL SERVSHANNON KELLY,090,600001,09016,M,APO,PV10001,P,80 COUNTY RD,JERSEY CITY,NJ,07097,9997
OVERSEAS,4M,MILITARY POSTAL SERVSHANNON KELLY,090,600001,09017,M,APO,PV10001,P,80 COUNTY RD,JERSEY CITY,NJ,07097,9997
OVERSEAS,4M,MILITARY POSTAL SERVSHANNON KELLY,090,600001,09018,M,APO,PV10001,P,80 COUNTY RD,JERSEY CITY,NJ,07097,9997
OVERSEAS,4M,MILITARY POSTAL SERVSHANNON KELLY,090,600001,09020,M,APO,PV10001,P,80 COUNTY RD,JERSEY CITY,NJ,07097,9997
OVERSEAS,4M,MILITARY POSTAL SERVSHANNON KELLY,090,600001,09021,M,APO,PV10001,P,80 COUNTY RD,JERSEY CITY,NJ,07097,9997
OVERSEAS,4M,MILITARY POSTAL SERVSHANNON KELLY,090,600001,09034,M,APO,PV10001,P,80 COUNTY RD,JERSEY CITY,NJ,07097,9997
OVERSEAS,4M,MILITARY POSTAL SERVSHANNON KELLY,090,600001,09044,M,APO,PV10001,P,80 COUNTY RD,JERSEY CITY,NJ,07097,9997
OVERSEAS,4M,MILITARY POSTAL SERVSHANNON KELLY,090,600001,09046,M,APO,PV10001,P,80 COUNTY RD,JERSEY CITY,NJ,07097,9997
OVERSEAS,4M,MILITARY POSTAL SERVSHANNON KELLY,090,600001,09049,M,APO,PV10001,P,80 COUNTY RD,JERSEY CITY,NJ,07097,9997
OVERSEAS,4M,MILITARY POSTAL SERVSHANNON KELLY,090,600001,09053,M,APO,PV10001,P,80 COUNTY RD,JERSEY CITY,NJ,07097,9997
OVERSEAS,4M,MILITARY POSTAL SERVSHANNON KELLY,090,600001,09060,M,APO,PV10001,P,80 COUNTY RD,JERSEY CITY,NJ,07097,9997
OVERSEAS,4M,MILITARY POSTAL SERVSHANNON KELLY,090,600001,09067,M,APO,PV10001,P,80 COUNTY RD,JERSEY CITY,NJ,07097,9997
OVERSEAS,4M,MILITARY POSTAL SERVSHANNON KELLY,090,600001,09068,M,APO,PV10001,P,80 COUNTY RD,JERSEY CITY,NJ,07097,9997
OVERSEAS,4M,MILITARY POSTAL SERVSHANNON KELLY,090,600001,09069,M,APO,PV10001,P,80 COUNTY RD,JERSEY CITY,NJ,07097,9997
OVERSEAS,4M,MILITARY POSTAL SERVSHANNON KELLY,090,600001,09079,M,APO,PV10001,P,80 COUNTY RD,JERSEY CITY,NJ,07097,9997
OVERSEAS,4M,MILITARY POSTAL SERVSHANNON KELLY,090,600001,09094,M,APO,PV10001,P,80 COUNTY RD,JERSEY CITY,NJ,07097,9997
OVERSEAS,4M,MILITARY POSTAL SERVSHANNON KELLY,090,600001,09095,M,APO,PV10001,P,80 COUNTY RD,JERSEY CITY,NJ,07097,9997
OVERSEAS,4M,MILITARY POSTAL SERVSHANNON KELLY,090,600001,09096,M,APO,PV10001,P,80 COUNTY RD,JERSEY CITY,NJ,07097,9997
OVERSEAS,4M,MILITARY POSTAL SERVSHANNON KELLY,090,600002,09100,M,DPO,P017332,P,80 COUNTY RD,JERSEY CITY,NJ,07097,9997
OVERSEAS,4M,MILITARY POSTAL SERVSHANNON KELLY,090,600001,09101,M,APO,PV10001,P,80 COUNTY RD,JERSEY CITY,NJ,07097,9997
OVERSEAS,4M,MILITARY POSTAL SERVSHANNON KELLY,090,600001,09103,M,APO,PV10001,P,80 COUNTY RD,JERSEY CITY,NJ,07097,9997
OVERSEAS,4M,MILITARY POSTAL SERVSHANNON KELLY,090,600001,09104,M,APO,PV10001,P,80 COUNTY RD,JERSEY CITY,NJ,07097,9997
OVERSEAS,4M,MILITARY POSTAL SERVSHANNON KELLY,090,600001,09112,M,APO,PV10001,P,80 COUNTY RD,JERSEY CITY,NJ,07097,9997
OVERSEAS,4M,MILITARY POSTAL SERVSHANNON KELLY,090,600001,09114,M,APO,PV10001,P,80 COUNTY RD,JERSEY CITY,NJ,07097,9997
OVERSEAS,4M,MILITARY POSTAL SERVSHANNON KELLY,090,600001,09116,M,APO,PV10001,P,80 COUNTY RD,JERSEY CITY,NJ,07097,9997
OVERSEAS,4M,MILITARY POSTAL SERVSHANNON KELLY,090,600001,09123,M,APO,PV10001,P,80 COUNTY RD,JERSEY CITY,NJ,07097,9997
OVERSEAS,4M,MILITARY POSTAL SERVSHANNON KELLY,090,600001,09126,M,APO,PV10001,P,80 COUNTY RD,JERSEY CITY,NJ,07097,9997
OVERSEAS,4M,MILITARY POSTAL SERVSHANNON KELLY,090,600001,09128,M,APO,PV10001,P,80 COUNTY RD,JERSEY CITY,NJ,07097,9997
OVERSEAS,4M,MILITARY POSTAL SERVSHANNON KELLY,090,600001,09131,M,APO,PV10001,P,80 COUNTY RD,JERSEY CITY,NJ,07097,9997
OVERSEAS,4M,MILITARY POSTAL SERVSHANNON KELLY,090,600001,09135,M,APO,PV10001,P,80 COUNTY RD,JERSEY CITY,NJ,07097,9997
OVERSEAS,4M,MILITARY POSTAL SERVSHANNON KELLY,090,600001,09136,M,APO,PV10001,P,80 COUNTY RD,JERSEY CITY,NJ,07097,9997
OVERSEAS,4M,MILITARY POSTAL SERVSHANNON KELLY,090,600001,09140,M,APO,PV10001,P,80 COUNTY RD,JERSEY CITY,NJ,07097,9997
OVERSEAS,4M,MILITARY POSTAL SERVSHANNON KELLY,090,600001,09142,M,APO,PV10001,P,80 COUNTY RD,JERSEY CITY,NJ,07097,9997
OVERSEAS,4M,MILITARY POSTAL SERVSHANNON KELLY,090,600001,09154,M,APO,PV10001,P,80 COUNTY RD,JERSEY CITY,NJ,07097,9997
OVERSEAS,4M,MILITARY POSTAL SERVSHANNON KELLY,090,600002,09160,M,DPO,P017332,P,80 COUNTY RD,JERSEY CITY,NJ,07097,9997
OVERSEAS,4M,MILITARY POSTAL SERVSHANNON KELLY,090,600002,09170,M,DPO,P017332,P,80 COUNTY RD,JERSEY CITY,NJ,07097,9997
OVERSEAS,4M,MILITARY POSTAL SERVSHANNON KELLY,090,600002,09171,M,DPO,P017332,P,80 COUNTY RD,JERSEY CITY,NJ,07097,9997
OVERSEAS,4M,MILITARY POSTAL SERVSHANNON KELLY,090,600001,09172,M,APO,PV10001,P,80 COUNTY RD,JERSEY CITY,NJ,07097,9997
OVERSEAS,4M,MILITARY POSTAL SERVSHANNON KELLY,090,600001,09173,M,APO,PV10001,P,80 COUNTY RD,JERSEY CITY,NJ,07097,9997
OVERSEAS,4M,MILITARY POSTAL SERVSHANNON KELLY,090,600002,09174,M,DPO,P017332,P,80 COUNTY RD,JERSEY CITY,NJ,07097,9997
OVERSEAS,4M,MILITARY POSTAL SERVSHANNON KELLY,090,600002,09175,M,DPO,P017332,P,80 COUNTY RD,JERSEY CITY,NJ,07097,9997
OVERSEAS,4M,MILITARY POSTAL SERVSHANNON KELLY,090,600002,09176,M,DPO,P017332,P,80 COUNTY RD,JERSEY CITY,NJ,07097,9997
OVERSEAS,4M,MILITARY POSTAL SERVSHANNON KELLY,090,600001,09177,M,APO,PV10001,P,80 COUNTY RD,JERSEY CITY,NJ,07097,9997
OVERSEAS,4M,MILITARY POSTAL SERVSHANNON KELLY,090,600002,09178,M,DPO,P017332,P,80 COUNTY RD,JERSEY CITY,NJ,07097,9997
OVERSEAS,4M,MILITARY POSTAL SERVSHANNON KELLY,090,600002,09179,M,DPO,P017332,P,80 COUNTY RD,JERSEY CITY,NJ,07097,9997
OVERSEAS,4M,MILITARY POSTAL SERVSHANNON KELLY,090,600001,09180,M,APO,PV10001,P,80 COUNTY RD,JERSEY CITY,NJ,07097,9997
OVERSEAS,4M,MILITARY POSTAL SERVSHANNON KELLY,090,600002,09181,M,DPO,P017332,P,80 COUNTY RD,JERSEY CITY,NJ,07097,9997
OVERSEAS,4M,MILITARY POSTAL SERVSHANNON KELLY,090,600001,09186,M,APO,PV10001,P,80 COUNTY RD,JERSEY CITY,NJ,07097,9997
OVERSEAS,4M,MILITARY POSTAL SERVSHANNON KELLY,090,600002,09203,M,DPO,P017332,P,80 COUNTY RD,JERSEY CITY,NJ,07097,9997
OVERSEAS,4M,MILITARY POSTAL SERVSHANNON KELLY,090,600001,09204,M,APO,PV10001,P,80 COUNTY RD,JERSEY CITY,NJ,07097,9997
OVERSEAS,4M,MILITARY POSTAL SERVSHANNON KELLY,090,600001,09205,M,APO,PV10001,P,80 COUNTY RD,JERSEY CITY,NJ,07097,9997
OVERSEAS,4M,MILITARY POSTAL SERVSHANNON KELLY,090,600001,09211,M,APO,PV10001,P,80 COUNTY RD,JERSEY CITY,NJ,07097,9997
OVERSEAS,4M,MILITARY POSTAL SERVSHANNON KELLY,090,600002,09213,M,DPO,P017332,P,80 COUNTY RD,JERSEY CITY,NJ,07097,9997
OVERSEAS,4M,MILITARY POSTAL SERVSHANNON KELLY,090,600001,09214,M,APO,PV10001,P,80 COUNTY RD,JERSEY CITY,NJ,07097,9997
OVERSEAS,4M,MILITARY POSTAL SERVSHANNON KELLY,090,600001,09216,M,APO,PV10001,P,80 COUNTY RD,JERSEY CITY,NJ,07097,9997
OVERSEAS,4M,MILITARY POSTAL SERVSHANNON KELLY,090,600001,09227,M,APO,PV10001,P,80 COUNTY RD,JERSEY CITY,NJ,07097,9997
OVERSEAS,4M,MILITARY POSTAL SERVSHANNON KELLY,090,600001,09240,M,APO,PV10001,P,80 COUNTY RD,JERSEY CITY,NJ,07097,9997
OVERSEAS,4M,MILITARY POSTAL SERVSHANNON KELLY,090,600001,09241,M,APO,PV10001,P,80 COUNTY RD,JERSEY CITY,NJ,07097,9997
OVERSEAS,4M,MILITARY POSTAL SERVSHANNON KELLY,090,600001,09242,M,APO,PV10001,P,80 COUNTY RD,JERSEY CITY,NJ,07097,9997
OVERSEAS,4M,MILITARY POSTAL SERVSHANNON KELLY,090,600001,09250,M,APO,PV10001,P,80 COUNTY RD,JERSEY CITY,NJ,07097,9997
OVERSEAS,4M,MILITARY POSTAL SERVSHANNON KELLY,090,600001,09261,M,APO,PV10001,P,80 COUNTY RD,JERSEY CITY,NJ,07097,9997
OVERSEAS,4M,MILITARY POSTAL SERVSHANNON KELLY,090,600001,09263,M,APO,PV10001,P,80 COUNTY RD,JERSEY CITY,NJ,07097,9997
OVERSEAS,4M,MILITARY POSTAL SERVSHANNON KELLY,090,600001,09264,M,APO,PV10001,P,80 COUNTY RD,JERSEY CITY,NJ,07097,9997
OVERSEAS,4M,MILITARY POSTAL SERVSHANNON KELLY,090,600002,09265,M,DPO,P017332,P,80 COUNTY RD,JERSEY CITY,NJ,07097,9997
OVERSEAS,4M,MILITARY POSTAL SERVSHANNON KELLY,090,600001,09266,M,APO,PV10001,P,80 COUNTY RD,JERSEY CITY,NJ,07097,9997
OVERSEAS,4M,MILITARY POSTAL SERVSHANNON KELLY,090,600002,09276,M,DPO,P017332,P,80 COUNTY RD,JERSEY CITY,NJ,07097,9997
OVERSEAS,4M,MILITARY POSTAL SERVSHANNON KELLY,090,600002,09277,M,DPO,P017332,P,80 COUNTY RD,JERSEY CITY,NJ,07097,9997
OVERSEAS,4M,MILITARY POSTAL SERVSHANNON KELLY,090,600002,09278,M,DPO,P017332,P,80 COUNTY RD,JERSEY CITY,NJ,07097,9997
OVERSEAS,4M,MILITARY POSTAL SERVSHANNON KELLY,090,600002,09279,M,DPO,P017332,P,80 COUNTY RD,JERSEY CITY,NJ,07097,9997
OVERSEAS,4M,MILITARY POSTAL SERVSHANNON KELLY,090,600002,09280,M,DPO,P017332,P,80 COUNTY RD,JERSEY CITY,NJ,07097,9997
OVERSEAS,4M,MILITARY POSTAL SERVSHANNON KELLY,090,600002,09281,M,DPO,P017332,P,80 COUNTY RD,JERSEY CITY,NJ,07097,9997
OVERSEAS,4M,MILITARY POSTAL SERVSHANNON KELLY,090,600002,09282,M,DPO,P017332,P,80 COUNTY RD,JERSEY CITY,NJ,07097,9997
OVERSEAS,4M,MILITARY POSTAL SERVSHANNON KELLY,090,600002,09283,M,DPO,P017332,P,80 COUNTY RD,JERSEY CITY,NJ,07097,9997
OVERSEAS,4M,MILITARY POSTAL SERVSHANNON KELLY,090,600002,09284,M,DPO,P017332,P,80 COUNTY RD,JERSEY CITY,NJ,07097,9997
OVERSEAS,4M,MILITARY POSTAL SERVSHANNON KELLY,090,600002,09285,M,DPO,P017332,P,80 COUNTY RD,JERSEY CITY,NJ,07097,9997
OVERSEAS,4M,MILITARY POSTAL SERVSHANNON KELLY,090,600002,09287,M,DPO,P017332,P,80 COUNTY RD,JERSEY CITY,NJ,07097,9997
OVERSEAS,4M,MILITARY POSTAL SERVSHANNON KELLY,090,600002,09288,M,DPO,P017332,P,80 COUNTY RD,JERSEY CITY,NJ,07097,9997
OVERSEAS,4M,MILITARY POSTAL SERVSHANNON KELLY,090,600002,09289,M,DPO,P017332,P,80 COUNTY RD,JERSEY CITY,NJ,07097,9997
OVERSEAS,4M,MILITARY POSTAL SERVSHANNON KELLY,090,600002,09290,M,DPO,P017332,P,80 COUNTY RD,JERSEY CITY,NJ,07097,9997
OVERSEAS,4M,MILITARY POSTAL SERVSHANNON KELLY,090,600002,09291,M,DPO,P017332,P,80 COUNTY RD,JERSEY CITY,NJ,07097,9997
OVERSEAS,4M,MILITARY POSTAL SERVSHANNON KELLY,090,600002,09292,M,DPO,P017332,P,80 COUNTY RD,JERSEY CITY,NJ,07097,9997
OVERSEAS,4M,MILITARY POSTAL SERVSHANNON KELLY,090,600002,09293,M,DPO,P017332,P,80 COUNTY RD,JERSEY CITY,NJ,07097,9997
OVERSEAS,4M,MILITARY POSTAL SERVSHANNON KELLY,090,600002,09294,M,DPO,P017332,P,80 COUNTY RD,JERSEY CITY,NJ,07097,9997
OVERSEAS,4M,MILITARY POSTAL SERVSHANNON KELLY,090,600002,09295,M,DPO,P017332,P,80 COUNTY RD,JERSEY CITY,NJ,07097,9997
OVERSEAS,4M,MILITARY POSTAL SERVSHANNON KELLY,090,600002,09296,M,DPO,P017332,P,80 COUNTY RD,JERSEY CITY,NJ,07097,9997
OVERSEAS,4M,MILITARY POSTAL SERVSHANNON KELLY,090,600002,09297,M,DPO,P017332,P,80 COUNTY RD,JERSEY CITY,NJ,07097,9997
OVERSEAS,4M,MILITARY POSTAL SERVSHANNON KELLY,090,600002,09298,M,DPO,P017332,P,80 COUNTY RD,JERSEY CITY,NJ,07097,9997
OVERSEAS,4M,MILITARY POSTAL SERVSHANNON KELLY,090,600002,09299,M,DPO,P017332,P,80 COUNTY RD,JERSEY CITY,NJ,07097,9997
OVERSEAS,4M,MILITARY POSTAL SERVSHANNON KELLY,090,600002,09301,M,DPO,P017332,P,80 COUNTY RD,JERSEY CITY,NJ,07097,9997
OVERSEAS,4M,MILITARY POSTAL SERVSHANNON KELLY,090,600001,09303,M,APO,PV10001,P,80 COUNTY RD,JERSEY CITY,NJ,07097,9997
OVERSEAS,4M,MILITARY POSTAL SERVSHANNON KELLY,090,600001,09305,M,APO,PV10001,P,80 COUNTY RD,JERSEY CITY,NJ,07097,9997
OVERSEAS,4M,MILITARY POSTAL SERVSHANNON KELLY,090,600001,09306,M,APO,PV10001,P,80 COUNTY RD,JERSEY CITY,NJ,07097,9997
OVERSEAS,4M,MILITARY POSTAL SERVSHANNON KELLY,090,600001,09307,M,APO,PV10001,P,80 COUNTY RD,JERSEY CITY,NJ,07097,9997
OVERSEAS,4M,MILITARY POSTAL SERVSHANNON KELLY,090,600001,09309,M,APO,PV10001,P,80 COUNTY RD,JERSEY CITY,NJ,07097,9997
OVERSEAS,4M,MILITARY POSTAL SERVSHANNON KELLY,090,600002,09310,M,DPO,P017332,P,80 COUNTY RD,JERSEY CITY,NJ,07097,9997
OVERSEAS,4M,MILITARY POSTAL SERVSHANNON KELLY,090,600002,09311,M,DPO,P017332,P,80 COUNTY RD,JERSEY CITY,NJ,07097,9997
OVERSEAS,4M,MILITARY POSTAL SERVSHANNON KELLY,090,600002,09312,M,DPO,P017332,P,80 COUNTY RD,JERSEY CITY,NJ,07097,9997
OVERSEAS,4M,MILITARY POSTAL SERVSHANNON KELLY,090,600001,09315,M,APO,PV10001,P,80 COUNTY RD,JERSEY CITY,NJ,07097,9997
OVERSEAS,4M,MILITARY POSTAL SERVSHANNON KELLY,090,600001,09316,M,APO,PV10001,P,80 COUNTY RD,JERSEY CITY,NJ,07097,9997
OVERSEAS,4M,MILITARY POSTAL SERVSHANNON KELLY,090,600001,09321,M,APO,PV10001,P,80 COUNTY RD,JERSEY CITY,NJ,07097,9997
OVERSEAS,4M,MILITARY POSTAL SERVSHANNON KELLY,090,600001,09330,M,APO,PV10001,P,80 COUNTY RD,JERSEY CITY,NJ,07097,9997
OVERSEAS,4M,MILITARY POSTAL SERVSHANNON KELLY,090,600001,09333,M,APO,PV10001,P,80 COUNTY RD,JERSEY CITY,NJ,07097,9997
OVERSEAS,4M,MILITARY POSTAL SERVSHANNON KELLY,090,600001,09343,M,APO,PV10001,P,80 COUNTY RD,JERSEY CITY,NJ,07097,9997
OVERSEAS,4M,MILITARY POSTAL SERVSHANNON KELLY,090,600001,09348,M,APO,PV10001,P,80 COUNTY RD,JERSEY CITY,NJ,07097,9997
OVERSEAS,4M,MILITARY POSTAL SERVSHANNON KELLY,090,600001,09357,M,APO,PV10001,P,80 COUNTY RD,JERSEY CITY,NJ,07097,9997
OVERSEAS,4M,MILITARY POSTAL SERVSHANNON KELLY,090,600001,09365,M,APO,PV10001,P,80 COUNTY RD,JERSEY CITY,NJ,07097,9997
OVERSEAS,4M,MILITARY POSTAL SERVSHANNON KELLY,090,600001,09366,M,APO,PV10001,P,80 COUNTY RD,JERSEY CITY,NJ,07097,9997
OVERSEAS,4M,MILITARY POSTAL SERVSHANNON KELLY,090,600001,09401,M,APO,PV10001,P,80 COUNTY RD,JERSEY CITY,NJ,07097,9997
OVERSEAS,4M,MILITARY POSTAL SERVSHANNON KELLY,090,600001,09403,M,APO,PV10001,P,80 COUNTY RD,JERSEY CITY,NJ,07097,9997
OVERSEAS,4M,MILITARY POSTAL SERVSHANNON KELLY,090,600001,09410,M,APO,PV10001,P,80 COUNTY RD,JERSEY CITY,NJ,07097,9997
OVERSEAS,4M,MILITARY POSTAL SERVSHANNON KELLY,090,600001,09421,M,APO,PV10001,P,80 COUNTY RD,JERSEY CITY,NJ,07097,9997
OVERSEAS,4M,MILITARY POSTAL SERVSHANNON KELLY,090,600001,09424,M,APO,PV10001,P,80 COUNTY RD,JERSEY CITY,NJ,07097,9997
OVERSEAS,4M,MILITARY POSTAL SERVSHANNON KELLY,090,600001,09447,M,APO,PV10001,P,80 COUNTY RD,JERSEY CITY,NJ,07097,9997
OVERSEAS,4M,MILITARY POSTAL SERVSHANNON KELLY,090,600001,09454,M,APO,PV10001,P,80 COUNTY RD,JERSEY CITY,NJ,07097,9997
OVERSEAS,4M,MILITARY POSTAL SERVSHANNON KELLY,090,600001,09456,M,APO,PV10001,P,80 COUNTY RD,JERSEY CITY,NJ,07097,9997
OVERSEAS,4M,MILITARY POSTAL SERVSHANNON KELLY,090,600001,09459,M,APO,PV10001,P,80 COUNTY RD,JERSEY CITY,NJ,07097,9997
OVERSEAS,4M,MILITARY POSTAL SERVSHANNON KELLY,090,600001,09461,M,APO,PV10001,P,80 COUNTY RD,JERSEY CITY,NJ,07097,9997
OVERSEAS,4M,MILITARY POSTAL SERVSHANNON KELLY,090,600001,09463,M,APO,PV10001,P,80 COUNTY RD,JERSEY CITY,NJ,07097,9997
OVERSEAS,4M,MILITARY POSTAL SERVSHANNON KELLY,090,600001,09464,M,APO,PV10001,P,80 COUNTY RD,JERSEY CITY,NJ,07097,9997
OVERSEAS,4M,MILITARY POSTAL SERVSHANNON KELLY,090,600002,09467,M,DPO,P017332,P,80 COUNTY RD,JERSEY CITY,NJ,07097,9997
OVERSEAS,4M,MILITARY POSTAL SERVSHANNON KELLY,090,600001,09468,M,APO,PV10001,P,80 COUNTY RD,JERSEY CITY,NJ,07097,9997
OVERSEAS,4M,MILITARY POSTAL SERVSHANNON KELLY,090,600001,09469,M,APO,PV10001,P,80 COUNTY RD,JERSEY CITY,NJ,07097,9997
OVERSEAS,4M,MILITARY POSTAL SERVSHANNON KELLY,090,600001,09470,M,APO,PV10001,P,80 COUNTY RD,JERSEY CITY,NJ,07097,9997
OVERSEAS,4M,MILITARY POSTAL SERVSHANNON KELLY,090,600002,09487,M,DPO,P017332,P,80 COUNTY RD,JERSEY CITY,NJ,07097,9997
OVERSEAS,4M,MILITARY POSTAL SERVSHANNON KELLY,090,600002,09488,M,DPO,P017332,P,80 COUNTY RD,JERSEY CITY,NJ,07097,9997
OVERSEAS,4M,MILITARY POSTAL SERVSHANNON KELLY,090,600002,09489,M,DPO,P017332,P,80 COUNTY RD,JERSEY CITY,NJ,07097,9997
OVERSEAS,4M,MILITARY POSTAL SERVSHANNON KELLY,090,600002,09490,M,DPO,P017332,P,80 COUNTY RD,JERSEY CITY,NJ,07097,9997
OVERSEAS,4M,MILITARY POSTAL SERVSHANNON KELLY,090,600002,09491,M,DPO,P017332,P,80 COUNTY RD,JERSEY CITY,NJ,07097,9997
OVERSEAS,4M,MILITARY POSTAL SERVSHANNON KELLY,090,600001,09494,M,APO,PV10001,P,80 COUNTY RD,JERSEY CITY,NJ,07097,9997
OVERSEAS,4M,MILITARY POSTAL SERVSHANNON KELLY,090,600002,09498,M,DPO,P017332,P,80 COUNTY RD,JERSEY CITY,NJ,07097,9997
OVERSEAS,4M,MILITARY POSTAL SERVSHANNON KELLY,090,600001,09501,M,APO,PV10001,P,80 COUNTY RD,JERSEY CITY,NJ,07097,9997
OVERSEAS,4M,MILITARY POSTAL SERVSHANNON KELLY,090,600001,09502,M,APO,PV10001,P,80 COUNTY RD,JERSEY CITY,NJ,07097,9997
OVERSEAS,4M,MILITARY POSTAL SERVSHANNON KELLY,090,600001,09503,M,APO,PV10001,P,80 COUNTY RD,JERSEY CITY,NJ,07097,9997
OVERSEAS,4M,MILITARY POSTAL SERVSHANNON KELLY,090,600001,09504,M,APO,PV10001,P,80 COUNTY RD,JERSEY CITY,NJ,07097,9997
OVERSEAS,4M,MILITARY POSTAL SERVSHANNON KELLY,090,600001,09505,M,APO,PV10001,P,80 COUNTY RD,JERSEY CITY,NJ,07097,9997
OVERSEAS,4M,MILITARY POSTAL SERVSHANNON KELLY,090,600001,09506,M,APO,PV10001,P,80 COUNTY RD,JERSEY CITY,NJ,07097,9997
OVERSEAS,4M,MILITARY POSTAL SERVSHANNON KELLY,090,600001,09507,M,APO,PV10001,P,80 COUNTY RD,JERSEY CITY,NJ,07097,9997
OVERSEAS,4M,MILITARY POSTAL SERVSHANNON KELLY,090,600001,09508,M,APO,PV10001,P,80 COUNTY RD,JERSEY CITY,NJ,07097,9997
OVERSEAS,4M,MILITARY POSTAL SERVSHANNON KELLY,090,600001,09509,M,APO,PV10001,P,80 COUNTY RD,JERSEY CITY,NJ,07097,9997
OVERSEAS,4M,MILITARY POSTAL SERVSHANNON KELLY,090,600001,09510,M,APO,PV10001,P,80 COUNTY RD,JERSEY CITY,NJ,07097,9997
OVERSEAS,4M,MILITARY POSTAL SERVSHANNON KELLY,090,600001,09511,M,APO,PV10001,P,80 COUNTY RD,JERSEY CITY,NJ,07097,9997
OVERSEAS,4M,MILITARY POSTAL SERVSHANNON KELLY,090,600001,09512,M,APO,PV10001,P,80 COUNTY RD,JERSEY CITY,NJ,07097,9997
OVERSEAS,4M,MILITARY POSTAL SERVSHANNON KELLY,090,600001,09513,M,APO,PV10001,P,80 COUNTY RD,JERSEY CITY,NJ,07097,9997
OVERSEAS,4M,MILITARY POSTAL SERVSHANNON KELLY,090,600001,09514,M,APO,PV10001,P,80 COUNTY RD,JERSEY CITY,NJ,07097,9997
OVERSEAS,4M,MILITARY POSTAL SERVSHANNON KELLY,090,600001,09516,M,APO,PV10001,P,80 COUNTY RD,JERSEY CITY,NJ,07097,9997
OVERSEAS,4M,MILITARY POSTAL SERVSHANNON KELLY,090,600001,09517,M,APO,PV10001,P,80 COUNTY RD,JERSEY CITY,NJ,07097,9997
OVERSEAS,4M,MILITARY POSTAL SERVSHANNON KELLY,090,600001,09518,M,APO,PV10001,P,80 COUNTY RD,JERSEY CITY,NJ,07097,9997
OVERSEAS,4M,MILITARY POSTAL SERVSHANNON KELLY,090,600001,09522,M,APO,PV10001,P,80 COUNTY RD,JERSEY CITY,NJ,07097,9997
OVERSEAS,4M,MILITARY POSTAL SERVSHANNON KELLY,090,600001,09523,M,APO,PV10001,P,80 COUNTY RD,JERSEY CITY,NJ,07097,9997
OVERSEAS,4M,MILITARY POSTAL SERVSHANNON KELLY,090,600001,09524,M,APO,PV10001,P,80 COUNTY RD,JERSEY CITY,NJ,07097,9997
OVERSEAS,4M,MILITARY POSTAL SERVSHANNON KELLY,090,600001,09532,M,APO,PV10001,P,80 COUNTY RD,JERSEY CITY,NJ,07097,9997
OVERSEAS,4M,MILITARY POSTAL SERVSHANNON KELLY,090,600001,09533,M,APO,PV10001,P,80 COUNTY RD,JERSEY CITY,NJ,07097,9997
OVERSEAS,4M,MILITARY POSTAL SERVSHANNON KELLY,090,600001,09534,M,APO,PV10001,P,80 COUNTY RD,JERSEY CITY,NJ,07097,9997
OVERSEAS,4M,MILITARY POSTAL SERVSHANNON KELLY,090,600001,09541,M,APO,PV10001,P,80 COUNTY RD,JERSEY CITY,NJ,07097,9997
OVERSEAS,4M,MILITARY POSTAL SERVSHANNON KELLY,090,600001,09542,M,APO,PV10001,P,80 COUNTY RD,JERSEY CITY,NJ,07097,9997
OVERSEAS,4M,MILITARY POSTAL SERVSHANNON KELLY,090,600001,09543,M,APO,PV10001,P,80 COUNTY RD,JERSEY CITY,NJ,07097,9997
OVERSEAS,4M,MILITARY POSTAL SERVSHANNON KELLY,090,600001,09544,M,APO,PV10001,P,80 COUNTY RD,JERSEY CITY,NJ,07097,9997
OVERSEAS,4M,MILITARY POSTAL SERVSHANNON KELLY,090,600001,09545,M,APO,PV10001,P,80 COUNTY RD,JERSEY CITY,NJ,07097,9997
OVERSEAS,4M,MILITARY POSTAL SERVSHANNON KELLY,090,600001,09550,M,APO,PV10001,P,80 COUNTY RD,JERSEY CITY,NJ,07097,9997
OVERSEAS,4M,MILITARY POSTAL SERVSHANNON KELLY,090,600001,09554,M,APO,PV10001,P,80 COUNTY RD,JERSEY CITY,NJ,07097,9997
OVERSEAS,4M,MILITARY POSTAL SERVSHANNON KELLY,090,600001,09556,M,APO,PV10001,P,80 COUNTY RD,JERSEY CITY,NJ,07097,9997
OVERSEAS,4M,MILITARY POSTAL SERVSHANNON KELLY,090,600001,09564,M,APO,PV10001,P,80 COUNTY RD,JERSEY CITY,NJ,07097,9997
OVERSEAS,4M,MILITARY POSTAL SERVSHANNON KELLY,090,600001,09565,M,APO,PV10001,P,80 COUNTY RD,JERSEY CITY,NJ,07097,9997
OVERSEAS,4M,MILITARY POSTAL SERVSHANNON KELLY,090,600001,09566,M,APO,PV10001,P,80 COUNTY RD,JERSEY CITY,NJ,07097,9997
OVERSEAS,4M,MILITARY POSTAL SERVSHANNON KELLY,090,600001,09567,M,APO,PV10001,P,80 COUNTY RD,JERSEY CITY,NJ,07097,9997
OVERSEAS,4M,MILITARY POSTAL SERVSHANNON KELLY,090,600001,09568,M,APO,PV10001,P,80 COUNTY RD,JERSEY CITY,NJ,07097,9997
OVERSEAS,4M,MILITARY POSTAL SERVSHANNON KELLY,090,600001,09569,M,APO,PV10001,P,80 COUNTY RD,JERSEY CITY,NJ,07097,9997
OVERSEAS,4M,MILITARY POSTAL SERVSHANNON KELLY,090,600001,09570,M,APO,PV10001,P,80 COUNTY RD,JERSEY CITY,NJ,07097,9997
OVERSEAS,4M,MILITARY POSTAL SERVSHANNON KELLY,090,600001,09573,M,APO,PV10001,P,80 COUNTY RD,JERSEY CITY,NJ,07097,9997
OVERSEAS,4M,MILITARY POSTAL SERVSHANNON KELLY,090,600001,09575,M,APO,PV10001,P,80 COUNTY RD,JERSEY CITY,NJ,07097,9997
OVERSEAS,4M,MILITARY POSTAL SERVSHANNON KELLY,090,600001,09576,M,APO,PV10001,P,80 COUNTY RD,JERSEY CITY,NJ,07097,9997
OVERSEAS,4M,MILITARY POSTAL SERVSHANNON KELLY,090,600001,09577,M,APO,PV10001,P,80 COUNTY RD,JERSEY CITY,NJ,07097,9997
OVERSEAS,4M,MILITARY POSTAL SERVSHANNON KELLY,090,600001,09578,M,APO,PV10001,P,80 COUNTY RD,JERSEY CITY,NJ,07097,9997
OVERSEAS,4M,MILITARY POSTAL SERVSHANNON KELLY,090,600001,09579,M,APO,PV10001,P,80 COUNTY RD,JERSEY CITY,NJ,07097,9997
OVERSEAS,4M,MILITARY POSTAL SERVSHANNON KELLY,090,600001,09581,M,APO,PV10001,P,80 COUNTY RD,JERSEY CITY,NJ,07097,9997
OVERSEAS,4M,MILITARY POSTAL SERVSHANNON KELLY,090,600001,09582,M,APO,PV10001,P,80 COUNTY RD,JERSEY CITY,NJ,07097,9997
OVERSEAS,4M,MILITARY POSTAL SERVSHANNON KELLY,090,600001,09583,M,APO,PV10001,P,80 COUNTY RD,JERSEY CITY,NJ,07097,9997
OVERSEAS,4M,MILITARY POSTAL SERVSHANNON KELLY,090,600001,09586,M,APO,PV10001,P,80 COUNTY RD,JERSEY CITY,NJ,07097,9997
OVERSEAS,4M,MILITARY POSTAL SERVSHANNON KELLY,090,600001,09587,M,APO,PV10001,P,80 COUNTY RD,JERSEY CITY,NJ,07097,9997
OVERSEAS,4M,MILITARY POSTAL SERVSHANNON KELLY,090,600001,09588,M,APO,PV10001,P,80 COUNTY RD,JERSEY CITY,NJ,07097,9997
OVERSEAS,4M,MILITARY POSTAL SERVSHANNON KELLY,090,600001,09590,M,APO,PV10001,P,80 COUNTY RD,JERSEY CITY,NJ,07097,9997
OVERSEAS,4M,MILITARY POSTAL SERVSHANNON KELLY,090,600001,09591,M,APO,PV10001,P,80 COUNTY RD,JERSEY CITY,NJ,07097,9997
OVERSEAS,4M,MILITARY POSTAL SERVSHANNON KELLY,090,600001,09592,M,APO,PV10001,P,80 COUNTY RD,JERSEY CITY,NJ,07097,9997
OVERSEAS,4M,MILITARY POSTAL SERVSHANNON KELLY,090,600001,09593,M,APO,PV10001,P,80 COUNTY RD,JERSEY CITY,NJ,07097,9997
OVERSEAS,4M,MILITARY POSTAL SERVSHANNON KELLY,090,600001,09594,M,APO,PV10001,P,80 COUNTY RD,JERSEY CITY,NJ,07097,9997
OVERSEAS,4M,MILITARY POSTAL SERVSHANNON KELLY,090,600001,09595,M,APO,PV10001,P,80 COUNTY RD,JERSEY CITY,NJ,07097,9997
OVERSEAS,4M,MILITARY POSTAL SERVSHANNON KELLY,090,600001,09596,M,APO,PV10001,P,80 COUNTY RD,JERSEY CITY,NJ,07097,9997
OVERSEAS,4M,MILITARY POSTAL SERVSHANNON KELLY,090,600001,09599,M,APO,PV10001,P,80 COUNTY RD,JERSEY CITY,NJ,07097,9997
OVERSEAS,4M,MILITARY POSTAL SERVSHANNON KELLY,090,600001,09600,M,APO,PV10001,P,80 COUNTY RD,JERSEY CITY,NJ,07097,9997
OVERSEAS,4M,MILITARY POSTAL SERVSHANNON KELLY,090,600001,09602,M,APO,PV10001,P,80 COUNTY RD,JERSEY CITY,NJ,07097,9997
OVERSEAS,4M,MILITARY POSTAL SERVSHANNON KELLY,090,600001,09603,M,APO,PV10001,P,80 COUNTY RD,JERSEY CITY,NJ,07097,9997
OVERSEAS,4M,MILITARY POSTAL SERVSHANNON KELLY,090,600001,09604,M,APO,PV10001,P,80 COUNTY RD,JERSEY CITY,NJ,07097,9997
OVERSEAS,4M,MILITARY POSTAL SERVSHANNON KELLY,090,600001,09605,M,APO,PV10001,P,80 COUNTY RD,JERSEY CITY,NJ,07097,9997
OVERSEAS,4M,MILITARY POSTAL SERVSHANNON KELLY,090,600001,09606,M,APO,PV10001,P,80 COUNTY RD,JERSEY CITY,NJ,07097,9997
OVERSEAS,4M,MILITARY POSTAL SERVSHANNON KELLY,090,600001,09608,M,APO,PV10001,P,80 COUNTY RD,JERSEY CITY,NJ,07097,9997
OVERSEAS,4M,MILITARY POSTAL SERVSHANNON KELLY,090,600001,09609,M,APO,PV10001,P,80 COUNTY RD,JERSEY CITY,NJ,07097,9997
OVERSEAS,4M,MILITARY POSTAL SERVSHANNON KELLY,090,600001,09610,M,APO,PV10001,P,80 COUNTY RD,JERSEY CITY,NJ,07097,9997
OVERSEAS,4M,MILITARY POSTAL SERVSHANNON KELLY,090,600001,09613,M,APO,PV10001,P,80 COUNTY RD,JERSEY CITY,NJ,07097,9997
OVERSEAS,4M,MILITARY POSTAL SERVSHANNON KELLY,090,600002,09614,M,DPO,P017332,P,80 COUNTY RD,JERSEY CITY,NJ,07097,9997
OVERSEAS,4M,MILITARY POSTAL SERVSHANNON KELLY,090,600001,09618,M,APO,PV10001,P,80 COUNTY RD,JERSEY CITY,NJ,07097,9997
OVERSEAS,4M,MILITARY POSTAL SERVSHANNON KELLY,090,600001,09620,M,APO,PV10001,P,80 COUNTY RD,JERSEY CITY,NJ,07097,9997
OVERSEAS,4M,MILITARY POSTAL SERVSHANNON KELLY,090,600001,09621,M,APO,PV10001,P,80 COUNTY RD,JERSEY CITY,NJ,07097,9997
OVERSEAS,4M,MILITARY POSTAL SERVSHANNON KELLY,090,600001,09622,M,APO,PV10001,P,80 COUNTY RD,JERSEY CITY,NJ,07097,9997
OVERSEAS,4M,MILITARY POSTAL SERVSHANNON KELLY,090,600001,09623,M,APO,PV10001,P,80 COUNTY RD,JERSEY CITY,NJ,07097,9997
OVERSEAS,4M,MILITARY POSTAL SERVSHANNON KELLY,090,600002,09624,M,DPO,P017332,P,80 COUNTY RD,JERSEY CITY,NJ,07097,9997
OVERSEAS,4M,MILITARY POSTAL SERVSHANNON KELLY,090,600001,09625,M,APO,PV10001,P,80 COUNTY RD,JERSEY CITY,NJ,07097,9997
OVERSEAS,4M,MILITARY POSTAL SERVSHANNON KELLY,090,600001,09627,M,APO,PV10001,P,80 COUNTY RD,JERSEY CITY,NJ,07097,9997
OVERSEAS,4M,MILITARY POSTAL SERVSHANNON KELLY,090,600001,09630,M,APO,PV10001,P,80 COUNTY RD,JERSEY CITY,NJ,07097,9997
OVERSEAS,4M,MILITARY POSTAL SERVSHANNON KELLY,090,600001,09633,M,APO,PV10001,P,80 COUNTY RD,JERSEY CITY,NJ,07097,9997
OVERSEAS,4M,MILITARY POSTAL SERVSHANNON KELLY,090,600001,09634,M,APO,PV10001,P,80 COUNTY RD,JERSEY CITY,NJ,07097,9997
OVERSEAS,4M,MILITARY POSTAL SERVSHANNON KELLY,090,600001,09636,M,APO,PV10001,P,80 COUNTY RD,JERSEY CITY,NJ,07097,9997
OVERSEAS,4M,MILITARY POSTAL SERVSHANNON KELLY,090,600002,09642,M,DPO,P017332,P,80 COUNTY RD,JERSEY CITY,NJ,07097,9997
OVERSEAS,4M,MILITARY POSTAL SERVSHANNON KELLY,090,600001,09643,M,APO,PV10001,P,80 COUNTY RD,JERSEY CITY,NJ,07097,9997
OVERSEAS,4M,MILITARY POSTAL SERVSHANNON KELLY,090,600001,09645,M,APO,PV10001,P,80 COUNTY RD,JERSEY CITY,NJ,07097,9997
OVERSEAS,4M,MILITARY POSTAL SERVSHANNON KELLY,090,600001,09647,M,APO,PV10001,P,80 COUNTY RD,JERSEY CITY,NJ,07097,9997
OVERSEAS,4M,MILITARY POSTAL SERVSHANNON KELLY,090,600001,09648,M,APO,PV10001,P,80 COUNTY RD,JERSEY CITY,NJ,07097,9997
OVERSEAS,4M,MILITARY POSTAL SERVSHANNON KELLY,090,600001,09649,M,APO,PV10001,P,80 COUNTY RD,JERSEY CITY,NJ,07097,9997
OVERSEAS,4M,MILITARY POSTAL SERVSHANNON KELLY,090,600002,09701,M,DPO,P017332,P,80 COUNTY RD,JERSEY CITY,NJ,07097,9997
OVERSEAS,4M,MILITARY POSTAL SERVSHANNON KELLY,090,600001,09702,M,APO,PV10001,P,80 COUNTY RD,JERSEY CITY,NJ,07097,9997
OVERSEAS,4M,MILITARY POSTAL SERVSHANNON KELLY,090,600001,09703,M,APO,PV10001,P,80 COUNTY RD,JERSEY CITY,NJ,07097,9997
OVERSEAS,4M,MILITARY POSTAL SERVSHANNON KELLY,090,600001,09704,M,APO,PV10001,P,80 COUNTY RD,JERSEY CITY,NJ,07097,9997
OVERSEAS,4M,MILITARY POSTAL SERVSHANNON KELLY,090,600001,09705,M,APO,PV10001,P,80 COUNTY RD,JERSEY CITY,NJ,07097,9997
OVERSEAS,4M,MILITARY POSTAL SERVSHANNON KELLY,090,600001,09706,M,APO,PV10001,P,80 COUNTY RD,JERSEY CITY,NJ,07097,9997
OVERSEAS,4M,MILITARY POSTAL SERVSHANNON KELLY,090,600002,09707,M,DPO,P017332,P,80 COUNTY RD,JERSEY CITY,NJ,07097,9997
OVERSEAS,4M,MILITARY POSTAL SERVSHANNON KELLY,090,600001,09708,M,APO,PV10001,P,80 COUNTY RD,JERSEY CITY,NJ,07097,9997
OVERSEAS,4M,MILITARY POSTAL SERVSHANNON KELLY,090,600002,09709,M,DPO,P017332,P,80 COUNTY RD,JERSEY CITY,NJ,07097,9997
OVERSEAS,4M,MILITARY POSTAL SERVSHANNON KELLY,090,600002,09710,M,DPO,P017332,P,80 COUNTY RD,JERSEY CITY,NJ,07097,9997
OVERSEAS,4M,MILITARY POSTAL SERVSHANNON KELLY,090,600001,09711,M,APO,PV10001,P,80 COUNTY RD,JERSEY CITY,NJ,07097,9997
OVERSEAS,4M,MILITARY POSTAL SERVSHANNON KELLY,090,600001,09712,M,APO,PV10001,P,80 COUNTY RD,JERSEY CITY,NJ,07097,9997
OVERSEAS,4M,MILITARY POSTAL SERVSHANNON KELLY,090,600001,09714,M,APO,PV10001,P,80 COUNTY RD,JERSEY CITY,NJ,07097,9997
OVERSEAS,4M,MILITARY POSTAL SERVSHANNON KELLY,090,600002,09715,M,DPO,P017332,P,80 COUNTY RD,JERSEY CITY,NJ,07097,9997
OVERSEAS,4M,MILITARY POSTAL SERVSHANNON KELLY,090,600002,09716,M,DPO,P017332,P,80 COUNTY RD,JERSEY CITY,NJ,07097,9997
OVERSEAS,4M,MILITARY POSTAL SERVSHANNON KELLY,090,600001,09717,M,APO,PV10001,P,80 COUNTY RD,JERSEY CITY,NJ,07097,9997
OVERSEAS,4M,MILITARY POSTAL SERVSHANNON KELLY,090,600002,09718,M,DPO,P017332,P,80 COUNTY RD,JERSEY CITY,NJ,07097,9997
OVERSEAS,4M,MILITARY POSTAL SERVSHANNON KELLY,090,600001,09719,M,APO,PV10001,P,80 COUNTY RD,JERSEY CITY,NJ,07097,9997
OVERSEAS,4M,MILITARY POSTAL SERVSHANNON KELLY,090,600001,09720,M,APO,PV10001,P,80 COUNTY RD,JERSEY CITY,NJ,07097,9997
OVERSEAS,4M,MILITARY POSTAL SERVSHANNON KELLY,090,600001,09722,M,APO,PV10001,P,80 COUNTY RD,JERSEY CITY,NJ,07097,9997
OVERSEAS,4M,MILITARY POSTAL SERVSHANNON KELLY,090,600002,09723,M,DPO,P017332,P,80 COUNTY RD,JERSEY CITY,NJ,07097,9997
OVERSEAS,4M,MILITARY POSTAL SERVSHANNON KELLY,090,600001,09724,M,APO,PV10001,P,80 COUNTY RD,JERSEY CITY,NJ,07097,9997
OVERSEAS,4M,MILITARY POSTAL SERVSHANNON KELLY,090,600001,09725,M,APO,PV10001,P,80 COUNTY RD,JERSEY CITY,NJ,07097,9997
OVERSEAS,4M,MILITARY POSTAL SERVSHANNON KELLY,090,600002,09726,M,DPO,P017332,P,80 COUNTY RD,JERSEY CITY,NJ,07097,9997
OVERSEAS,4M,MILITARY POSTAL SERVSHANNON KELLY,090,600002,09727,M,DPO,P017332,P,80 COUNTY RD,JERSEY CITY,NJ,07097,9997
OVERSEAS,4M,MILITARY POSTAL SERVSHANNON KELLY,090,600002,09728,M,DPO,P017332,P,80 COUNTY RD,JERSEY CITY,NJ,07097,9997
OVERSEAS,4M,MILITARY POSTAL SERVSHANNON KELLY,090,600001,09729,M,APO,PV10001,P,80 COUNTY RD,JERSEY CITY,NJ,07097,9997
OVERSEAS,4M,MILITARY POSTAL SERVSHANNON KELLY,090,600002,09730,M,DPO,P017332,P,80 COUNTY RD,JERSEY CITY,NJ,07097,9997
OVERSEAS,4M,MILITARY POSTAL SERVSHANNON KELLY,090,600002,09731,M,DPO,P017332,P,80 COUNTY RD,JERSEY CITY,NJ,07097,9997
OVERSEAS,4M,MILITARY POSTAL SERVSHANNON KELLY,090,600001,09732,M,APO,PV10001,P,80 COUNTY RD,JERSEY CITY,NJ,07097,9997
OVERSEAS,4M,MILITARY POSTAL SERVSHANNON KELLY,090,600001,09733,M,APO,PV10001,P,80 COUNTY RD,JERSEY CITY,NJ,07097,9997
OVERSEAS,4M,MILITARY POSTAL SERVSHANNON KELLY,090,600002,09734,M,DPO,P017332,P,80 COUNTY RD,JERSEY CITY,NJ,07097,9997
OVERSEAS,4M,MILITARY POSTAL SERVSHANNON KELLY,090,600001,09735,M,APO,PV10001,P,80 COUNTY RD,JERSEY CITY,NJ,07097,9997
OVERSEAS,4M,MILITARY POSTAL SERVSHANNON KELLY,090,600002,09736,M,DPO,P017332,P,80 COUNTY RD,JERSEY CITY,NJ,07097,9997
OVERSEAS,4M,MILITARY POSTAL SERVSHANNON KELLY,090,600002,09737,M,DPO,P017332,P,80 COUNTY RD,JERSEY CITY,NJ,07097,9997
OVERSEAS,4M,MILITARY POSTAL SERVSHANNON KELLY,090,600002,09738,M,DPO,P017332,P,80 COUNTY RD,JERSEY CITY,NJ,07097,9997
OVERSEAS,4M,MILITARY POSTAL SERVSHANNON KELLY,090,600002,09739,M,DPO,P017332,P,80 COUNTY RD,JERSEY CITY,NJ,07097,9997
OVERSEAS,4M,MILITARY POSTAL SERVSHANNON KELLY,090,600002,09741,M,DPO,P017332,P,80 COUNTY RD,JERSEY CITY,NJ,07097,9997
OVERSEAS,4M,MILITARY POSTAL SERVSHANNON KELLY,090,600002,09742,M,DPO,P017332,P,80 COUNTY RD,JERSEY CITY,NJ,07097,9997
OVERSEAS,4M,MILITARY POSTAL SERVSHANNON KELLY,090,600001,09743,M,APO,PV10001,P,80 COUNTY RD,JERSEY CITY,NJ,07097,9997
OVERSEAS,4M,MILITARY POSTAL SERVSHANNON KELLY,090,600002,09744,M,DPO,P017332,P,80 COUNTY RD,JERSEY CITY,NJ,07097,9997
OVERSEAS,4M,MILITARY POSTAL SERVSHANNON KELLY,090,600001,09745,M,APO,PV10001,P,80 COUNTY RD,JERSEY CITY,NJ,07097,9997
OVERSEAS,4M,MILITARY POSTAL SERVSHANNON KELLY,090,600002,09748,M,DPO,P017332,P,80 COUNTY RD,JERSEY CITY,NJ,07097,9997
OVERSEAS,4M,MILITARY POSTAL SERVSHANNON KELLY,090,600001,09749,M,APO,PV10001,P,80 COUNTY RD,JERSEY CITY,NJ,07097,9997
OVERSEAS,4M,MILITARY POSTAL SERVSHANNON KELLY,090,600002,09750,M,DPO,P017332,P,80 COUNTY RD,JERSEY CITY,NJ,07097,9997
OVERSEAS,4M,MILITARY POSTAL SERVSHANNON KELLY,090,600001,09751,M,APO,PV10001,P,80 COUNTY RD,JERSEY CITY,NJ,07097,9997
OVERSEAS,4M,MILITARY POSTAL SERVSHANNON KELLY,090,600001,09752,M,APO,PV10001,P,80 COUNTY RD,JERSEY CITY,NJ,07097,9997
OVERSEAS,4M,MILITARY POSTAL SERVSHANNON KELLY,090,600001,09753,M,APO,PV10001,P,80 COUNTY RD,JERSEY CITY,NJ,07097,9997
OVERSEAS,4M,MILITARY POSTAL SERVSHANNON KELLY,090,600001,09754,M,APO,PV10001,P,80 COUNTY RD,JERSEY CITY,NJ,07097,9997
OVERSEAS,4M,MILITARY POSTAL SERVSHANNON KELLY,090,600001,09755,M,APO,PV10001,P,80 COUNTY RD,JERSEY CITY,NJ,07097,9997
OVERSEAS,4M,MILITARY POSTAL SERVSHANNON KELLY,090,600001,09756,M,APO,PV10001,P,80 COUNTY RD,JERSEY CITY,NJ,07097,9997
OVERSEAS,4M,MILITARY POSTAL SERVSHANNON KELLY,090,600002,09759,M,DPO,P017332,P,80 COUNTY RD,JERSEY CITY,NJ,07097,9997
OVERSEAS,4M,MILITARY POSTAL SERVSHANNON KELLY,090,600001,09761,M,APO,PV10001,P,80 COUNTY RD,JERSEY CITY,NJ,07097,9997
OVERSEAS,4M,MILITARY POSTAL SERVSHANNON KELLY,090,600002,09762,M,DPO,P017332,P,80 COUNTY RD,JERSEY CITY,NJ,07097,9997
OVERSEAS,4M,MILITARY POSTAL SERVSHANNON KELLY,090,600002,09769,M,DPO,P017332,P,80 COUNTY RD,JERSEY CITY,NJ,07097,9997
OVERSEAS,4M,MILITARY POSTAL SERVSHANNON KELLY,090,600002,09777,M,DPO,P017332,P,80 COUNTY RD,JERSEY CITY,NJ,07097,9997
OVERSEAS,4M,MILITARY POSTAL SERVSHANNON KELLY,090,600001,09780,M,APO,PV10001,P,80 COUNTY RD,JERSEY CITY,NJ,07097,9997
OVERSEAS,4M,MILITARY POSTAL SERVSHANNON KELLY,090,600001,09801,M,APO,PV10001,P,80 COUNTY RD,JERSEY CITY,NJ,07097,9997
OVERSEAS,4M,MILITARY POSTAL SERVSHANNON KELLY,090,600002,09802,M,DPO,P017332,P,80 COUNTY RD,JERSEY CITY,NJ,07097,9997
OVERSEAS,4M,MILITARY POSTAL SERVSHANNON KELLY,090,600001,09803,M,APO,PV10001,P,80 COUNTY RD,JERSEY CITY,NJ,07097,9997
OVERSEAS,4M,MILITARY POSTAL SERVSHANNON KELLY,090,600001,09804,M,APO,PV10001,P,80 COUNTY RD,JERSEY CITY,NJ,07097,9997
OVERSEAS,4M,MILITARY POSTAL SERVSHANNON KELLY,090,600001,09805,M,APO,PV10001,P,80 COUNTY RD,JERSEY CITY,NJ,07097,9997
OVERSEAS,4M,MILITARY POSTAL SERVSHANNON KELLY,090,600002,09806,M,DPO,P017332,P,80 COUNTY RD,JERSEY CITY,NJ,07097,9997
OVERSEAS,4M,MILITARY POSTAL SERVSHANNON KELLY,090,600001,09807,M,APO,PV10001,P,80 COUNTY RD,JERSEY CITY,NJ,07097,9997
OVERSEAS,4M,MILITARY POSTAL SERVSHANNON KELLY,090,600002,09808,M,DPO,P017332,P,80 COUNTY RD,JERSEY CITY,NJ,07097,9997
OVERSEAS,4M,MILITARY POSTAL SERVSHANNON KELLY,090,600002,09809,M,DPO,P017332,P,80 COUNTY RD,JERSEY CITY,NJ,07097,9997
OVERSEAS,4M,MILITARY POSTAL SERVSHANNON KELLY,090,600001,09810,M,APO,PV10001,P,80 COUNTY RD,JERSEY CITY,NJ,07097,9997
OVERSEAS,4M,MILITARY POSTAL SERVSHANNON KELLY,090,600002,09811,M,DPO,P017332,P,80 COUNTY RD,JERSEY CITY,NJ,07097,9997
OVERSEAS,4M,MILITARY POSTAL SERVSHANNON KELLY,090,600002,09812,M,DPO,P017332,P,80 COUNTY RD,JERSEY CITY,NJ,07097,9997
OVERSEAS,4M,MILITARY POSTAL SERVSHANNON KELLY,090,600002,09813,M,DPO,P017332,P,80 COUNTY RD,JERSEY CITY,NJ,07097,9997
OVERSEAS,4M,MILITARY POSTAL SERVSHANNON KELLY,090,600002,09814,M,DPO,P017332,P,80 COUNTY RD,JERSEY CITY,NJ,07097,9997
OVERSEAS,4M,MILITARY POSTAL SERVSHANNON KELLY,090,600001,09815,M,APO,PV10001,P,80 COUNTY RD,JERSEY CITY,NJ,07097,9997
OVERSEAS,4M,MILITARY POSTAL SERVSHANNON KELLY,090,600002,09816,M,DPO,P017332,P,80 COUNTY RD,JERSEY CITY,NJ,07097,9997
OVERSEAS,4M,MILITARY POSTAL SERVSHANNON KELLY,090,600002,09817,M,DPO,P017332,P,80 COUNTY RD,JERSEY CITY,NJ,07097,9997
OVERSEAS,4M,MILITARY POSTAL SERVSHANNON KELLY,090,600001,09818,M,APO,PV10001,P,80 COUNTY RD,JERSEY CITY,NJ,07097,9997
OVERSEAS,4M,MILITARY POSTAL SERVSHANNON KELLY,090,600001,09819,M,APO,PV10001,P,80 COUNTY RD,JERSEY CITY,NJ,07097,9997
OVERSEAS,4M,MILITARY POSTAL SERVSHANNON KELLY,090,600002,09820,M,DPO,P017332,P,80 COUNTY RD,JERSEY CITY,NJ,07097,9997
OVERSEAS,4M,MILITARY POSTAL SERVSHANNON KELLY,090,600001,09821,M,APO,PV10001,P,80 COUNTY RD,JERSEY CITY,NJ,07097,9997
OVERSEAS,4M,MILITARY POSTAL SERVSHANNON KELLY,090,600001,09822,M,APO,PV10001,P,80 COUNTY RD,JERSEY CITY,NJ,07097,9997
OVERSEAS,4M,MILITARY POSTAL SERVSHANNON KELLY,090,600002,09823,M,DPO,P017332,P,80 COUNTY RD,JERSEY CITY,NJ,07097,9997
OVERSEAS,4M,MILITARY POSTAL SERVSHANNON KELLY,090,600001,09824,M,APO,PV10001,P,80 COUNTY RD,JERSEY CITY,NJ,07097,9997
OVERSEAS,4M,MILITARY POSTAL SERVSHANNON KELLY,090,600002,09825,M,DPO,P017332,P,80 COUNTY RD,JERSEY CITY,NJ,07097,9997
OVERSEAS,4M,MILITARY POSTAL SERVSHANNON KELLY,090,600002,09826,M,DPO,P017332,P,80 COUNTY RD,JERSEY CITY,NJ,07097,9997
OVERSEAS,4M,MILITARY POSTAL SERVSHANNON KELLY,090,600002,09827,M,DPO,P017332,P,80 COUNTY RD,JERSEY CITY,NJ,07097,9997
OVERSEAS,4M,MILITARY POSTAL SERVSHANNON KELLY,090,600002,09828,M,DPO,P017332,P,80 COUNTY RD,JERSEY CITY,NJ,07097,9997
OVERSEAS,4M,MILITARY POSTAL SERVSHANNON KELLY,090,600001,09829,M,APO,PV10001,P,80 COUNTY RD,JERSEY CITY,NJ,07097,9997
OVERSEAS,4M,MILITARY POSTAL SERVSHANNON KELLY,090,600002,09830,M,DPO,P017332,P,80 COUNTY RD,JERSEY CITY,NJ,07097,9997
OVERSEAS,4M,MILITARY POSTAL SERVSHANNON KELLY,090,600002,09831,M,DPO,P017332,P,80 COUNTY RD,JERSEY CITY,NJ,07097,9997
OVERSEAS,4M,MILITARY POSTAL SERVSHANNON KELLY,090,600001,09832,M,APO,PV10001,P,80 COUNTY RD,JERSEY CITY,NJ,07097,9997
OVERSEAS,4M,MILITARY POSTAL SERVSHANNON KELLY,090,600001,09834,M,APO,PV10001,P,80 COUNTY RD,JERSEY CITY,NJ,07097,9997
OVERSEAS,4M,MILITARY POSTAL SERVSHANNON KELLY,090,600001,09835,M,APO,PV10001,P,80 COUNTY RD,JERSEY CITY,NJ,07097,9997
OVERSEAS,4M,MILITARY POSTAL SERVSHANNON KELLY,090,600002,09836,M,DPO,P017332,P,80 COUNTY RD,JERSEY CITY,NJ,07097,9997
OVERSEAS,4M,MILITARY POSTAL SERVSHANNON KELLY,090,600001,09837,M,APO,PV10001,P,80 COUNTY RD,JERSEY CITY,NJ,07097,9997
OVERSEAS,4M,MILITARY POSTAL SERVSHANNON KELLY,090,600001,09838,M,APO,PV10001,P,80 COUNTY RD,JERSEY CITY,NJ,07097,9997
OVERSEAS,4M,MILITARY POSTAL SERVSHANNON KELLY,090,600002,09842,M,DPO,P017332,P,80 COUNTY RD,JERSEY CITY,NJ,07097,9997
OVERSEAS,4M,MILITARY POSTAL SERVSHANNON KELLY,090,600002,09844,M,DPO,P017332,P,80 COUNTY RD,JERSEY CITY,NJ,07097,9997
OVERSEAS,4M,MILITARY POSTAL SERVSHANNON KELLY,090,600002,09845,M,DPO,P017332,P,80 COUNTY RD,JERSEY CITY,NJ,07097,9997
OVERSEAS,4M,MILITARY POSTAL SERVSHANNON KELLY,090,600002,09846,M,DPO,P017332,P,80 COUNTY RD,JERSEY CITY,NJ,07097,9997
OVERSEAS,4M,MILITARY POSTAL SERVSHANNON KELLY,090,600002,09847,M,DPO,P017332,P,80 COUNTY RD,JERSEY CITY,NJ,07097,9997
OVERSEAS,4M,MILITARY POSTAL SERVSHANNON KELLY,090,600001,09848,M,APO,PV10001,P,80 COUNTY RD,JERSEY CITY,NJ,07097,9997
OVERSEAS,4M,MILITARY POSTAL SERVSHANNON KELLY,090,600001,09853,M,APO,PV10001,P,80 COUNTY RD,JERSEY CITY,NJ,07097,9997
OVERSEAS,4M,MILITARY POSTAL SERVSHANNON KELLY,090,600002,09854,M,DPO,P017332,P,80 COUNTY RD,JERSEY CITY,NJ,07097,9997
OVERSEAS,4M,MILITARY POSTAL SERVSHANNON KELLY,090,600001,09855,M,APO,PV10001,P,80 COUNTY RD,JERSEY CITY,NJ,07097,9997
OVERSEAS,4M,MILITARY POSTAL SERVSHANNON KELLY,090,600002,09856,M,DPO,P017332,P,80 COUNTY RD,JERSEY CITY,NJ,07097,9997
OVERSEAS,4M,MILITARY POSTAL SERVSHANNON KELLY,090,600002,09857,M,DPO,P017332,P,80 COUNTY RD,JERSEY CITY,NJ,07097,9997
OVERSEAS,4M,MILITARY POSTAL SERVSHANNON KELLY,090,600001,09858,M,APO,PV10001,P,80 COUNTY RD,JERSEY CITY,NJ,07097,9997
OVERSEAS,4M,MILITARY POSTAL SERVSHANNON KELLY,090,600001,09859,M,APO,PV10001,P,80 COUNTY RD,JERSEY CITY,NJ,07097,9997
OVERSEAS,4M,MILITARY POSTAL SERVSHANNON KELLY,090,600002,09860,M,DPO,P017332,P,80 COUNTY RD,JERSEY CITY,NJ,07097,9997
OVERSEAS,4M,MILITARY POSTAL SERVSHANNON KELLY,090,600002,09862,M,DPO,P017332,P,80 COUNTY RD,JERSEY CITY,NJ,07097,9997
OVERSEAS,4M,MILITARY POSTAL SERVSHANNON KELLY,090,600002,09864,M,DPO,P017332,P,80 COUNTY RD,JERSEY CITY,NJ,07097,9997
OVERSEAS,4M,MILITARY POSTAL SERVSHANNON KELLY,090,600002,09867,M,DPO,P017332,P,80 COUNTY RD,JERSEY CITY,NJ,07097,9997
OVERSEAS,4M,MILITARY POSTAL SERVSHANNON KELLY,090,600002,09869,M,DPO,P017332,P,80 COUNTY RD,JERSEY CITY,NJ,07097,9997
OVERSEAS,4M,MILITARY POSTAL SERVSHANNON KELLY,090,600002,09870,M,DPO,P017332,P,80 COUNTY RD,JERSEY CITY,NJ,07097,9997
OVERSEAS,4M,MILITARY POSTAL SERVSHANNON KELLY,090,600002,09873,M,DPO,P017332,P,80 COUNTY RD,JERSEY CITY,NJ,07097,9997
OVERSEAS,4M,MILITARY POSTAL SERVSHANNON KELLY,090,600002,09874,M,DPO,P017332,P,80 COUNTY RD,JERSEY CITY,NJ,07097,9997
OVERSEAS,4M,MILITARY POSTAL SERVSHANNON KELLY,090,600002,09875,M,DPO,P017332,P,80 COUNTY RD,JERSEY CITY,NJ,07097,9997
OVERSEAS,4M,MILITARY POSTAL SERVSHANNON KELLY,090,600001,09877,M,APO,PV10001,P,80 COUNTY RD,JERSEY CITY,NJ,07097,9997
OVERSEAS,4M,MILITARY POSTAL SERVSHANNON KELLY,090,600002,09880,M,DPO,P017332,P,80 COUNTY RD,JERSEY CITY,NJ,07097,9997
OVERSEAS,4M,MILITARY POSTAL SERVSHANNON KELLY,090,600002,09892,M,DPO,P017332,P,80 COUNTY RD,JERSEY CITY,NJ,07097,9997
OVERSEAS,4M,MILITARY POSTAL SERVSHANNON KELLY,090,600002,09895,M,DPO,P017332,P,80 COUNTY RD,JERSEY CITY,NJ,07097,9997
OVERSEAS,4M,MILITARY POSTAL SERVSHANNON KELLY,090,600001,09898,M,APO,PV10001,P,80 COUNTY RD,JERSEY CITY,NJ,07097,9997
OVERSEAS,4M,MILITARY POSTAL SERVSHANNON KELLY,090,600001,09902,M,APO,PV10001,P,80 COUNTY RD,JERSEY CITY,NJ,07097,9997
OVERSEAS,4M,MILITARY POSTAL SERVSHANNON KELLY,090,600001,09903,M,APO,PV10001,P,80 COUNTY RD,JERSEY CITY,NJ,07097,9997
OVERSEAS,4M,MILITARY POSTAL SERVSHANNON KELLY,090,600001,09904,M,APO,PV10001,P,80 COUNTY RD,JERSEY CITY,NJ,07097,9997
OVERSEAS,4M,MILITARY POSTAL SERVSHANNON KELLY,090,600001,09905,M,APO,PV10001,P,80 COUNTY RD,JERSEY CITY,NJ,07097,9997
OVERSEAS,4M,MILITARY POSTAL SERVSHANNON KELLY,090,600002,09974,M,DPO,P017332,P,80 COUNTY RD,JERSEY CITY,NJ,07097,9997
OVERSEAS,4M,MILITARY POSTAL SERVSHANNON KELLY,090,600002,09975,M,DPO,P017332,P,80 COUNTY RD,JERSEY CITY,NJ,07097,9997
OVERSEAS,4M,MILITARY POSTAL SERVSHANNON KELLY,090,600002,09976,M,DPO,P017332,P,80 COUNTY RD,JERSEY CITY,NJ,07097,9997
OVERSEAS,4M,MILITARY POSTAL SERVSHANNON KELLY,090,600002,09977,M,DPO,P017332,P,80 COUNTY RD,JERSEY CITY,NJ,07097,9997
OVERSEAS,4M,MILITARY POSTAL SERVSHANNON KELLY,090,600002,09978,M,DPO,P017332,P,80 COUNTY RD,JERSEY CITY,NJ,07097,9997
OVERSEAS,4M,MILITARY POSTAL SERVSHANNON KELLY,090,600002,09980,M,DPO,P017332,P,80 COUNTY RD,JERSEY CITY,NJ,07097,9997
OVERSEAS,4M,MILITARY POSTAL SERVSHANNON KELLY,090,600002,09981,M,DPO,P017332,P,80 COUNTY RD,JERSEY CITY,NJ,07097,9997
OVERSEAS,4M,MILITARY POSTAL SERVSHANNON KELLY,090,600002,09982,M,DPO,P017332,P,80 COUNTY RD,JERSEY CITY,NJ,07097,9997
OVERSEAS,4M,MILITARY POSTAL SERVSHANNON KELLY,090,600002,09983,M,DPO,P017332,P,80 COUNTY RD,JERSEY CITY,NJ,07097,9997
OVERSEAS,4M,MILITARY POSTAL SERVSHANNON KELLY,090,600002,09984,M,DPO,P017332,P,80 COUNTY RD,JERSEY CITY,NJ,07097,9997
ATLANTIC,4B,NEW YORK 1,100,355825,10041,,NEW YORK,PV14966,P,421 8TH AVE STE E3160,NEW YORK,NY,10199,9998
ATLANTIC,4B,NEW YORK 1,100,355825,10045,,NEW YORK,PV14966,P,421 8TH AVE STE E3160,NEW YORK,NY,10199,9998
ATLANTIC,4B,NEW YORK 1,100,355825,10055,,NEW YORK,PV14966,P,421 8TH AVE STE E3160,NEW YORK,NY,10199,9998
ATLANTIC,4B,NEW YORK 1,100,355825,10060,,NEW YORK,PV14966,P,421 8TH AVE STE E3160,NEW YORK,NY,10199,9998
ATLANTIC,4B,NEW YORK 1,100,355825,10090,,NEW YORK,PV14966,P,421 8TH AVE STE E3160,NEW YORK,NY,10199,9998
ATLANTIC,4B,NEW YORK 1,100,355825,10103,,NEW YORK,PV14966,P,421 8TH AVE STE E3160,NEW YORK,NY,10199,9998
ATLANTIC,4B,NEW YORK 1,100,355825,10110,,NEW YORK,PV14966,P,421 8TH AVE STE E3160,NEW YORK,NY,10199,9998
ATLANTIC,4B,NEW YORK 1,100,355825,10115,,NEW YORK,PV14966,P,421 8TH AVE STE E3160,NEW YORK,NY,10199,9998
ATLANTIC,4B,NEW YORK 1,100,355825,10120,,NEW YORK,PV14966,P,421 8TH AVE STE E3160,NEW YORK,NY,10199,9998
ATLANTIC,4B,NEW YORK 1,100,355825,10121,,NEW YORK,PV14966,P,421 8TH AVE STE E3160,NEW YORK,NY,10199,9998
ATLANTIC,4B,NEW YORK 1,100,355825,10122,,NEW YORK,PV14966,P,421 8TH AVE STE E3160,NEW YORK,NY,10199,9998
ATLANTIC,4B,NEW YORK 1,100,355825,10123,,NEW YORK,PV14966,P,421 8TH AVE STE E3160,NEW YORK,NY,10199,9998
ATLANTIC,4B,NEW YORK 1,100,355825,10152,,NEW YORK,PV14966,P,421 8TH AVE STE E3160,NEW YORK,NY,10199,9998
ATLANTIC,4B,NEW YORK 1,100,355825,10154,,NEW YORK,PV14966,P,421 8TH AVE STE E3160,NEW YORK,NY,10199,9998
ATLANTIC,4B,NEW YORK 1,100,355825,10155,,NEW YORK,PV14966,P,421 8TH AVE STE E3160,NEW YORK,NY,10199,9998
ATLANTIC,4B,NEW YORK 1,100,355825,10158,,NEW YORK,PV14966,P,421 8TH AVE STE E3160,NEW YORK,NY,10199,9998
ATLANTIC,4B,NEW YORK 1,100,355825,10166,,NEW YORK,PV14966,P,421 8TH AVE STE E3160,NEW YORK,NY,10199,9998
ATLANTIC,4B,NEW YORK 1,100,355825,10167,,NEW YORK,PV14966,P,421 8TH AVE STE E3160,NEW YORK,NY,10199,9998
ATLANTIC,4B,NEW YORK 1,100,355825,10171,,NEW YORK,PV14966,P,421 8TH AVE STE E3160,NEW YORK,NY,10199,9998
ATLANTIC,4B,NEW YORK 1,100,355825,10172,,NEW YORK,PV14966,P,421 8TH AVE STE E3160,NEW YORK,NY,10199,9998
ATLANTIC,4B,NEW YORK 1,100,355825,10173,,NEW YORK,PV14966,P,421 8TH AVE STE E3160,NEW YORK,NY,10199,9998
ATLANTIC,4B,NEW YORK 1,100,355825,10177,,NEW YORK,PV14966,P,421 8TH AVE STE E3160,NEW YORK,NY,10199,9998
ATLANTIC,4B,NEW YORK 1,100,355825,10199,,NEW YORK,PV14966,P,421 8TH AVE STE E3160,NEW YORK,NY,10199,9998
ATLANTIC,4B,NEW YORK 1,100,355825,10242,P,NEW YORK,PV14966,P,421 8TH AVE STE E3160,NEW YORK,NY,10199,9998
ATLANTIC,4B,NEW YORK 1,100,355825,10249,P,NEW YORK,PV14966,P,421 8TH AVE STE E3160,NEW YORK,NY,10199,9998
ATLANTIC,4B,NEW YORK 1,100,355825,10260,,NEW YORK,PV14966,P,421 8TH AVE STE E3160,NEW YORK,NY,10199,9998
ATLANTIC,4B,NEW YORK 1,100,355825,10265,,NEW YORK,PV14966,P,421 8TH AVE STE E3160,NEW YORK,NY,10199,9998
ATLANTIC,4B,NEW YORK 1,100,355825,10270,,NEW YORK,PV14966,P,421 8TH AVE STE E3160,NEW YORK,NY,10199,9998
ATLANTIC,4B,NEW YORK 1,100,355825,10271,,NEW YORK,PV14966,P,421 8TH AVE STE E3160,NEW YORK,NY,10199,9998
ATLANTIC,4B,NEW YORK 1,100,355825,10278,,NEW YORK,PV14966,P,421 8TH AVE STE E3160,NEW YORK,NY,10199,9998
ATLANTIC,4B,NEW YORK 1,100,355825,10279,,NEW YORK,PV14966,P,421 8TH AVE STE E3160,NEW YORK,NY,10199,9998
ATLANTIC,4B,NEW YORK 1,100,355825,10281,,NEW YORK,PV14966,P,421 8TH AVE STE E3160,NEW YORK,NY,10199,9998
ATLANTIC,4B,NEW YORK 1,100,358170,10311,,STATEN ISLAND,PV16367,P,550 MANOR RD STE 1,STATEN ISLAND,NY,10314,9996
ATLANTIC,4B,NEW YORK 3,120,359350,10610,P,WHITE PLAINS,PV17010,P,100 FISHER AVE,WHITE PLAINS,NY,10606,1953
ATLANTIC,4B,NEW YORK 1,100,350995,11241,,BROOKLYN,PV12317,P,1050 FORBELL ST RM 2005,BROOKLYN,NY,11256,9700
ATLANTIC,4B,NEW YORK 1,100,350995,11242,,BROOKLYN,PV12317,P,1050 FORBELL ST RM 2005,BROOKLYN,NY,11256,9700
ATLANTIC,4B,NEW YORK 1,100,350995,11243,,BROOKLYN,PV12317,P,1050 FORBELL ST RM 2005,BROOKLYN,NY,11256,9700
ATLANTIC,4B,NEW YORK 1,100,350995,11252,,BROOKLYN,PV12317,P,1050 FORBELL ST RM 2005,BROOKLYN,NY,11256,9700
ATLANTIC,4B,NEW YORK 1,100,350995,11256,,BROOKLYN,PV12317,P,1050 FORBELL ST RM 2005,BROOKLYN,NY,11256,9700
ATLANTIC,4B,NEW YORK 2,117,352895,11351,,FLUSHING,PV13365,P,4165 MAIN ST STE 1,FLUSHING,NY,11355,9998
ATLANTIC,4B,NEW YORK 2,117,352895,11359,,FLUSHING,PV13365,P,4165 MAIN ST STE 1,FLUSHING,NY,11355,9998
ATLANTIC,4B,NEW YORK 2,117,358625,11556,,UNIONDALE,P001933,P,1000 FRONT ST,UNIONDALE,NY,11553,1649
ATLANTIC,4B,NEW YORK 2,117,353100,11599,,GARDEN CITY,PV13492,P,600 FRANKLIN AVE,GARDEN CITY,NY,11530,5756
ATLANTIC,4B,NEW YORK 2,117,352785,11695,P,FAR ROCKAWAY,PV13276,P,1836 MOTT AVE,FAR ROCKAWAY,NY,11691,9998
ATLANTIC,4B,NEW YORK 2,117,352770,11737,,FARMINGDALE,PV13282,P,380 MAIN ST,FARMINGDALE,NY,11735,3590
ATLANTIC,4B,NEW YORK 2,117,354060,11760,P,HUNTINGTON STATION,PV13988,P,888 E JERICHO TPKE,HUNTINGTON STATION,NY,11746,7530
ATLANTIC,4B,NEW YORK 2,117,353775,11805,P,HICKSVILLE,PV13851,P,185 W JOHN ST,HICKSVILLE,NY,11801,8702
ATLANTIC,4B,NEW YORK 3,120,353065,12016,,FULTONVILLE,PV13476,P,26 MAIN ST STE 5,FULTONVILLE,NY,12072,9998
ATLANTIC,4B,NEW YORK 3,120,359135,12055,,WESTERLO,PV16967,P,591 STATE ROUTE 143,WESTERLO,NY,12193,9998
ATLANTIC,4B,NEW YORK 3,120,350060,12225,P,ALBANY,PV11842,P,30 KARNER RD,ALBANY,NY,12288,9998
ATLANTIC,4B,NEW YORK 3,120,350060,12226,,ALBANY,PV11842,P,30 KARNER RD,ALBANY,NY,12288,9998
ATLANTIC,4B,NEW YORK 3,120,350060,12260,,ALBANY,PV11842,P,30 KARNER RD,ALBANY,NY,12288,9998
ATLANTIC,4B,NEW YORK 3,120,356975,12504,P,RED HOOK,PV15649,P,7525 N BROADWAY,RED HOOK,NY,12571,9998
ATLANTIC,4B,NEW YORK 3,120,351265,12511,P,CASTLE POINT,PV12451,P,15 NURSING HOME RD RM 24,CASTLE POINT,NY,12511,9800
ATLANTIC,4B,NEW YORK 3,120,355305,12555,P,MID HUDSON,PV14658,P,99 ENTERPRISE DR,NEWBURGH,NY,12555,8301
ATLANTIC,4B,NEW YORK 3,120,351700,12727,,COCHECTON,PV12657,P,45 COUNTY ROAD 114,COCHECTON,NY,12726,9998
ATLANTIC,4B,NEW YORK 3,120,355710,12879,,NEWCOMB,PV14979,P,28 BISSELL LOOP,NEWCOMB,NY,12852,9998
ATLANTIC,4B,NEW YORK 3,120,355980,12949,,NORTH LAWRENCE,PV15080,P,1971 STATE HIGHWAY 11C,NORTH LAWRENCE,NY,12967,9998
ATLANTIC,4B,NEW YORK 3,120,354995,12995,P,MALONE,PV14495,P,482 E MAIN ST,MALONE,NY,12953,9998
ATLANTIC,4B,NEW YORK 3,120,358560,13056,P,TRUXTON,PV16576,P,3726 STATE ROUTE 13,TRUXTON,NY,13158,9998
ATLANTIC,4B,NEW YORK 3,120,356370,13107,P,PARISH,PV15307,P,2963 E MAIN ST,PARISH,NY,13131,9998
ATLANTIC,4B,NEW YORK 3,120,356225,13362,P,ORISKANY FALLS,PV15243,P,216 MAIN ST,ORISKANY FALLS,NY,13425,9998
ATLANTIC,4B,NEW YORK 3,120,354955,13465,,MADISON,PV14466,P,7326 STATE ROUTE 20,MADISON,NY,13402,9998
ATLANTIC,4B,NEW YORK 3,120,352230,13657,P,DEXTER,PV12932,P,612 BROWN ST,DEXTER,NY,13634,9998
ATLANTIC,4B,NEW YORK 3,120,350235,13671,P,ANTWERP,PV11924,P,50 MAIN ST,ANTWERP,NY,13608,9998
ATLANTIC,4B,NEW YORK 3,120,350080,14038,P,ALDEN,PV11850,P,13127 BROADWAY ST,ALDEN,NY,14004,9998
ATLANTIC,4B,NEW YORK 3,120,354675,14144,,LEWISTON,PV14344,P,150 S 8TH ST,LEWISTON,NY,14092,9998
ATLANTIC,4B,NEW YORK 3,120,350070,14479,,ALBION,PV11847,P,8 S MAIN ST,ALBION,NY,14411,9998
ATLANTIC,4B,NEW YORK 3,120,357105,14627,P,ROCHESTER,PV15732,P,1335 JEFFERSON RD,ROCHESTER,NY,14692,9998
ATLANTIC,4B,NEW YORK 3,120,354160,14853,,ITHACA,PV14045,P,757 WARREN RD,ITHACA,NY,14850,9998
ATLANTIC,4B,PENNSYLVANIA 1,150,416608,15240,P,PITTSBURGH,PX1A543,P,1001 CALIFORNIA AVE RM 1002,PITTSBURGH,PA,15290,9998
ATLANTIC,4B,PENNSYLVANIA 1,150,416608,15260,,PITTSBURGH,PX1A543,P,1001 CALIFORNIA AVE RM 1002,PITTSBURGH,PA,15290,9998
ATLANTIC,4B,PENNSYLVANIA 1,150,416608,15264,P,PITTSBURGH,PX1A543,P,1001 CALIFORNIA AVE RM 1002,PITTSBURGH,PA,15290,9998
ATLANTIC,4B,PENNSYLVANIA 1,150,416608,15272,,PITTSBURGH,PX1A543,P,1001 CALIFORNIA AVE RM 1002,PITTSBURGH,PA,15290,9998
ATLANTIC,4B,PENNSYLVANIA 1,150,416608,15274,P,PITTSBURGH,PX1A543,P,1001 CALIFORNIA AVE RM 1002,PITTSBURGH,PA,15290,9998
ATLANTIC,4B,PENNSYLVANIA 1,150,416608,15276,,PITTSBURGH,PX1A543,P,1001 CALIFORNIA AVE RM 1002,PITTSBURGH,PA,15290,9998
ATLANTIC,4B,PENNSYLVANIA 1,150,416608,15290,,PITTSBURGH,PX1A543,P,1001 CALIFORNIA AVE RM 1002,PITTSBURGH,PA,15290,9998
ATLANTIC,4B,PENNSYLVANIA 1,150,416608,15295,,PITTSBURGH,PX1A543,P,1001 CALIFORNIA AVE RM 1002,PITTSBURGH,PA,15290,9998
ATLANTIC,4B,PENNSYLVANIA 1,150,411152,15339,P,CANONSBURG,PX17495,P,120 W PIKE ST,CANONSBURG,PA,15317,1316
ATLANTIC,4B,PENNSYLVANIA 1,150,410788,15546,,BOSWELL,PX17289,P,908 ATKINSON WAY,BOSWELL,PA,15531,9998
ATLANTIC,4B,PENNSYLVANIA 1,150,418176,15548,,STOYSTOWN,PX1B383,P,209 W MAIN ST,STOYSTOWN,PA,15563,9998
ATLANTIC,4B,PENNSYLVANIA 1,150,413888,15564,,HYNDMAN,PX18998,P,129 WASHINGTON ST,HYNDMAN,PA,15545,9998
ATLANTIC,4B,PENNSYLVANIA 1,150,417408,15565,,SALISBURY,PX1A912,P,96 GRANT ST STE 1,SALISBURY,PA,15558,9998
ATLANTIC,4B,PENNSYLVANIA 1,150,415688,15621,P,MOUNT PLEASANT,PX19971,P,24 RUMBAUGH AVE,MOUNT PLEASANT,PA,15666,9998
ATLANTIC,4B,PENNSYLVANIA 1,150,410700,15750,,BLAIRSVILLE,PX17242,P,24 S WALNUT ST,BLAIRSVILLE,PA,15717,9998
ATLANTIC,4B,PENNSYLVANIA 1,150,417140,15758,,ROCHESTER MILLS,PX1A794,P,4941 RICHMOND RD,ROCHESTER MILLS,PA,15771,9998
ATLANTIC,4B,PENNSYLVANIA 1,150,417972,15775,,SPANGLER,PX1B163,P,1904 BIGLER AVE STE 2,SPANGLER,PA,15775,9998
ATLANTIC,4B,PENNSYLVANIA 1,150,417076,15822,,RIDGWAY,PX1A766,P,18 S MILL AVE,RIDGWAY,PA,15853,1058
ATLANTIC,4B,PENNSYLVANIA 1,150,414080,15915,,JOHNSTOWN,PX19093,P,111 FRANKLIN ST RM 105,JOHNSTOWN,PA,15901,9998
ATLANTIC,4B,PENNSYLVANIA 1,150,413728,15953,,HOLLSOPPLE,PX18924,P,121 MAIN ST,HOLLSOPPLE,PA,15935,9998
ATLANTIC,4B,PENNSYLVANIA 1,150,415888,16108,,NEW CASTLE,PX1A112,P,435 S CASCADE ST,NEW CASTLE,PA,16108,9998
ATLANTIC,4B,PENNSYLVANIA 1,150,415860,16253,,NEW BETHLEHEM,PX1A104,P,451 BROAD ST,NEW BETHLEHEM,PA,16242,1100
ATLANTIC,4B,PENNSYLVANIA 1,150,414856,16257,,LUCINDA,PX19527,P,454 MAPLE DR,LUCINDA,PA,16235,9800
ATLANTIC,4B,PENNSYLVANIA 1,150,411252,16432,,CENTERVILLE,PX17566,P,18599 ERIE ST,CENTERVILLE,PA,16404,9800
ATLANTIC,4B,PENNSYLVANIA 1,150,412544,16515,,ERIE,PX18265,P,2108 E 38TH ST,ERIE,PA,16515,9998
ATLANTIC,4B,PENNSYLVANIA 1,150,412544,16565,,ERIE,PX18265,P,2108 E 38TH ST,ERIE,PA,16515,9998
ATLANTIC,4B,PENNSYLVANIA 1,150,414000,16638,,JAMES CREEK,PX19060,P,3322 OLD MOUNTAIN RD STE A,JAMES CREEK,PA,16657,9998
ATLANTIC,4B,PENNSYLVANIA 1,150,411424,16670,,CLAYSBURG,PX17667,P,806 BEDFORD ST,CLAYSBURG,PA,16625,7706
ATLANTIC,4B,PENNSYLVANIA 1,150,414128,16728,,KANE,PX19113,P,131 N FRALEY ST,KANE,PA,16735,9997
ATLANTIC,4B,PENNSYLVANIA 1,150,410692,17071,P,BLAIN,PX17239,P,14 E MAIN ST,BLAIN,PA,17006,9998
ATLANTIC,4B,PENNSYLVANIA 1,150,418232,17093,P,SUMMERDALE,PX1B412,P,202 3RD ST,SUMMERDALE,PA,17093,9998
ATLANTIC,4B,PENNSYLVANIA 1,150,413900,17337,P,IDAVILLE,PX19003,P,3498 CARLISLE RD,IDAVILLE,PA,17337,9998
ATLANTIC,4B,PENNSYLVANIA 1,150,414408,17611,,LANCASTER,PX19268,P,1400 HARRISBURG PIKE,LANCASTER,PA,17604,9992
ATLANTIC,4B,PENNSYLVANIA 1,150,410524,17843,,BEAVER SPRINGS,PX17128,P,85 PINE ST,BEAVER SPRINGS,PA,17812,9998
ATLANTIC,4B,PENNSYLVANIA 1,150,418256,17877,P,SUNBURY,PX1B423,P,135 N 3RD ST,SUNBURY,PA,17801,9998
ATLANTIC,4B,PENNSYLVANIA 1,150,416920,17966,P,RAVINE,PX1A699,P,220 TREMONT RD,RAVINE,PA,17966,9800
ATLANTIC,4B,DE-PA 2,190,414582,18001,P,LEHIGH VALLEY,PX19356,P,17 S COMMERCE WAY,BETHLEHEM,PA,18017,9182
ATLANTIC,4B,DE-PA 2,190,414582,18005,P,LEHIGH VALLEY,PX19356,P,17 S COMMERCE WAY,BETHLEHEM,PA,18017,9182
ATLANTIC,4B,DE-PA 2,190,415480,18341,P,MINISINK HILLS,PX19871,P,0 RIVER RD,MINISINK HILLS,PA,18341,9900
ATLANTIC,4B,DE-PA 2,190,416676,18348,P,POCONO LAKE,PX1A586,P,1 ROUTE 940,POCONO LAKE,PA,18347,9998
ATLANTIC,4B,DE-PA 2,190,416316,18449,P,ORSON,PX1A347,P,3473 BELMONT TPKE,ORSON,PA,18449,9800
ATLANTIC,4B,DE-PA 2,190,417540,18515,,SCRANTON,PX1A957,P,2800 STAFFORD AVE,SCRANTON,PA,18505,9998
ATLANTIC,4B,DE-PA 2,190,410476,18601,P,BEACH HAVEN,PX17101,P,207 MAIN ST,BEACH HAVEN,PA,18601,9998
ATLANTIC,4B,DE-PA 2,190,419260,18711,,WILKES BARRE,PX1C026,P,300 S MAIN ST,WILKES BARRE,PA,18701,9990
ATLANTIC,4B,DE-PA 2,190,419440,18815,P,WYALUSING,PX1C107,P,58 CHURCH ST,WYALUSING,PA,18853,9998
ATLANTIC,4B,DE-PA 2,190,413076,18820,P,GIBSON,PX18591,P,7337 STATE ROUTE 547,GIBSON,PA,18820,9998
ATLANTIC,4B,DE-PA 2,190,414432,18827,P,LANESBORO,PX19281,P,408 MAIN ST,LANESBORO,PA,18827,9801
ATLANTIC,4B,DE-PA 2,190,416544,19019,P,PHILADELPHIA,PX1A496,P,3000 CHESTNUT ST,PHILADELPHIA,PA,19104,9998
ATLANTIC,4B,DE-PA 2,190,416544,19108,P,PHILADELPHIA,PX1A496,P,3000 CHESTNUT ST,PHILADELPHIA,PA,19104,9998
ATLANTIC,4B,DE-PA 2,190,416544,19109,,PHILADELPHIA,PX1A496,P,3000 CHESTNUT ST,PHILADELPHIA,PA,19104,9998
ATLANTIC,4B,DE-PA 2,190,415048,19345,P,MALVERN,PX19583,P,33 W KING ST,MALVERN,PA,19355,9998
ATLANTIC,4B,DE-PA 2,190,411626,19397,P,SOUTHEASTERN,PX1B157,P,1000 W VALLEY RD,SOUTHEASTERN,PA,19399,9998
ATLANTIC,4B,DE-PA 2,190,412220,19519,P,EARLVILLE,PX18093,P,7404 BOYERTOWN PIKE,EARLVILLE,PA,19519,9998
ATLANTIC,4B,DE-PA 2,190,095170,19716,,NEWARK,PV21334,P,401 OGLETOWN RD,NEWARK,DE,19711,9998
ATLANTIC,4B,DE-PA 2,190,096820,19735,,WILMINGTON,PV21381,P,3911 CONCORD PIKE,WILMINGTON,DE,19803,9997
ATLANTIC,4B,DE-PA 2,190,091760,19906,,DOVER,PV21248,P,445 BANK LN,DOVER,DE,19904,9997
ATLANTIC,4B,MARYLAND,200,105000,20022,P,WASHINGTON,PV21178,P,900 BRENTWOOD RD NE,WASHINGTON,DC,20018,9997
ATLANTIC,4B,MARYLAND,200,105000,20050,P,WASHINGTON,PV21178,P,900 BRENTWOOD RD NE,WASHINGTON,DC,20018,9997
ATLANTIC,4B,VIRGINIA,230,518586,20163,P,STERLING,PX27763,P,150 S STERLING BLVD,STERLING,VA,20164,9998
OVERSEAS,4M,MILITARY POSTAL SERVSHANNON KELLY,090,512704,20189,,DULLES,PX26521,P,44715 PRENTICE DR,DULLES,VA,20101,9903
ATLANTIC,4B,MARYLAND,200,105000,20260,,WASHINGTON,PV21178,P,900 BRENTWOOD RD NE,WASHINGTON,DC,20018,9997
ATLANTIC,4B,MARYLAND,200,105000,20374,,WASHINGTON,PV21178,P,900 BRENTWOOD RD NE,WASHINGTON,DC,20018,9997
ATLANTIC,4B,MARYLAND,200,105000,20376,,WASHINGTON,PV21178,P,900 BRENTWOOD RD NE,WASHINGTON,DC,20018,9997
ATLANTIC,4B,MARYLAND,200,105000,20388,,WASHINGTON,PV21178,P,900 BRENTWOOD RD NE,WASHINGTON,DC,20018,9997
ATLANTIC,4B,MARYLAND,200,105000,20391,,WASHINGTON,PV21178,P,900 BRENTWOOD RD NE,WASHINGTON,DC,20018,9997
ATLANTIC,4B,MARYLAND,200,105000,20398,,WASHINGTON,PV21178,P,900 BRENTWOOD RD NE,WASHINGTON,DC,20018,9997
ATLANTIC,4B,MARYLAND,200,105000,20500,,WASHINGTON,PV21178,P,900 BRENTWOOD RD NE,WASHINGTON,DC,20018,9997
ATLANTIC,4B,MARYLAND,200,232736,20629,P,DOWELL,PV23364,P,14515 DOWELL RD,DOWELL,MD,20629,9998
ATLANTIC,4B,MARYLAND,200,236534,20682,P,NEWBURG,PV24060,P,12179 ROCK POINT RD,NEWBURG,MD,20664,9998
ATLANTIC,4B,MARYLAND,200,230900,21020,P,BORING,PV23012,P,14707 OLD HANOVER RD,BORING,MD,21020,9998
ATLANTIC,4B,MARYLAND,200,235760,21088,P,MANCHESTER,PV23913,P,3100 WESTMINSTER ST,MANCHESTER,MD,21102,9998
ATLANTIC,4B,MARYLAND,200,230360,21092,P,BALDWIN,PV22927,P,13516 LONG GREEN PIKE,BALDWIN,MD,21013,9998
ATLANTIC,4B,MARYLAND,200,230378,21233,,BALTIMORE,PV22932,P,900 E FAYETTE ST RM 118,BALTIMORE,MD,21233,9715
ATLANTIC,4B,MARYLAND,200,230378,21287,,BALTIMORE,PV22932,P,900 E FAYETTE ST RM 118,BALTIMORE,MD,21233,9715
ATLANTIC,4B,MARYLAND,200,230216,21405,,ANNAPOLIS,PV22891,P,60 WEST ST STE 101,ANNAPOLIS,MD,21401,9998
ATLANTIC,4B,MARYLAND,200,230810,21522,,BITTINGER,PV22995,P,60 MAYNARDIER RIDGE RD,BITTINGER,MD,21522,1102
ATLANTIC,4B,MARYLAND,200,233420,21542,P,FROSTBURG,PV23511,P,37 W MAIN ST,FROSTBURG,MD,21532,9998
ATLANTIC,4B,MARYLAND,200,231854,21656,P,CHURCH HILL,PV23176,P,558 MAIN ST,CHURCH HILL,MD,21623,9998
ATLANTIC,4B,MARYLAND,200,239126,21759,P,UNION BRIDGE,PV24530,P,111 PENROSE ST,UNION BRIDGE,MD,21791,9998
ATLANTIC,4B,MARYLAND,200,234068,21781,P,HAGERSTOWN,PV23622,P,44 W FRANKLIN ST,HAGERSTOWN,MD,21740,9998
ATLANTIC,4B,MARYLAND,200,239144,21792,P,UNIONVILLE,PV24534,P,13720 UNIONVILLE RD,UNIONVILLE,MD,21792,9998
ATLANTIC,4B,MARYLAND,200,237236,21852,P,PITTSVILLE,PV24186,P,7390 PINE ST,PITTSVILLE,MD,21850,9998
ATLANTIC,4B,MARYLAND,200,237632,21857,P,REHOBETH,PV24243,P,31358 REHOBETH RD,REHOBETH,MD,21857,1111
ATLANTIC,4B,VIRGINIA,230,513096,22034,,FAIRFAX,PX26583,P,10660 PAGE AVE,FAIRFAX,VA,22030,9998
ATLANTIC,4B,VIRGINIA,230,513096,22036,,FAIRFAX,PX26583,P,10660 PAGE AVE,FAIRFAX,VA,22030,9998
ATLANTIC,4B,VIRGINIA,230,515478,22067,,MC LEAN,PX27112,P,6841 ELM ST,MC LEAN,VA,22101,9998
ATLANTIC,4B,VIRGINIA,230,516540,22081,,MERRIFIELD,PX27222,P,8409 LEE HWY,MERRIFIELD,VA,22116,9998
ATLANTIC,4B,VIRGINIA,230,518472,22159,,SPRINGFIELD,PX27707,P,7051 BROOKFIELD PLZ,SPRINGFIELD,VA,22150,9998
ATLANTIC,4B,VIRGINIA,230,510306,22214,,ARLINGTON,PX26044,P,3118 WASHINGTON BLVD,ARLINGTON,VA,22201,9998
ATLANTIC,4B,VIRGINIA,230,510114,22331,,ALEXANDRIA,PX26003,P,1100 WYTHE ST,ALEXANDRIA,VA,22314,9998
ATLANTIC,4B,VIRGINIA,230,510114,22332,,ALEXANDRIA,PX26003,P,1100 WYTHE ST,ALEXANDRIA,VA,22314,9998
ATLANTIC,4B,VIRGINIA,230,514902,22544,P,KING GEORGE,PX26943,P,7993 KINGS HWY,KING GEORGE,VA,22485,9998
ATLANTIC,4B,VIRGINIA,230,518418,22552,P,SPARTA,PX27692,P,24100 SPARTA RD,SPARTA,VA,22552,9998
ATLANTIC,4B,VIRGINIA,230,516072,22558,P,MONTROSS,PX27204,P,15917 KINGS HWY,MONTROSS,VA,22520,9998
ATLANTIC,4B,VIRGINIA,230,516072,22581,P,MONTROSS,PX27204,P,15917 KINGS HWY,MONTROSS,VA,22520,9998
ATLANTIC,4B,VIRGINIA,230,511902,22622,P,CLEAR BROOK,PX26360,P,1164 BRUCETOWN RD,CLEAR BROOK,VA,22624,9998
ATLANTIC,4B,VIRGINIA,230,517704,22746,,RIXEYVILLE,PX27545,P,8623 RIXEYVILLE RD,RIXEYVILLE,VA,22737,9998
ATLANTIC,4B,VIRGINIA,230,514062,22848,P,HARRISONBURG,PX26801,P,3811 S MAIN ST,HARRISONBURG,VA,22801,9998
ATLANTIC,4B,VIRGINIA,230,511716,22904,,CHARLOTTESVILLE,PX26314,P,1155 SEMINOLE TRL,CHARLOTTESVILLE,VA,22906,9998
ATLANTIC,4B,VIRGINIA,230,516756,22989,P,ORANGE,PX27369,P,129 W MAIN ST,ORANGE,VA,22960,9998
ATLANTIC,4B,VIRGINIA,230,513660,23014,,GOOCHLAND,PX26726,P,2972 RIVER RD W,GOOCHLAND,VA,23063,9998
ATLANTIC,4B,VIRGINIA,230,517980,23031,P,SALUDA,PX27596,P,880 GLOUCESTER RD,SALUDA,VA,23149,2596
ATLANTIC,4B,VIRGINIA,230,519770,23081,P,WILLIAMSBURG,PX27999,P,425 N BOUNDARY ST,WILLIAMSBURG,VA,23185,9998
ATLANTIC,4B,VIRGINIA,230,515598,23105,P,MANNBORO,PX27072,P,3800 RICHMOND RD,MANNBORO,VA,23105,9998
ATLANTIC,4B,VIRGINIA,230,514098,23107,P,HAYES,PX26806,P,2344 GEORGE WASHINGTON MEMORIAL HWY,HAYES,VA,23072,9998
ATLANTIC,4B,VIRGINIA,230,514098,23155,P,HAYES,PX26806,P,2344 GEORGE WASHINGTON MEMORIAL HWY,HAYES,VA,23072,9998
ATLANTIC,4B,VIRGINIA,230,515562,23160,,MAIDENS,PX27061,P,2746 MAIDENS LOOP STE E,MAIDENS,VA,23102,9998
ATLANTIC,4B,VIRGINIA,230,519885,23190,P,WOODS CROSS ROADS,PX28040,P,9900 DAVENPORT RD,WOODS CROSS ROADS,VA,23190,9998
ATLANTIC,4B,VIRGINIA,230,517650,23232,,RICHMOND,PX27528,P,1801 BROOK RD,RICHMOND,VA,23232,9998
ATLANTIC,4B,VIRGINIA,230,517650,23284,P,RICHMOND,PX27528,P,1801 BROOK RD,RICHMOND,VA,23232,9998
ATLANTIC,4B,VIRGINIA,230,517650,23298,,RICHMOND,PX27528,P,1801 BROOK RD,RICHMOND,VA,23232,9998
ATLANTIC,4B,VIRGINIA,230,512214,23345,,CRADDOCKVILLE,PX26424,P,34032 CRADDOCKVILLE RD,CRADDOCKVILLE,VA,23341,9998
ATLANTIC,4B,VIRGINIA,230,516642,23396,,OAK HALL,PX27345,P,8133 LANKFORD HWY,OAK HALL,VA,23416,9998
ATLANTIC,4B,VIRGINIA,230,518892,23399,,TEMPERANCEVILLE,PX27810,P,10469 LANKFORD HWY,TEMPERANCEVILLE,VA,23442,9998
ATLANTIC,4B,VIRGINIA,230,511452,23419,P,CAPE CHARLES,PX26254,P,299 RANDOLPH AVE,CAPE CHARLES,VA,23310,9998
ATLANTIC,4B,VIRGINIA,230,511452,23429,P,CAPE CHARLES,PX26254,P,299 RANDOLPH AVE,CAPE CHARLES,VA,23310,9998
ATLANTIC,4B,VIRGINIA,230,519360,23458,P,VIRGINIA BEACH,PX27897,P,501 VIKING DR,VIRGINIA BEACH,VA,23452,9998
ATLANTIC,4B,VIRGINIA,230,519360,23459,,VIRGINIA BEACH,PX27897,P,501 VIKING DR,VIRGINIA BEACH,VA,23452,9998
ATLANTIC,4B,VIRGINIA,230,519360,23460,,VIRGINIA BEACH,PX27897,P,501 VIKING DR,VIRGINIA BEACH,VA,23452,9998
ATLANTIC,4B,VIRGINIA,230,519360,23461,,VIRGINIA BEACH,PX27897,P,501 VIKING DR,VIRGINIA BEACH,VA,23452,9998
ATLANTIC,4B,VIRGINIA,230,513084,23482,P,EXMORE,PX26579,P,12144 BANK AVE,EXMORE,VA,23350,9998
ATLANTIC,4B,VIRGINIA,230,516522,23506,P,NORFOLK,PX27304,P,600 CHURCH ST,NORFOLK,VA,23501,9900
ATLANTIC,4B,VIRGINIA,230,516522,23519,,NORFOLK,PX27304,P,600 CHURCH ST,NORFOLK,VA,23501,9900
ATLANTIC,4B,VIRGINIA,230,517230,23708,,PORTSMOUTH,PX27438,P,933 BROAD ST,PORTSMOUTH,VA,23707,9998
ATLANTIC,4B,VIRGINIA,230,517230,23709,,PORTSMOUTH,PX27438,P,933 BROAD ST,PORTSMOUTH,VA,23707,9998
ATLANTIC,4B,VIRGINIA,230,513288,23822,P,FORD,PX26629,P,9109 BALTIMORE RD,FORD,VA,23850,9998
ATLANTIC,4B,VIRGINIA,230,515820,23873,P,MEREDITHVILLE,PX27139,P,4771 BOYDTON PLANK RD,MEREDITHVILLE,VA,23873,9998
ATLANTIC,4B,VIRGINIA,230,511722,23941,P,CHASE CITY,PX26318,P,960 N MAIN ST,CHASE CITY,VA,23924,9998
ATLANTIC,4B,VIRGINIA,230,513162,23943,P,FARMVILLE,PX26600,P,301 E 3RD ST,FARMVILLE,VA,23901,9998
ATLANTIC,4B,VIRGINIA,230,515652,24113,P,MARTINSVILLE,PX27087,P,1123 SPRUCE ST,MARTINSVILLE,VA,24112,9998
ATLANTIC,4B,VIRGINIA,230,516780,24130,,ORISKANY,PX27371,P,68 ORISKANY SQ,ORISKANY,VA,24130,9998
ATLANTIC,4B,VIRGINIA,230,517410,24142,P,RADFORD,PX27479,P,901 W MAIN ST,RADFORD,VA,24141,9998
ATLANTIC,4B,VIRGINIA,230,510930,24178,P,BLUE RIDGE,PX26154,P,3521 BLUE RIDGE BLVD,BLUE RIDGE,VA,24064,9998
ATLANTIC,4B,VIRGINIA,230,510258,24215,P,APPALACHIA,PX26036,P,534 W MAIN ST,APPALACHIA,VA,24216,9998
ATLANTIC,4B,VIRGINIA,230,517458,24640,P,RAVEN,PX27489,P,561 RAVEN RD,RAVEN,VA,24639,9998
ATLANTIC,4B,VIRGINIA,230,517458,24647,P,RAVEN,PX27489,P,561 RAVEN RD,RAVEN,VA,24639,9998
CENTRAL,4J,KY-WV,400,555766,24751,P,NEMOURS,PX28934,P,5609 FALLS MILLS RD,NEMOURS,WV,24738,9998
CENTRAL,4J,KY-WV,400,555922,24855,,NORTHFORK,PX28967,P,33955 COAL HERITAGE RD,NORTHFORK,WV,24868,9998
CENTRAL,4J,KY-WV,400,556420,24859,P,PINEVILLE,PX29030,P,145 MAIN AVE,PINEVILLE,WV,24874,9998
CENTRAL,4J,KY-WV,400,554722,24902,P,LEWISBURG,PX28775,P,1129 WASHINGTON ST E,LEWISBURG,WV,24901,9998
CENTRAL,4J,KY-WV,400,554380,25152,P,KINCAID,PX28730,P,7598 DEEP WATER MOUNTAIN RD,KINCAID,WV,25119,9998
CENTRAL,4J,KY-WV,400,550300,25180,,ARNETT,PX28109,P,4461 COAL RIVER RD,ARNETT,WV,25007,9998
CENTRAL,4J,KY-WV,400,557626,25187,,SOUTHSIDE,PX29214,P,26460 KANAWHA VALLEY RD,SOUTHSIDE,WV,25187,9998
CENTRAL,4J,KY-WV,400,556972,25245,,RIPLEY,PX29109,P,114 MAIN ST W,RIPLEY,WV,25271,9998
CENTRAL,4J,KY-WV,400,551458,25350,P,CHARLESTON,PX28292,P,1002 LEE ST E,CHARLESTON,WV,25301,9998
CENTRAL,4J,KY-WV,400,551458,25389,,CHARLESTON,PX28292,P,1002 LEE ST E,CHARLESTON,WV,25301,9998
CENTRAL,4J,KY-WV,400,553528,25410,P,HARPERS FERRY,PX28610,P,1010 WASHINGTON ST,HARPERS FERRY,WV,25425,9998
CENTRAL,4J,KY-WV,400,551152,25440,P,BUNKER HILL,PX28242,P,9604 WINCHESTER AVE,BUNKER HILL,WV,25413,9998
CENTRAL,4J,KY-WV,400,550096,25572,,ALKOL,PX28082,P,5 BULGER RD,ALKOL,WV,25501,9998
CENTRAL,4J,KY-WV,400,551482,25665,P,CHATTAROY,PX28295,P,16 POST OFFICE DR,CHATTAROY,WV,25667,9998
CENTRAL,4J,KY-WV,400,556828,25686,P,RED JACKET,PX29089,P,1 MATE CREEK RD,RED JACKET,WV,25692,9998
CENTRAL,4J,KY-WV,400,553894,25770,P,HUNTINGTON,PX28663,P,1000 VIRGINIA AVE W,HUNTINGTON,WV,25704,9998
CENTRAL,4J,KY-WV,400,553894,25771,P,HUNTINGTON,PX28663,P,1000 VIRGINIA AVE W,HUNTINGTON,WV,25704,9998
CENTRAL,4J,KY-WV,400,557320,25833,P,SCARBRO,PX29164,P,1379 SCARBRO RD,SCARBRO,WV,25917,9998
CENTRAL,4J,KY-WV,400,550564,25860,P,BECKLEY,PX28152,P,134 INDUSTRIAL DR,BECKLEY,WV,25801,9998
CENTRAL,4J,KY-WV,400,554998,25913,,MC GRAWS,PX28855,P,2487 MCGRAWS RD,MC GRAWS,WV,25875,9998
CENTRAL,4J,KY-WV,400,552946,26219,P,FRENCH CREEK,PX28517,P,7688 RT 20 SOUTH RD,FRENCH CREEK,WV,26218,9998
CENTRAL,4J,KY-WV,400,555574,26502,P,MORGANTOWN,PX28901,P,300 POSTAL PLZ,MORGANTOWN,WV,26508,9998
CENTRAL,4J,KY-WV,400,555142,26561,,MANNINGTON,PX28829,P,113 WATER ST,MANNINGTON,WV,26582,9998
CENTRAL,4J,KY-WV,400,552694,26586,,FAIRMONT,PX28474,P,331 MADISON ST,FAIRMONT,WV,26554,9998
ATLANTIC,4B,NORTH CAROLINA,270,365280,27031,P,MOUNT AIRY,PY15954,P,111 S MAIN ST,MOUNT AIRY,NC,27030,3840
ATLANTIC,4B,NORTH CAROLINA,270,368712,27108,P,WINSTON SALEM,PY16832,P,1500 N PATTERSON AVE,WINSTON SALEM,NC,27105,6049
ATLANTIC,4B,NORTH CAROLINA,270,368712,27109,,WINSTON SALEM,PY16832,P,1500 N PATTERSON AVE,WINSTON SALEM,NC,27105,6049
ATLANTIC,4B,NORTH CAROLINA,270,366848,27237,P,SANFORD,PY16384,P,1200 S HORNER BLVD,SANFORD,NC,27330,9998
ATLANTIC,4B,NORTH CAROLINA,270,363192,27495,,GREENSBORO,PY15458,P,201 N MURROW BLVD,GREENSBORO,NC,27401,2914
ATLANTIC,4B,NORTH CAROLINA,270,363104,27531,,GOLDSBORO,PY15430,P,200 N WILLIAM ST,GOLDSBORO,NC,27530,9998
ATLANTIC,4B,NORTH CAROLINA,270,366352,27625,P,RALEIGH,PY16260,P,1 FLORETTA PL RM 88,RALEIGH,NC,27676,9803
ATLANTIC,4B,NORTH CAROLINA,270,366352,27676,P,RALEIGH,PY16260,P,1 FLORETTA PL RM 88,RALEIGH,NC,27676,9803
ATLANTIC,4B,NORTH CAROLINA,270,362192,27706,,DURHAM,PY15179,P,323 E CHAPEL HILL ST,DURHAM,NC,27701,9998
ATLANTIC,4B,NORTH CAROLINA,270,363552,27930,P,HERTFORD,PY15551,P,115 W GRUBB ST,HERTFORD,NC,27944,9998
ATLANTIC,4B,NORTH CAROLINA,270,362000,28035,P,DAVIDSON,PY15119,P,99 JACKSON ST,DAVIDSON,NC,28036,9721
ATLANTIC,4B,NORTH CAROLINA,270,361392,28244,,CHARLOTTE,PY14993,P,201 N MCDOWELL ST,CHARLOTTE,NC,28204,9798
ATLANTIC,4B,NORTH CAROLINA,270,361392,28246,,CHARLOTTE,PY14993,P,201 N MCDOWELL ST,CHARLOTTE,NC,28204,9798
ATLANTIC,4B,NORTH CAROLINA,270,361392,28254,,CHARLOTTE,PY14993,P,201 N MCDOWELL ST,CHARLOTTE,NC,28204,9798
ATLANTIC,4B,NORTH CAROLINA,270,361392,28260,P,CHARLOTTE,PY14993,P,201 N MCDOWELL ST,CHARLOTTE,NC,28204,9798
ATLANTIC,4B,NORTH CAROLINA,270,361392,28265,P,CHARLOTTE,PY14993,P,201 N MCDOWELL ST,CHARLOTTE,NC,28204,9798
ATLANTIC,4B,NORTH CAROLINA,270,361392,28275,P,CHARLOTTE,PY14993,P,201 N MCDOWELL ST,CHARLOTTE,NC,28204,9798
ATLANTIC,4B,NORTH CAROLINA,270,361392,28280,,CHARLOTTE,PY14993,P,201 N MCDOWELL ST,CHARLOTTE,NC,28204,9798
ATLANTIC,4B,NORTH CAROLINA,270,361392,28281,,CHARLOTTE,PY14993,P,201 N MCDOWELL ST,CHARLOTTE,NC,28204,9798
ATLANTIC,4B,NORTH CAROLINA,270,361392,28282,,CHARLOTTE,PY14993,P,201 N MCDOWELL ST,CHARLOTTE,NC,28204,9798
ATLANTIC,4B,NORTH CAROLINA,270,361392,28284,,CHARLOTTE,PY14993,P,201 N MCDOWELL ST,CHARLOTTE,NC,28204,9798
ATLANTIC,4B,NORTH CAROLINA,270,361392,28285,,CHARLOTTE,PY14993,P,201 N MCDOWELL ST,CHARLOTTE,NC,28204,9798
ATLANTIC,4B,NORTH CAROLINA,270,361392,28287,,CHARLOTTE,PY14993,P,201 N MCDOWELL ST,CHARLOTTE,NC,28204,9798
ATLANTIC,4B,NORTH CAROLINA,270,362680,28308,,FAYETTEVILLE,PY15309,P,301 GREEN ST STE 200,FAYETTEVILLE,NC,28301,5053
ATLANTIC,4B,NORTH CAROLINA,270,365744,28319,P,ORRUM,PY16110,P,1545 S CREEK RD,ORRUM,NC,28369,9275
ATLANTIC,4B,NORTH CAROLINA,270,368640,28407,P,WILMINGTON,PY16820,P,152 N FRONT ST,WILMINGTON,NC,28401,3925
ATLANTIC,4B,NORTH CAROLINA,270,363446,28533,,HAVELOCK,PY15522,P,133 US HIGHWAY 70 W,HAVELOCK,NC,28532,9431
ATLANTIC,4B,NORTH CAROLINA,270,363928,28542,P,JACKSONVILLE,PY15633,P,719 NEW BRIDGE ST,JACKSONVILLE,NC,28540,5447
ATLANTIC,4B,NORTH CAROLINA,270,363928,28545,,JACKSONVILLE,PY15633,P,719 NEW BRIDGE ST,JACKSONVILLE,NC,28540,5447
ATLANTIC,4B,NORTH CAROLINA,270,360304,28810,,ASHEVILLE,PY14730,P,591 BREVARD RD,ASHEVILLE,NC,28810,0001
SOUTHERN,4G,SOUTH CAROLINA,290,459720,29132,P,WINNSBORO,PX24825,P,144 N CONGRESS ST,WINNSBORO,SC,29180,1161
SOUTHERN,4G,SOUTH CAROLINA,290,453180,29143,P,GABLE,PX23926,P,12306 HWY 301,GABLE,SC,29051,9679
SOUTHERN,4G,SOUTH CAROLINA,290,451800,29222,,COLUMBIA,PX23727,P,1601 ASSEMBLY ST,COLUMBIA,SC,29201,9998
SOUTHERN,4G,SOUTH CAROLINA,290,451800,29228,P,COLUMBIA,PX23727,P,1601 ASSEMBLY ST,COLUMBIA,SC,29201,9998
SOUTHERN,4G,SOUTH CAROLINA,290,451800,29292,P,COLUMBIA,PX23727,P,1601 ASSEMBLY ST,COLUMBIA,SC,29201,9998
SOUTHERN,4G,SOUTH CAROLINA,290,459140,29433,P,WALTERBORO,PX24765,P,333 E WASHINGTON ST,WALTERBORO,SC,29488,9998
SOUTHERN,4G,SOUTH CAROLINA,290,457700,29447,P,SAINT GEORGE,PX24544,P,5988 W JIM BILTON BLVD,SAINT GEORGE,SC,29477,9998
SOUTHERN,4G,SOUTH CAROLINA,290,457320,29724,P,RICHBURG,PX24492,P,109 BROAD ST,RICHBURG,SC,29729,9236
SOUTHERN,4G,SOUTH CAROLINA,290,457520,29734,,ROCK HILL,PX24517,P,206 WILSON ST S,ROCK HILL,SC,29730,4441
SOUTHERN,4G,SOUTH CAROLINA,290,453780,29913,P,HAMPTON,PX23998,P,604 1ST ST W,HAMPTON,SC,29924,9998
SOUTHERN,4G,SOUTH CAROLINA,290,457980,29914,P,SEABROOK,PX24576,P,219 SEABROOK RD,SEABROOK,SC,29940,9998
SOUTHERN,4G,SOUTH CAROLINA,290,452780,29939,P,ESTILL,PX23854,P,328 E RAILROAD AVE N,ESTILL,SC,29918,9998
SOUTHERN,4G,GEORGIA,300,122750,30026,P,DULUTH,PX10375,P,3470 MCCLURE BRIDGE RD,DULUTH,GA,30096,9998
SOUTHERN,4G,GEORGIA,300,125588,30090,,MARIETTA,PX10781,P,257 LAWRENCE ST NE,MARIETTA,GA,30060,9998
SOUTHERN,4G,GEORGIA,300,122750,30098,,DULUTH,PX10375,P,3470 MCCLURE BRIDGE RD,DULUTH,GA,30096,9998
SOUTHERN,4G,GEORGIA,300,123058,30138,P,ESOM HILL,PX10425,P,215 HARDIN RD,ESOM HILL,GA,30138,9800
SOUTHERN,4G,GEORGIA,300,127557,30149,P,ROME,PX11075,P,1420 MARTHA BERRY BLVD NE,ROME,GA,30165,9998
SOUTHERN,4G,GEORGIA,300,120440,30304,,ATLANTA,PX10056,P,3900 CROWN RD SW,ATLANTA,GA,30304,9998
SOUTHERN,4G,GEORGIA,300,120440,30334,,ATLANTA,PX10056,P,3900 CROWN RD SW,ATLANTA,GA,30304,9998
SOUTHERN,4G,GEORGIA,300,120440,30369,,ATLANTA,PX10056,P,3900 CROWN RD SW,ATLANTA,GA,30304,9998
SOUTHERN,4G,GEORGIA,300,120440,30370,P,ATLANTA,PX10056,P,3900 CROWN RD SW,ATLANTA,GA,30304,9998
SOUTHERN,4G,GEORGIA,300,120440,30371,P,ATLANTA,PX10056,P,3900 CROWN RD SW,ATLANTA,GA,30304,9998
SOUTHERN,4G,GEORGIA,300,120440,30378,P,ATLANTA,PX10056,P,3900 CROWN RD SW,ATLANTA,GA,30304,9998
SOUTHERN,4G,GEORGIA,300,120440,30392,P,ATLANTA,PX10056,P,3900 CROWN RD SW,ATLANTA,GA,30304,9998
SOUTHERN,4G,GEORGIA,300,120440,30394,P,ATLANTA,PX10056,P,3900 CROWN RD SW,ATLANTA,GA,30304,9998
SOUTHERN,4G,GEORGIA,300,128800,30598,P,TOCCOA,PX11278,P,41 FALLS RD STE 101,TOCCOA,GA,30577,9998
SOUTHERN,4G,GEORGIA,300,124312,31314,,HINESVILLE,PX10621,P,744 W OGLETHORPE HWY,HINESVILLE,GA,31313,9998
SOUTHERN,4G,GEORGIA,300,127810,31421,,SAVANNAH,PX11114,P,2 N FAHM ST RM 1A,SAVANNAH,GA,31401,9998
SOUTHERN,4G,FLORIDA 1,320,114380,32099,,JACKSONVILLE,PY22126,P,1100 KINGS RD,JACKSONVILLE,FL,32203,9998
SOUTHERN,4G,FLORIDA 1,320,114290,32149,P,INTERLACHEN,PY22107,P,100 MATHE AVE,INTERLACHEN,FL,32148,9998
SOUTHERN,4G,FLORIDA 1,320,114110,32335,P,HOSFORD,PY22072,P,16827 NE STATE ROAD 65,HOSFORD,FL,32334,2403
SOUTHERN,4G,FLORIDA 1,320,117740,32410,P,PORT SAINT JOE,PY22746,P,502 GARRISON AVE,PORT SAINT JOE,FL,32456,9998
SOUTHERN,4G,FLORIDA 1,320,112160,32434,P,DEFUNIAK SPRINGS,PY21692,P,100 S 18TH ST,DEFUNIAK SPRINGS,FL,32435,9998
SOUTHERN,4G,FLORIDA 1,320,110885,32452,P,BONIFAY,PY21481,P,325 W HIGHWAY 90,BONIFAY,FL,32425,9998
SOUTHERN,4G,FLORIDA 1,320,111920,32537,P,CRESTVIEW,PY21652,P,1325 COMMERCE DR,CRESTVIEW,FL,32539,9998
SOUTHERN,4G,FLORIDA 1,320,115115,32538,P,LAUREL HILL,PY22248,P,3957 2ND AVE,LAUREL HILL,FL,32567,9998
SOUTHERN,4G,FLORIDA 1,320,113225,32602,P,GAINESVILLE,PY21915,P,4600 SW 34TH ST,GAINESVILLE,FL,32608,9998
SOUTHERN,4G,FLORIDA 1,320,112175,32722,P,DELAND,PY21703,P,336 E NEW YORK AVE,DELAND,FL,32724,9998
SOUTHERN,4G,FLORIDA 1,320,115945,32745,P,MID FLORIDA,PY22407,P,800 RINEHART RD,MID FLORIDA,FL,32799,8801
SOUTHERN,4G,FLORIDA 1,320,115945,32799,P,MID FLORIDA,PY22407,P,800 RINEHART RD,MID FLORIDA,FL,32799,8801
SOUTHERN,4G,FLORIDA 2,335,116915,32834,,ORLANDO,PY22611,P,10401 POST OFFICE BLVD W FL 2,ORLANDO,FL,32862,8542
SOUTHERN,4G,FLORIDA 3,330,115850,33191,,MIAMI,PY22388,P,2200 NW 72ND AVE STE 514,MIAMI,FL,33152,9998
SOUTHERN,4G,FLORIDA 3,330,115850,33195,,MIAMI,PY22388,P,2200 NW 72ND AVE STE 514,MIAMI,FL,33152,9998
SOUTHERN,4G,FLORIDA 3,330,115850,33198,,MIAMI,PY22388,P,2200 NW 72ND AVE STE 514,MIAMI,FL,33152,9998
SOUTHERN,4G,FLORIDA 3,330,115850,33299,P,MIAMI,PY22388,P,2200 NW 72ND AVE STE 514,MIAMI,FL,33152,9998
SOUTHERN,4G,FLORIDA 2,335,118925,33686,P,TAMPA,PY23079,P,3501 BESSIE COLEMAN BLVD FL 3,TAMPA,FL,33630,5010
SOUTHERN,4G,FLORIDA 2,335,118250,33730,,SAINT PETERSBURG,PY22837,P,3135 1ST AVE N,SAINT PETERSBURG,FL,33730,9998
SOUTHERN,4G,FLORIDA 2,335,118250,33740,P,SAINT PETERSBURG,PY22837,P,3135 1ST AVE N,SAINT PETERSBURG,FL,33730,9998
OVERSEAS,4M,MILITARY POSTAL SERVMILITARY POSTAL SERVICE,340,590001,34000,M,APO,PY20001,P,11698 NW 25TH ST,MIAMI,FL,33112,9997
OVERSEAS,4M,MILITARY POSTAL SERVMILITARY POSTAL SERVICE,340,590002,34001,M,DPO,P017330,P,11698 NW 25TH ST,MIAMI,FL,33112,9997
OVERSEAS,4M,MILITARY POSTAL SERVMILITARY POSTAL SERVICE,340,590002,34002,M,DPO,P017330,P,11698 NW 25TH ST,MIAMI,FL,33112,9997
OVERSEAS,4M,MILITARY POSTAL SERVMILITARY POSTAL SERVICE,340,590002,34004,M,DPO,P017330,P,11698 NW 25TH ST,MIAMI,FL,33112,9997
OVERSEAS,4M,MILITARY POSTAL SERVMILITARY POSTAL SERVICE,340,590001,34007,M,APO,PY20001,P,11698 NW 25TH ST,MIAMI,FL,33112,9997
OVERSEAS,4M,MILITARY POSTAL SERVMILITARY POSTAL SERVICE,340,590002,34008,M,DPO,P017330,P,11698 NW 25TH ST,MIAMI,FL,33112,9997
OVERSEAS,4M,MILITARY POSTAL SERVMILITARY POSTAL SERVICE,340,590001,34009,M,APO,PY20001,P,11698 NW 25TH ST,MIAMI,FL,33112,9997
OVERSEAS,4M,MILITARY POSTAL SERVMILITARY POSTAL SERVICE,340,590001,34010,M,APO,PY20001,P,11698 NW 25TH ST,MIAMI,FL,33112,9997
OVERSEAS,4M,MILITARY POSTAL SERVMILITARY POSTAL SERVICE,340,590002,34011,M,DPO,P017330,P,11698 NW 25TH ST,MIAMI,FL,33112,9997
OVERSEAS,4M,MILITARY POSTAL SERVMILITARY POSTAL SERVICE,340,590001,34013,M,APO,PY20001,P,11698 NW 25TH ST,MIAMI,FL,33112,9997
OVERSEAS,4M,MILITARY POSTAL SERVMILITARY POSTAL SERVICE,340,590002,34020,M,DPO,P017330,P,11698 NW 25TH ST,MIAMI,FL,33112,9997
OVERSEAS,4M,MILITARY POSTAL SERVMILITARY POSTAL SERVICE,340,590002,34021,M,DPO,P017330,P,11698 NW 25TH ST,MIAMI,FL,33112,9997
OVERSEAS,4M,MILITARY POSTAL SERVMILITARY POSTAL SERVICE,340,590002,34022,M,DPO,P017330,P,11698 NW 25TH ST,MIAMI,FL,33112,9997
OVERSEAS,4M,MILITARY POSTAL SERVMILITARY POSTAL SERVICE,340,590002,34023,M,DPO,P017330,P,11698 NW 25TH ST,MIAMI,FL,33112,9997
OVERSEAS,4M,MILITARY POSTAL SERVMILITARY POSTAL SERVICE,340,590002,34024,M,DPO,P017330,P,11698 NW 25TH ST,MIAMI,FL,33112,9997
OVERSEAS,4M,MILITARY POSTAL SERVMILITARY POSTAL SERVICE,340,590002,34025,M,DPO,P017330,P,11698 NW 25TH ST,MIAMI,FL,33112,9997
OVERSEAS,4M,MILITARY POSTAL SERVMILITARY POSTAL SERVICE,340,590002,34030,M,DPO,P017330,P,11698 NW 25TH ST,MIAMI,FL,33112,9997
OVERSEAS,4M,MILITARY POSTAL SERVMILITARY POSTAL SERVICE,340,590002,34031,M,DPO,P017330,P,11698 NW 25TH ST,MIAMI,FL,33112,9997
OVERSEAS,4M,MILITARY POSTAL SERVMILITARY POSTAL SERVICE,340,590002,34032,M,DPO,P017330,P,11698 NW 25TH ST,MIAMI,FL,33112,9997
OVERSEAS,4M,MILITARY POSTAL SERVMILITARY POSTAL SERVICE,340,590002,34033,M,DPO,P017330,P,11698 NW 25TH ST,MIAMI,FL,33112,9997
OVERSEAS,4M,MILITARY POSTAL SERVMILITARY POSTAL SERVICE,340,590002,34034,M,DPO,P017330,P,11698 NW 25TH ST,MIAMI,FL,33112,9997
OVERSEAS,4M,MILITARY POSTAL SERVMILITARY POSTAL SERVICE,340,590002,34035,M,DPO,P017330,P,11698 NW 25TH ST,MIAMI,FL,33112,9997
OVERSEAS,4M,MILITARY POSTAL SERVMILITARY POSTAL SERVICE,340,590002,34036,M,DPO,P017330,P,11698 NW 25TH ST,MIAMI,FL,33112,9997
OVERSEAS,4M,MILITARY POSTAL SERVMILITARY POSTAL SERVICE,340,590002,34037,M,DPO,P017330,P,11698 NW 25TH ST,MIAMI,FL,33112,9997
OVERSEAS,4M,MILITARY POSTAL SERVMILITARY POSTAL SERVICE,340,590001,34038,M,APO,PY20001,P,11698 NW 25TH ST,MIAMI,FL,33112,9997
OVERSEAS,4M,MILITARY POSTAL SERVMILITARY POSTAL SERVICE,340,590002,34039,M,DPO,P017330,P,11698 NW 25TH ST,MIAMI,FL,33112,9997
OVERSEAS,4M,MILITARY POSTAL SERVMILITARY POSTAL SERVICE,340,590002,34041,M,DPO,P017330,P,11698 NW 25TH ST,MIAMI,FL,33112,9997
OVERSEAS,4M,MILITARY POSTAL SERVMILITARY POSTAL SERVICE,340,590001,34042,M,APO,PY20001,P,11698 NW 25TH ST,MIAMI,FL,33112,9997
OVERSEAS,4M,MILITARY POSTAL SERVMILITARY POSTAL SERVICE,340,590001,34050,M,APO,PY20001,P,11698 NW 25TH ST,MIAMI,FL,33112,9997
OVERSEAS,4M,MILITARY POSTAL SERVMILITARY POSTAL SERVICE,340,590002,34055,M,DPO,P017330,P,11698 NW 25TH ST,MIAMI,FL,33112,9997
OVERSEAS,4M,MILITARY POSTAL SERVMILITARY POSTAL SERVICE,340,590001,34058,M,APO,PY20001,P,11698 NW 25TH ST,MIAMI,FL,33112,9997
OVERSEAS,4M,MILITARY POSTAL SERVMILITARY POSTAL SERVICE,340,590002,34060,M,DPO,P017330,P,11698 NW 25TH ST,MIAMI,FL,33112,9997
OVERSEAS,4M,MILITARY POSTAL SERVMILITARY POSTAL SERVICE,340,590001,34061,M,APO,PY20001,P,11698 NW 25TH ST,MIAMI,FL,33112,9997
OVERSEAS,4M,MILITARY POSTAL SERVMILITARY POSTAL SERVICE,340,590002,34066,M,DPO,P017330,P,11698 NW 25TH ST,MIAMI,FL,33112,9997
OVERSEAS,4M,MILITARY POSTAL SERVMILITARY POSTAL SERVICE,340,590002,34067,M,DPO,P017330,P,11698 NW 25TH ST,MIAMI,FL,33112,9997
OVERSEAS,4M,MILITARY POSTAL SERVMILITARY POSTAL SERVICE,340,590002,34068,M,DPO,P017330,P,11698 NW 25TH ST,MIAMI,FL,33112,9997
OVERSEAS,4M,MILITARY POSTAL SERVMILITARY POSTAL SERVICE,340,590002,34069,M,DPO,P017330,P,11698 NW 25TH ST,MIAMI,FL,33112,9997
OVERSEAS,4M,MILITARY POSTAL SERVMILITARY POSTAL SERVICE,340,590002,34070,M,DPO,P017330,P,11698 NW 25TH ST,MIAMI,FL,33112,9997
OVERSEAS,4M,MILITARY POSTAL SERVMILITARY POSTAL SERVICE,340,590002,34071,M,DPO,P017330,P,11698 NW 25TH ST,MIAMI,FL,33112,9997
OVERSEAS,4M,MILITARY POSTAL SERVMILITARY POSTAL SERVICE,340,590002,34072,M,DPO,P017330,P,11698 NW 25TH ST,MIAMI,FL,33112,9997
OVERSEAS,4M,MILITARY POSTAL SERVMILITARY POSTAL SERVICE,340,590002,34073,M,DPO,P017330,P,11698 NW 25TH ST,MIAMI,FL,33112,9997
OVERSEAS,4M,MILITARY POSTAL SERVMILITARY POSTAL SERVICE,340,590001,34078,M,APO,PY20001,P,11698 NW 25TH ST,MIAMI,FL,33112,9997
OVERSEAS,4M,MILITARY POSTAL SERVMILITARY POSTAL SERVICE,340,590001,34080,M,APO,PY20001,P,11698 NW 25TH ST,MIAMI,FL,33112,9997
OVERSEAS,4M,MILITARY POSTAL SERVMILITARY POSTAL SERVICE,340,590001,34081,M,APO,PY20001,P,11698 NW 25TH ST,MIAMI,FL,33112,9997
OVERSEAS,4M,MILITARY POSTAL SERVMILITARY POSTAL SERVICE,340,590001,34082,M,APO,PY20001,P,11698 NW 25TH ST,MIAMI,FL,33112,9997
OVERSEAS,4M,MILITARY POSTAL SERVMILITARY POSTAL SERVICE,340,590001,34083,M,APO,PY20001,P,11698 NW 25TH ST,MIAMI,FL,33112,9997
OVERSEAS,4M,MILITARY POSTAL SERVMILITARY POSTAL SERVICE,340,590001,34084,M,APO,PY20001,P,11698 NW 25TH ST,MIAMI,FL,33112,9997
OVERSEAS,4M,MILITARY POSTAL SERVMILITARY POSTAL SERVICE,340,590001,34085,M,APO,PY20001,P,11698 NW 25TH ST,MIAMI,FL,33112,9997
OVERSEAS,4M,MILITARY POSTAL SERVMILITARY POSTAL SERVICE,340,590001,34086,M,APO,PY20001,P,11698 NW 25TH ST,MIAMI,FL,33112,9997
OVERSEAS,4M,MILITARY POSTAL SERVMILITARY POSTAL SERVICE,340,590001,34087,M,APO,PY20001,P,11698 NW 25TH ST,MIAMI,FL,33112,9997
OVERSEAS,4M,MILITARY POSTAL SERVMILITARY POSTAL SERVICE,340,590001,34088,M,APO,PY20001,P,11698 NW 25TH ST,MIAMI,FL,33112,9997
OVERSEAS,4M,MILITARY POSTAL SERVMILITARY POSTAL SERVICE,340,590001,34089,M,APO,PY20001,P,11698 NW 25TH ST,MIAMI,FL,33112,9997
OVERSEAS,4M,MILITARY POSTAL SERVMILITARY POSTAL SERVICE,340,590001,34090,M,APO,PY20001,P,11698 NW 25TH ST,MIAMI,FL,33112,9997
OVERSEAS,4M,MILITARY POSTAL SERVMILITARY POSTAL SERVICE,340,590001,34091,M,APO,PY20001,P,11698 NW 25TH ST,MIAMI,FL,33112,9997
OVERSEAS,4M,MILITARY POSTAL SERVMILITARY POSTAL SERVICE,340,590001,34092,M,APO,PY20001,P,11698 NW 25TH ST,MIAMI,FL,33112,9997
OVERSEAS,4M,MILITARY POSTAL SERVMILITARY POSTAL SERVICE,340,590001,34093,M,APO,PY20001,P,11698 NW 25TH ST,MIAMI,FL,33112,9997
OVERSEAS,4M,MILITARY POSTAL SERVMILITARY POSTAL SERVICE,340,590001,34094,M,APO,PY20001,P,11698 NW 25TH ST,MIAMI,FL,33112,9997
OVERSEAS,4M,MILITARY POSTAL SERVMILITARY POSTAL SERVICE,340,590001,34095,M,APO,PY20001,P,11698 NW 25TH ST,MIAMI,FL,33112,9997
SOUTHERN,4G,FLORIDA 2,335,115605,34260,P,MANASOTA,PY27131,P,850 TALLEVAST RD STE 9998,SARASOTA,FL,34260,9852
SOUTHERN,4G,AL-MS,350,015650,35052,P,MOODY,PY10818,P,2455 MOODY PKWY,MOODY,AL,35004,1600
SOUTHERN,4G,AL-MS,350,012610,35457,,ECHOLA,PY10366,P,14930 ECHOLA RD,ECHOLA,AL,35457,9998
SOUTHERN,4G,AL-MS,350,014150,35751,,HOLLYTREE,PY10610,P,11751 AL HIGHWAY 65,HOLLYTREE,AL,35751,5320
SOUTHERN,4G,AL-MS,350,014240,35809,P,HUNTSVILLE,PY10632,P,3408 WALL TRIANA HWY,HUNTSVILLE,AL,35813,1000
SOUTHERN,4G,AL-MS,350,013900,36039,,HARDAWAY,PY10567,P,25706 COUNTY ROAD 2,HARDAWAY,AL,36039,9998
SOUTHERN,4G,AL-MS,350,015090,36062,P,LUVERNE,PY10734,P,29 E 3RD ST,LUVERNE,AL,36049,9998
SOUTHERN,4G,AL-MS,350,015630,36112,,MONTGOMERY,PY10815,P,6701 WINTON BLOUNT BLVD,MONTGOMERY,AL,36119,2500
SOUTHERN,4G,AL-MS,350,015630,36114,,MONTGOMERY,PY10815,P,6701 WINTON BLOUNT BLVD,MONTGOMERY,AL,36119,2500
SOUTHERN,4G,AL-MS,350,015630,36119,,MONTGOMERY,PY10815,P,6701 WINTON BLOUNT BLVD,MONTGOMERY,AL,36119,2500
SOUTHERN,4G,AL-MS,350,012860,36429,P,EVERGREEN,PY10406,P,200 RURAL ST,EVERGREEN,AL,36401,2824
SOUTHERN,4G,AL-MS,350,010430,36503,P,ATMORE,PY10060,P,114 N MAIN ST,ATMORE,AL,36502,1712
SOUTHERN,4G,AL-MS,350,012420,36745,P,DEMOPOLIS,PY10323,P,100 W CAPITOL ST,DEMOPOLIS,AL,36732,9998
SOUTHERN,4G,AL-MS,350,016190,36773,,ORRVILLE,PY10896,P,14664 MAIN ST,ORRVILLE,AL,36767,9998
SOUTHERN,4G,TENNESSEE,370,470600,37063,P,BELL BUCKLE,PX24914,P,1 RAILROAD SQ E,BELL BUCKLE,TN,37020,9998
SOUTHERN,4G,TENNESSEE,370,476948,37119,P,PORTLAND,PX25666,P,130 VILLAGE DR,PORTLAND,TN,37148,9998
SOUTHERN,4G,TENNESSEE,370,476312,37136,P,NORENE,PX25591,P,11185 CAINSVILLE RD,LEBANON,TN,37090,6710
SOUTHERN,4G,TENNESSEE,370,476144,37227,P,NASHVILLE,PX25566,P,901 BROADWAY,NASHVILLE,TN,37202,9998
SOUTHERN,4G,TENNESSEE,370,476144,37232,,NASHVILLE,PX25566,P,901 BROADWAY,NASHVILLE,TN,37202,9998
SOUTHERN,4G,TENNESSEE,370,476144,37240,,NASHVILLE,PX25566,P,901 BROADWAY,NASHVILLE,TN,37202,9998
SOUTHERN,4G,TENNESSEE,370,476144,37244,P,NASHVILLE,PX25566,P,901 BROADWAY,NASHVILLE,TN,37202,9998
SOUTHERN,4G,TENNESSEE,370,477548,37304,,SALE CREEK,PX25728,P,15117 DAYTON PIKE,SALE CREEK,TN,37373,9998
SOUTHERN,4G,TENNESSEE,370,478700,37389,,TULLAHOMA,PX25890,P,200 S JACKSON ST,TULLAHOMA,TN,37388,9998
SOUTHERN,4G,TENNESSEE,370,474476,37614,P,JOHNSON CITY,PX25367,P,530 E MAIN ST,JOHNSON CITY,TN,37601,9998
SOUTHERN,4G,TENNESSEE,370,472784,37733,P,ELGIN,PX25157,P,179 RUGBY HWY,ELGIN,TN,37732,9998
SOUTHERN,4G,TENNESSEE,370,475988,37778,P,MORRISTOWN,PX25538,P,803 S CUMBERLAND ST,MORRISTOWN,TN,37813,9998
SOUTHERN,4G,TENNESSEE,370,471656,37851,P,CLAIRFIELD,PX25013,P,5671 HIGHWAY 90,CLAIRFIELD,TN,37715,9998
SOUTHERN,4G,TENNESSEE,370,478016,38045,P,SOMERVILLE,PX25779,P,116 W NORTH ST,SOMERVILLE,TN,38068,9998
SOUTHERN,4G,TENNESSEE,370,477572,38254,P,SAMBURG,PX25731,P,5466 W HIGHWAY 22 S,SAMBURG,TN,38254,9998
SOUTHERN,4G,TENNESSEE,370,478652,38331,P,TRENTON,PX25883,P,200 S COLLEGE ST,TRENTON,TN,38382,9998
SOUTHERN,4G,TENNESSEE,370,473408,38336,P,GADSDEN,PX25226,P,64 HUMBOLDT LAKE RD,GADSDEN,TN,38337,9998
SOUTHERN,4G,TENNESSEE,370,473960,38377,P,HENDERSON,PX25295,P,205 CROOK AVE,HENDERSON,TN,38340,9998
SOUTHERN,4G,AL-MS,350,275850,38677,P,OXFORD,PY14162,P,401 MCELROY DR,OXFORD,MS,38655,9998
SOUTHERN,4G,AL-MS,350,271534,38733,,CLEVELAND,PY13410,P,210 S CHRISMAN AVE,CLEVELAND,MS,38732,9998
SOUTHERN,4G,AL-MS,350,278346,38875,P,TREBLOC,PY14518,P,3063 HIGHWAY 8 E,TREBLOC,MS,38875,9998
SOUTHERN,4G,AL-MS,350,270975,38913,,BRUCE,PY13322,P,309 N NEWBURGER AVE,BRUCE,MS,38915,9998
SOUTHERN,4G,AL-MS,350,270975,38949,,BRUCE,PY13322,P,309 N NEWBURGER AVE,BRUCE,MS,38915,9998
SOUTHERN,4G,AL-MS,350,273757,38959,P,ITTA BENA,PY13797,P,100 DEWEY ST,ITTA BENA,MS,38941,9998
SOUTHERN,4G,AL-MS,350,273133,38960,P,GRENADA,PY13692,P,2500 GATEWAY ST,GRENADA,MS,38901,9998
SOUTHERN,4G,AL-MS,350,274836,39632,P,MAGNOLIA,PY13933,P,205 MAGNOLIA ST,MAGNOLIA,MS,39652,9998
CENTRAL,4J,KY-WV,400,205104,40041,,MASONIC HOME,PX15708,P,3761 JOHNSON HALL DR,MASONIC HOME,KY,40041,9998
CENTRAL,4J,KY-WV,400,205604,40049,P,NERINX,PX15896,P,515 NERINX RD,NERINX,KY,40049,9998
CENTRAL,4J,KY-WV,400,206752,40061,P,SAINT CATHARINE,PX16269,P,2645 BARDSTOWN RD,SAINT CATHARINE,KY,40061,9998
CENTRAL,4J,KY-WV,400,202888,40122,,FORT KNOX,PX15035,P,120 N KNOX ST FRNT,FORT KNOX,KY,40121,9908
CENTRAL,4J,KY-WV,400,203532,40171,,HARDINSBURG,PX15247,P,234 S MAIN ST,HARDINSBURG,KY,40143,9998
CENTRAL,4J,KY-WV,400,204788,40261,P,LOUISVILLE,PX15639,P,1420 GARDINER LN,LOUISVILLE,KY,40231,9989
CENTRAL,4J,KY-WV,400,204912,40488,P,MC KEE,PX15734,P,320 MAIN ST N,MC KEE,KY,40447,9998
CENTRAL,4J,KY-WV,400,202920,40603,P,FRANKFORT,PX15049,P,1210 WILKINSON BLVD,FRANKFORT,KY,40601,9998
CENTRAL,4J,KY-WV,400,204748,40724,P,LONDON,PX15624,P,1760 HIGHWAY 192 W,LONDON,KY,40741,9998
CENTRAL,4J,KY-WV,400,200756,40816,,BLEDSOE,PX14360,P,33 W HIGHWAY 221,BLEDSOE,KY,40810,9998
CENTRAL,4J,KY-WV,400,203560,40818,,HARLAN,PX15252,P,111 N 1ST ST,HARLAN,KY,40831,9998
CENTRAL,4J,KY-WV,400,203560,40830,,HARLAN,PX15252,P,111 N 1ST ST,HARLAN,KY,40831,9998
CENTRAL,4J,KY-WV,400,206164,40845,,PINEVILLE,PX16059,P,111 S WALNUT ST,PINEVILLE,KY,40977,9998
CENTRAL,4J,KY-WV,400,203560,40858,,HARLAN,PX15252,P,111 N 1ST ST,HARLAN,KY,40831,9998
CENTRAL,4J,KY-WV,400,200376,40946,,BARBOURVILLE,PX14245,P,122 N ALLISON AVE,BARBOURVILLE,KY,40906,9998
CENTRAL,4J,KY-WV,400,203744,40951,P,HIMA,PX15325,P,1579 HIGHWAY 80 E,HIMA,KY,40951,9997
CENTRAL,4J,KY-WV,400,203300,40953,,GRAY,PX15176,P,280 S KY 233,GRAY,KY,40734,9998
CENTRAL,4J,KY-WV,400,206164,40958,,PINEVILLE,PX16059,P,111 S WALNUT ST,PINEVILLE,KY,40977,9998
CENTRAL,4J,KY-WV,400,203560,40964,,HARLAN,PX15252,P,111 N 1ST ST,HARLAN,KY,40831,9998
CENTRAL,4J,KY-WV,400,202792,40997,,FLAT LICK,PX15005,P,1131 KY 3085,FLAT LICK,KY,40935,9998
CENTRAL,4J,KY-WV,400,202628,41037,P,EWING,PX14952,P,1533 EWING RD,EWING,KY,41039,9998
CENTRAL,4J,KY-WV,400,205400,41053,P,MORNING VIEW,PX15828,P,15000 DECOURSEY PIKE,MORNING VIEW,KY,41063,9998
CENTRAL,4J,KY-WV,400,208392,41054,P,WILLIAMSTOWN,PX16806,P,205 N MAIN ST,WILLIAMSTOWN,KY,41097,9998
CENTRAL,4J,KY-WV,400,200988,41061,P,BROOKSVILLE,PX14431,P,208 MADISON ST,BROOKSVILLE,KY,41004,9998
CENTRAL,4J,KY-WV,400,200292,41062,P,AUGUSTA,PX14223,P,103 W 4TH ST,AUGUSTA,KY,41002,9998
CENTRAL,4J,KY-WV,400,200728,41160,,BLAINE,PX14352,P,30 S HIGHWAY 201,BLAINE,KY,41124,9998
CENTRAL,4J,KY-WV,400,200728,41226,,BLAINE,PX14352,P,30 S HIGHWAY 201,BLAINE,KY,41124,9998
CENTRAL,4J,KY-WV,400,200472,41347,P,BEATTYVILLE,PX14272,P,301 MAIN ST,BEATTYVILLE,KY,41311,9998
CENTRAL,4J,KY-WV,400,208240,41477,P,WEST LIBERTY,PX16754,P,398 GLENN AVE,WEST LIBERTY,KY,41472,9998
CENTRAL,4J,KY-WV,400,202864,41526,P,FORDS BRANCH,PX15028,P,2730 KEWANEE RD,FORDS BRANCH,KY,41526,9998
CENTRAL,4J,KY-WV,400,204092,41563,,JENKINS,PX15424,P,9382 HIGHWAY 805 STE A,JENKINS,KY,41537,9998
CENTRAL,4J,KY-WV,400,205180,41612,,MELVIN,PX15759,P,22944 KY ROUTE 122,MELVIN,KY,41650,9998
CENTRAL,4J,KY-WV,400,204328,41859,,KITE,PX15489,P,9069 HIGHWAY 7 S,KITE,KY,41828,9998
CENTRAL,4J,KY-WV,400,206172,41861,,PIPPA PASSES,PX16064,P,4982 HIGHWAY 899,PIPPA PASSES,KY,41844,9998
CENTRAL,4J,KY-WV,400,205220,42070,P,MILBURN,PX15778,P,1 STATE ROUTE 80,ARLINGTON,KY,42021,9900
CENTRAL,4J,KY-WV,400,207512,42124,,SUMMER SHADE,PX16537,P,2653 SUMMER SHADE RD,SUMMER SHADE,KY,42166,9998
CENTRAL,4J,KY-WV,400,200896,42128,P,BOWLING GREEN,PX14399,P,5300 SCOTTSVILLE RD,BOWLING GREEN,KY,42104,9998
CENTRAL,4J,KY-WV,400,207512,42130,,SUMMER SHADE,PX16537,P,2653 SUMMER SHADE RD,SUMMER SHADE,KY,42166,9998
CENTRAL,4J,KY-WV,400,207728,42151,,TOMPKINSVILLE,PX16608,P,203 W PAIGE ST,TOMPKINSVILLE,KY,42167,9998
CENTRAL,4J,KY-WV,400,203588,42338,,HARTFORD,PX15261,P,1101 S MAIN ST,HARTFORD,KY,42347,9998
CENTRAL,4J,KY-WV,400,202868,42361,,FORDSVILLE,PX15029,P,25 SMITH ST,FORDSVILLE,KY,42343,9998
CENTRAL,4J,KY-WV,400,203612,42364,P,HAWESVILLE,PX15268,P,115 MAIN CROSS ST,HAWESVILLE,KY,42348,9998
CENTRAL,4J,KY-WV,400,201192,42377,P,CALHOUN,PX14489,P,310 W 2ND ST,CALHOUN,KY,42327,9998
CENTRAL,4J,KY-WV,400,200440,42402,P,BASKETT,PX14259,P,1015 2ND AVE,BASKETT,KY,42402,9998
CENTRAL,4J,KY-WV,400,206904,42516,,SCIENCE HILL,PX16308,P,735 CENTRAL AVE,SCIENCE HILL,KY,42553,9998
CENTRAL,4J,KY-WV,400,208436,42565,,WINDSOR,PX16818,P,3593 KY 80,WINDSOR,KY,42565,9998
CENTRAL,4J,KY-WV,400,201236,42720,P,CANE VALLEY,PX14508,P,2303 CANE VALLEY RD,CANE VALLEY,KY,42720,9998
CENTRAL,4J,KY-WV,400,200936,42741,,BREEDING,PX14412,P,35 POST OFFICE LN,BREEDING,KY,42715,9998
CENTRAL,4J,KY-WV,400,201648,42742,,COLUMBIA,PX14652,P,800 BURKESVILLE ST,COLUMBIA,KY,42728,9998
CENTRAL,4J,OHIO 2,450,383668,43027,P,HOMER,PX21344,P,1080 HOMER RD NW,HOMER,OH,43027,8000
CENTRAL,4J,OHIO 2,450,383311,43165,P,GROVEPORT,PX21216,P,189 MAIN ST,GROVEPORT,OH,43125,9998
CENTRAL,4J,OHIO 2,450,381246,43335,P,CALEDONIA,PX20423,P,128 S MAIN ST,CALEDONIA,OH,43314,9718
CENTRAL,4J,OHIO 1,440,388260,43405,P,TOLEDO,PX23088,P,435 S SAINT CLAIR ST,TOLEDO,OH,43601,9998
CENTRAL,4J,OHIO 1,440,388260,43601,,TOLEDO,PX23088,P,435 S SAINT CLAIR ST,TOLEDO,OH,43601,9998
CENTRAL,4J,OHIO 2,450,386874,43736,P,QUAKER CITY,PX22537,P,151 SOUTH ST,QUAKER CITY,OH,43773,9900
CENTRAL,4J,OHIO 2,450,382380,43738,P,EAST FULTONHAM,PX20880,P,6970 AXLINE AVE,EAST FULTONHAM,OH,43735,9900
CENTRAL,4J,OHIO 2,450,381918,43828,P,COSHOCTON,PX20704,P,516 CHESTNUT ST FRNT,COSHOCTON,OH,43812,9998
CENTRAL,4J,OHIO 1,440,384025,44243,,KENT,PX21477,P,626 FRANKLIN AVE,KENT,OH,44240,9998
CENTRAL,4J,OHIO 1,440,384515,44492,P,LISBON,PX21640,P,7983 DICKEY DR,LISBON,OH,44432,9998
CENTRAL,4J,OHIO 1,440,388365,44679,P,UHRICHSVILLE,PX23126,P,305 E 3RD ST,UHRICHSVILLE,OH,44683,9998
CENTRAL,4J,OHIO 2,450,383367,45004,P,HAMILTON,PX21234,P,105 COURT ST,HAMILTON,OH,45011,9998
CENTRAL,4J,OHIO 2,450,386013,45051,,NORTH BEND,PX22175,P,135 SYMMES AVE,NORTH BEND,OH,45052,9998
CENTRAL,4J,OHIO 2,450,389072,45114,P,WILMINGTON,PX23402,P,1515 ALEX DR,WILMINGTON,OH,45177,9998
CENTRAL,4J,OHIO 2,450,381603,45234,,CINCINNATI,PX20549,P,1623 DALTON AVE,CINCINNATI,OH,45234,9998
CENTRAL,4J,OHIO 2,450,381603,45235,,CINCINNATI,PX20549,P,1623 DALTON AVE,CINCINNATI,OH,45234,9998
CENTRAL,4J,OHIO 2,450,382093,45479,,DAYTON,PX20776,P,1111 E 5TH ST,DAYTON,OH,45401,9998
CENTRAL,4J,OHIO 2,450,384102,45633,P,KINGSTON,PX21505,P,4 W PICKAWAY ST,KINGSTON,OH,45644,9678
CENTRAL,4J,OHIO 2,450,383815,45675,P,IRONTON,PX21395,P,214 N 4TH ST,IRONTON,OH,45638,9839
CENTRAL,4J,OHIO 2,450,385670,45717,P,NELSONVILLE,PX22066,P,110 W WASHINGTON ST,NELSONVILLE,OH,45764,1180
CENTRAL,4J,OHIO 2,450,380770,45721,,BEVERLY,PX20241,P,409 1/2 5TH ST,BEVERLY,OH,45715,8901
CENTRAL,4J,OHIO 2,450,380168,45777,P,AMESVILLE,PX20068,P,20 STATE ST,AMESVILLE,OH,45711,9800
CENTRAL,4J,OHIO 1,440,388491,45838,P,VENEDOCIA,PX23177,P,15155 MAIN ST,VENEDOCIA,OH,45894,9998
CENTRAL,4J,INDIANA,460,170198,46014,P,ANDERSON,PX11453,P,1505 RAIBLE AVE,ANDERSON,IN,46011,9998
CENTRAL,4J,INDIANA,460,172937,46129,P,FOUNTAINTOWN,PX12232,P,11675 N DIVISION RD,FOUNTAINTOWN,IN,46130,9998
CENTRAL,4J,INDIANA,460,174037,46245,P,INDIANAPOLIS,PX12558,P,125 W SOUTH ST,INDIANAPOLIS,IN,46206,9998
CENTRAL,4J,INDIANA,460,174741,46355,P,LEROY,PX12747,P,14120 ELKHART ST,LEROY,IN,46355,9998
CENTRAL,4J,INDIANA,460,179416,46380,P,WHEATFIELD,PX14043,P,497 S BIERMA ST,WHEATFIELD,IN,46392,6005
CENTRAL,4J,INDIANA,460,177436,46912,P,ROCHESTER,PX13447,P,601 E 9TH ST,ROCHESTER,IN,46975,9998
CENTRAL,4J,INDIANA,460,174257,46935,P,KEWANNA,PX12641,P,203 E MAIN ST,KEWANNA,IN,46939,9998
CENTRAL,4J,INDIANA,460,176897,46971,,PERU,PX13287,P,101 S BROADWAY,PERU,IN,46970,9998
CENTRAL,4J,INDIANA,460,174378,46995,P,KOKOMO,PX12669,P,2719 S WEBSTER ST,KOKOMO,IN,46902,9998
CENTRAL,4J,INDIANA,460,171474,47104,,CHARLESTOWN,PX11833,P,361 MAIN CROSS ST,CHARLESTOWN,IN,47111,9998
CENTRAL,4J,INDIANA,460,172519,47160,,ELIZABETH,PX12127,P,5465 MAIN ST SE,ELIZABETH,IN,47117,9998
CENTRAL,4J,INDIANA,460,174136,47190,P,JEFFERSONVILLE,PX12610,P,303 E COURT AVE,JEFFERSONVILLE,IN,47130,9998
CENTRAL,4J,INDIANA,460,173080,47249,P,FREETOWN,PX12259,P,6683 N UNION ST,FREETOWN,IN,47235,9998
CENTRAL,4J,INDIANA,460,172057,47556,P,DALE,PX12002,P,4 E MEDCALF ST,DALE,IN,47523,9998
CENTRAL,4J,INDIANA,460,176446,47683,P,OAKLAND CITY,PX13177,P,130 W HARRISON ST,OAKLAND CITY,IN,47660,9998
CENTRAL,4J,INDIANA,460,176820,47865,P,PAXTON,PX13257,P,4371 S COUNTY ROAD 100 E,CARLISLE,IN,47838,8419
CENTRAL,4J,INDIANA,460,174477,47907,,LAFAYETTE,PX12683,P,3450 SOUTH ST,LAFAYETTE,IN,47905,9998
CENTRAL,4J,INDIANA,460,170924,47962,P,BROOKSTON,PX11686,P,205 S SOUTH ST,BROOKSTON,IN,47923,9998
CENTRAL,4J,INDIANA,460,173839,47988,P,HILLSBORO,PX12480,P,202 E MAIN ST,HILLSBORO,IN,47949,9998
CENTRAL,4J,MICHIGAN 1,481,257640,48055,P,PONTIAC,PY12592,P,735 W HURON ST,PONTIAC,MI,48343,9998
CENTRAL,4J,MICHIGAN 1,481,256290,48110,P,MONROE,PY12398,P,210 W FRONT ST,MONROE,MI,48161,9998
CENTRAL,4J,MICHIGAN 1,481,258380,48115,P,SALINE,PY12730,P,108 N MAPLE RD,SALINE,MI,48176,9998
CENTRAL,4J,MICHIGAN 1,481,252490,48233,,DETROIT,PY11742,P,1401 W FORT ST RM 1006,DETROIT,MI,48233,9998
CENTRAL,4J,MICHIGAN 2,493,250780,48887,P,BELDING,PY11423,P,201 E MAIN ST,BELDING,MI,48809,9998
CENTRAL,4J,MICHIGAN 2,493,255270,48924,,LANSING,PY12220,P,4800 COLLINS RD,LANSING,MI,48924,9998
CENTRAL,4J,MICHIGAN 2,493,252020,49039,P,COLOMA,PY11667,P,201 N WEST ST,COLOMA,MI,49038,8407
CENTRAL,4J,MICHIGAN 1,481,258780,49257,P,SOMERSET CENTER,PY12799,P,12631 E CHICAGO RD,SOMERSET CENTER,MI,49282,9998
CENTRAL,4J,MICHIGAN 1,481,251700,49281,P,CEMENT CITY,PY11604,P,227 MAIN ST,CEMENT CITY,MI,49233,9998
CENTRAL,4J,MICHIGAN 2,493,253920,49599,P,GRAND RAPIDS,PY11979,P,225 MICHIGAN ST NW,GRAND RAPIDS,MI,49501,9901
CENTRAL,4J,MICHIGAN 2,493,251770,49711,P,CHARLEVOIX,PY11618,P,6700 M 66 N,CHARLEVOIX,MI,49720,9623
CENTRAL,4J,MICHIGAN 2,493,252810,49826,P,EBEN JUNCTION,PY11814,P,E2895 STATE HIGHWAY M94,EBEN JUNCTION,MI,49825,9800
CENTRAL,4J,MICHIGAN 2,493,254770,49865,P,ISHPEMING,PY12133,P,211 N 2ND ST,ISHPEMING,MI,49849,9998
CENTRAL,4J,MICHIGAN 2,493,251450,49942,P,CALUMET,PY11566,P,201 6TH ST,CALUMET,MI,49913,9998
CENTRAL,4J,IA-NE-SD,500,180135,50043,P,ALDEN,PW10019,P,1223 WATER ST,ALDEN,IA,50006,9997
CENTRAL,4J,IA-NE-SD,500,182412,50307,,DES MOINES,PW10402,P,1165 2ND AVE,DES MOINES,IA,50318,9998
CENTRAL,4J,IA-NE-SD,500,182412,50308,,DES MOINES,PW10402,P,1165 2ND AVE,DES MOINES,IA,50318,9998
CENTRAL,4J,IA-NE-SD,500,182412,50318,P,DES MOINES,PW10402,P,1165 2ND AVE,DES MOINES,IA,50318,9998
CENTRAL,4J,IA-NE-SD,500,182412,50319,,DES MOINES,PW10402,P,1165 2ND AVE,DES MOINES,IA,50318,9998
CENTRAL,4J,IA-NE-SD,500,182412,50333,P,DES MOINES,PW10402,P,1165 2ND AVE,DES MOINES,IA,50318,9998
CENTRAL,4J,IA-NE-SD,500,182412,50394,P,DES MOINES,PW10402,P,1165 2ND AVE,DES MOINES,IA,50318,9998
CENTRAL,4J,IA-NE-SD,500,182412,50395,,DES MOINES,PW10402,P,1165 2ND AVE,DES MOINES,IA,50318,9998
CENTRAL,4J,IA-NE-SD,500,181269,50521,P,BURNSIDE,PW10194,P,30594 249TH AVE,BURNSIDE,IA,50521,5000
CENTRAL,4J,IA-NE-SD,500,185616,50552,P,MANSON,PW10942,P,1006 11TH ST,MANSON,IA,50563,5029
CENTRAL,4J,IA-NE-SD,500,186471,50661,P,NEW HAMPTON,PW11095,P,108 N CHESTNUT AVE,NEW HAMPTON,IA,50659,9998
CENTRAL,4J,IA-NE-SD,500,183807,51432,P,HALBUR,PW10640,P,206 W 2ND ST,HALBUR,IA,51444,7700
CENTRAL,4J,IA-NE-SD,500,185265,51550,,LOGAN,PW10894,P,315 E 6TH ST,LOGAN,IA,51546,9998
CENTRAL,4J,IA-NE-SD,500,187587,51591,P,RED OAK,PW11293,P,503 E COOLBAUGH ST,RED OAK,IA,51566,9998
CENTRAL,4J,IA-NE-SD,500,184392,52242,,IOWA CITY,PW10743,P,925 HIGHWAY 6 E,IOWA CITY,IA,52240,9998
CENTRAL,4J,IA-NE-SD,500,183024,52557,,FAIRFIELD,PW10510,P,200 W BROADWAY AVE,FAIRFIELD,IA,52556,9998
CENTRAL,4J,IA-NE-SD,500,186300,52642,P,MOUNT PLEASANT,PW11064,P,200 N JEFFERSON ST,MOUNT PLEASANT,IA,52641,2289
CENTRAL,4J,WISCONSIN,530,568290,53102,P,TREVOR,PY18214,P,25930 WILMOT RD,TREVOR,WI,53179,9349
CENTRAL,4J,WISCONSIN,530,566260,53542,P,ORFORDVILLE,PY17790,P,108 N RICHARDS ST,ORFORDVILLE,WI,53576,9464
CENTRAL,4J,WISCONSIN,530,565070,54226,P,MAPLEWOOD,PY17625,P,1631 STATE HIGHWAY 42,MAPLEWOOD,WI,54226,9800
CENTRAL,4J,WISCONSIN,530,565550,54764,P,MONDOVI,PY17690,P,131 W VINE ST,MONDOVI,WI,54755,1140
CENTRAL,4J,WISCONSIN,530,565190,54816,P,MASON,PY17639,P,24675 COUNTY HWY E,MASON,WI,54856,4405
CENTRAL,4J,MN-ND,553,268890,55078,P,STACY,PY26467,P,31140 FOREST BLVD,STACY,MN,55079,9247
CENTRAL,4J,MN-ND,553,268360,55131,,SAINT PAUL,PY26254,P,101 5TH ST E STE 150,SAINT PAUL,MN,55101,9909
CENTRAL,4J,MN-ND,553,266360,55470,P,MINNEAPOLIS,PY25845,P,100 S 1ST ST,MINNEAPOLIS,MN,55401,2002
CENTRAL,4J,MN-ND,553,265740,55599,P,LORETTO,PY25721,P,99 N MEDINA ST,LORETTO,MN,55357,9542
CENTRAL,4J,MN-ND,553,263860,55730,P,GRAND RAPIDS,PY25374,P,505 NW 1ST AVE,GRAND RAPIDS,MN,55744,2667
CENTRAL,4J,MN-ND,553,262590,55814,P,DULUTH,PY25162,P,2800 W MICHIGAN ST,DULUTH,MN,55806,1742
CENTRAL,4J,MN-ND,553,262590,55815,P,DULUTH,PY25162,P,2800 W MICHIGAN ST,DULUTH,MN,55806,1742
CENTRAL,4J,MN-ND,553,269785,56047,P,WINNEBAGO,PY26699,P,24 MAIN ST S,WINNEBAGO,MN,56098,1010
CENTRAL,4J,MN-ND,553,266810,56084,P,NEW ULM,PY25948,P,27 S GERMAN ST,NEW ULM,MN,56073,3015
CENTRAL,4J,MN-ND,553,267500,56140,P,PIPESTONE,PY26104,P,202 S HIAWATHA AVE,PIPESTONE,MN,56164,1879
CENTRAL,4J,MN-ND,553,268280,56397,P,SAINT CLOUD,PY26242,P,915 2ND ST N,SAINT CLOUD,MN,56301,9998
CENTRAL,4J,MN-ND,553,268280,56398,P,SAINT CLOUD,PY26242,P,915 2ND ST N,SAINT CLOUD,MN,56301,9998
CENTRAL,4J,MN-ND,553,269550,56436,P,WALKER,PY26615,P,515 MICHIGAN AVE W,WALKER,MN,56484,4500
CENTRAL,4J,MN-ND,553,266480,56562,,MOORHEAD,PY25875,P,119 5TH ST S,MOORHEAD,MN,56560,9998
CENTRAL,4J,MN-ND,553,266480,56563,,MOORHEAD,PY25875,P,119 5TH ST S,MOORHEAD,MN,56560,9998
CENTRAL,4J,MN-ND,553,262440,56577,P,DETROIT LAKES,PY25140,P,250 STATE ST W,DETROIT LAKES,MN,56501,9998
CENTRAL,4J,MN-ND,553,268760,56687,P,SOLWAY,PY26336,P,218 CENTERLINE RD N,SOLWAY,MN,56678,4362
CENTRAL,4J,MN-ND,553,373808,58202,,GRAND FORKS,PW18967,P,2501 28TH AVE S,GRAND FORKS,ND,58201,9998
CENTRAL,4J,MN-ND,553,373808,58205,,GRAND FORKS,PW18967,P,2501 28TH AVE S,GRAND FORKS,ND,58201,9998
CENTRAL,4J,MN-ND,553,370944,58505,,BISMARCK,PW18763,P,403 AIRPORT RD,BISMARCK,ND,58504,9998
CENTRAL,4J,MN-ND,553,376288,58705,,MINOT,PW19148,P,117 5TH AVE SW,MINOT,ND,58701,9998
WESTPAC,4E,ID-MT-OR,970,297308,59073,P,ROUNDUP,PZ13377,P,908 MAIN ST,ROUNDUP,MT,59072,9998
WESTPAC,4E,ID-MT-OR,970,293636,59402,,GREAT FALLS,PZ13198,P,215 1ST AVE N,GREAT FALLS,MT,59401,9998
WESTPAC,4E,ID-MT-OR,970,293978,59620,P,HELENA,PZ13216,P,2300 N HARRIS ST,HELENA,MT,59601,9998
WESTPAC,4E,ID-MT-OR,970,293978,59626,,HELENA,PZ13216,P,2300 N HARRIS ST,HELENA,MT,59601,9998
WESTPAC,4E,ID-MT-OR,970,293708,59835,P,HAMILTON,PZ13202,P,150 N 4TH ST,HAMILTON,MT,59840,9998
WESTPAC,4E,ID-MT-OR,970,299090,59921,P,WEST GLACIER,PZ13459,P,110 GOING TO THE SUN RD,WEST GLACIER,MT,59936,9998
CENTRAL,4J,ILLINOIS 1,606,163606,60037,,HIGHLAND PARK,PW13313,P,833 CENTRAL AVE,HIGHLAND PARK,IL,60035,3266
CENTRAL,4J,ILLINOIS 1,606,161274,60199,,CAROL STREAM,PW12296,P,550 FULLERTON AVE,CAROL STREAM,IL,60188,5204
CENTRAL,4J,ILLINOIS 2,604,162865,60599,,FOX VALLEY,PW13019,P,3900 GABRIELLE LN,FOX VALLEY,IL,60599,9998
CENTRAL,4J,ILLINOIS 1,606,161542,60681,P,CHICAGO,PW12401,P,433 W HARRISON ST STE 2036,CHICAGO,IL,60699,9998
CENTRAL,4J,ILLINOIS 1,606,161542,60699,,CHICAGO,PW12401,P,433 W HARRISON ST STE 2036,CHICAGO,IL,60699,9998
CENTRAL,4J,ILLINOIS 1,606,161542,60701,,CHICAGO,PW12401,P,433 W HARRISON ST STE 2036,CHICAGO,IL,60699,9998
CENTRAL,4J,ILLINOIS 2,604,165058,61758,P,MERNA,PW13923,P,16032 N 2300 EAST RD,MERNA,IL,61758,9998
CENTRAL,4J,ILLINOIS 2,604,168640,62098,P,WRIGHTS,PW15615,P,744 DEWITT ST,WRIGHTS,IL,62098,9998
CENTRAL,4J,ILLINOIS 2,604,161518,62259,P,CHESTER,PW12382,P,1321 SWANWICK ST,CHESTER,IL,62233,9998
CENTRAL,4J,ILLINOIS 2,604,165676,62329,P,NIOTA,PW14162,P,275 ARBOR ST,NIOTA,IL,62358,9998
CENTRAL,4J,ILLINOIS 2,604,166222,62659,,PETERSBURG,PW14441,P,220 S 7TH ST,PETERSBURG,IL,62675,9998
CENTRAL,4J,ILLINOIS 2,604,163918,62660,P,JACKSONVILLE,PW13467,P,200 W COURT ST,JACKSONVILLE,IL,62650,9998
CENTRAL,4J,ILLINOIS 2,604,168262,62662,P,WAVERLY,PW15459,P,109 N PEARL ST,WAVERLY,IL,62692,9998
CENTRAL,4J,ILLINOIS 2,604,165208,62683,P,MODESTO,PW13986,P,108 S MAIN ST,MODESTO,IL,62667,9998
CENTRAL,4J,ILLINOIS 2,604,164692,62829,P,MC LEANSBORO,PW13873,P,211 S JACKSON ST,MC LEANSBORO,IL,62859,9997
CENTRAL,4J,ILLINOIS 2,604,161302,62834,P,CARMI,PW12294,P,201 S WALNUT ST,CARMI,IL,62821,9997
CENTRAL,4J,ILLINOIS 2,604,162874,62840,P,FRANKFORT HEIGHTS,PW13026,P,1711 E MAIN ST,FRANKFORT HEIGHTS,IL,62840,1000
CENTRAL,4J,ILLINOIS 2,604,160858,62866,P,BONNIE,PW12126,P,285 S IL HIGHWAY 37,BONNIE,IL,62816,9998
CENTRAL,4J,ILLINOIS 2,604,167920,62973,P,ULLIN,PW15327,P,121 S CENTRAL ST,ULLIN,IL,62992,9998
CENTRAL,4J,ILLINOIS 2,604,167656,62993,P,TAMMS,PW15242,P,250 FRONT ST,TAMMS,IL,62988,9998
CENTRAL,4J,KS-MO,630,283609,63045,,HAZELWOOD,PW16735,P,6135 N LINDBERGH BLVD,HAZELWOOD,MO,63042,9998
CENTRAL,4J,KS-MO,630,284704,63057,P,LIGUORI,PW17041,P,1 LIGUORI DR,LIGUORI,MO,63057,9998
CENTRAL,4J,KS-MO,630,284794,63061,,LONEDELL,PW17066,P,3735 HIGHWAY 30,LONEDELL,MO,63060,9998
CENTRAL,4J,KS-MO,630,287140,63140,,SAINT LOUIS,PW17799,P,1720 MARKET ST RM 3035,SAINT LOUIS,MO,63155,9998
CENTRAL,4J,KS-MO,630,287140,63155,,SAINT LOUIS,PW17799,P,1720 MARKET ST RM 3035,SAINT LOUIS,MO,63155,9998
CENTRAL,4J,KS-MO,630,287140,63180,,SAINT LOUIS,PW17799,P,1720 MARKET ST RM 3035,SAINT LOUIS,MO,63155,9998
CENTRAL,4J,KS-MO,630,287374,63370,P,SILEX,PW17926,P,52 DUNCAN MANSION DR,SILEX,MO,63377,9998
CENTRAL,4J,KS-MO,630,287926,63378,P,TRELOAR,PW18462,P,21797 M K T ST,TRELOAR,MO,63378,9998
CENTRAL,4J,KS-MO,630,281524,63431,,CLARENCE,PW16180,P,101 N GRAND ST,CLARENCE,MO,63437,9998
CENTRAL,4J,KS-MO,630,285082,63632,P,MARQUAND,PW17166,P,105 WHITENER ST,MARQUAND,MO,63655,9998
CENTRAL,4J,KS-MO,630,282394,63666,P,ELLINGTON,PW16414,P,301 2ND ST,ELLINGTON,MO,63638,9998
CENTRAL,4J,KS-MO,630,281284,63742,P,CAPE GIRARDEAU,PW16081,P,320 N FREDERICK ST,CAPE GIRARDEAU,MO,63701,9998
CENTRAL,4J,KS-MO,630,281446,63745,P,CHAFFEE,PW16152,P,217 S MAIN ST,CHAFFEE,MO,63740,9998
CENTRAL,4J,KS-MO,630,286252,63776,P,PERRYVILLE,PW17523,P,20 E SAINTE MARIE ST,PERRYVILLE,MO,63775,9998
CENTRAL,4J,KS-MO,630,283852,63875,P,HORNERSVILLE,PW16788,P,405 PECAN ST,HORNERSVILLE,MO,63855,9998
CENTRAL,4J,KS-MO,630,287368,63881,P,SIKESTON,PW17925,P,120 E NORTH ST,SIKESTON,MO,63801,9998
CENTRAL,4J,KS-MO,630,282172,63931,,DONIPHAN,PW16358,P,303 N GRAND AVE,DONIPHAN,MO,63935,9998
CENTRAL,4J,KS-MO,630,282580,64073,P,EXCELSIOR SPRINGS,PW16456,P,515 SAINT LOUIS AVE,EXCELSIOR SPRINGS,MO,64024,9998
CENTRAL,4J,KS-MO,630,284218,64101,,KANSAS CITY,PW16888,P,300 W PERSHING RD STE 251,KANSAS CITY,MO,64108,9998
CENTRAL,4J,KS-MO,630,284218,64191,P,KANSAS CITY,PW16888,P,300 W PERSHING RD STE 251,KANSAS CITY,MO,64108,9998
CENTRAL,4J,KS-MO,630,284218,64199,P,KANSAS CITY,PW16888,P,300 W PERSHING RD STE 251,KANSAS CITY,MO,64108,9998
CENTRAL,4J,KS-MO,630,281500,64654,P,CHILLICOTHE,PW16173,P,401 S WASHINGTON ST,CHILLICOTHE,MO,64601,9998
CENTRAL,4J,KS-MO,630,285868,64680,P,NORBORNE,PW17392,P,204 E 2ND ST,NORBORNE,MO,64668,9998
CENTRAL,4J,KS-MO,630,284458,64766,P,LAMAR,PW16983,P,131 W 11TH ST,LAMAR,MO,64759,9998
CENTRAL,4J,KS-MO,630,287572,64853,P,STARK CITY,PW18282,P,302 KENT ST,STARK CITY,MO,64866,9998
CENTRAL,4J,KS-MO,630,285532,65036,P,MORRISON,PW17309,P,155 MAIN ST,MORRISON,MO,65061,9998
CENTRAL,4J,KS-MO,630,281680,65299,,COLUMBIA,PW16226,P,511 E WALNUT ST,COLUMBIA,MO,65201,9998
CENTRAL,4J,KS-MO,630,280660,65546,P,BIRCH TREE,PW15854,P,7274 OAK ST,BIRCH TREE,MO,65438,9055
CENTRAL,4J,KS-MO,630,287632,65607,P,STOCKTON,PW18337,P,406 EAST ST,STOCKTON,MO,65785,9998
CENTRAL,4J,KS-MO,630,281338,65623,P,CASSVILLE,PW16112,P,800 WEST ST,CASSVILLE,MO,65625,9998
CENTRAL,4J,KS-MO,630,285538,65645,P,MORRISVILLE,PW17310,P,100 N MAIN ST,MORRISVILLE,MO,65710,9998
CENTRAL,4J,KS-MO,630,287530,65817,P,SPRINGFIELD,PW17989,P,500 W CHESTNUT EXPY,SPRINGFIELD,MO,65801,9998
CENTRAL,4J,KS-MO,630,198355,66251,,SHAWNEE MISSION,PW21390,P,6029 BROADMOOR ST,MISSION,KS,66202,9995
CENTRAL,4J,KS-MO,630,199614,66426,P,WESTMORELAND,PW21733,P,306 MAIN ST,WESTMORELAND,KS,66549,9998
CENTRAL,4J,KS-MO,630,195643,66506,,MANHATTAN,PW20939,P,500 LEAVENWORTH ST,MANHATTAN,KS,66502,9998
CENTRAL,4J,KS-MO,630,198932,66621,,TOPEKA,PW21615,P,424 S KANSAS AVE STE 1,TOPEKA,KS,66603,9998
CENTRAL,4J,KS-MO,630,198932,66624,,TOPEKA,PW21615,P,424 S KANSAS AVE STE 1,TOPEKA,KS,66603,9998
CENTRAL,4J,KS-MO,630,190726,66778,,BAXTER SPRINGS,PW20119,P,1115 PARK AVE,BAXTER SPRINGS,KS,66713,9998
CENTRAL,4J,KS-MO,630,192519,67102,,DEXTER,PW20432,P,118 N MAIN ST,DEXTER,KS,67038,9998
CENTRAL,4J,KS-MO,630,199713,67221,,WICHITA,PW21759,P,7117 W HARRY ST,WICHITA,KS,67276,9998
CENTRAL,4J,KS-MO,630,199713,67276,,WICHITA,PW21759,P,7117 W HARRY ST,WICHITA,KS,67276,9998
CENTRAL,4J,KS-MO,630,193355,67868,,GARDEN CITY,PW20586,P,410 N 6TH ST,GARDEN CITY,KS,67846,9998
CENTRAL,4J,IA-NE-SD,500,306645,68056,,OMAHA,PW1A093,P,1124 PACIFIC ST RM 222,OMAHA,NE,68108,9998
CENTRAL,4J,IA-NE-SD,500,306645,68119,P,OMAHA,PW1A093,P,1124 PACIFIC ST RM 222,OMAHA,NE,68108,9998
CENTRAL,4J,IA-NE-SD,500,306645,68176,,OMAHA,PW1A093,P,1124 PACIFIC ST RM 222,OMAHA,NE,68108,9998
SOUTHERN,4G,LOUISIANA,700,211261,70081,P,BURAS,PY23459,P,37823 HIGHWAY 23,BURAS,LA,70041,5807
SOUTHERN,4G,LOUISIANA,700,210761,70093,P,BELLE CHASSE,PY23387,P,8710 HIGHWAY 23,BELLE CHASSE,LA,70037,2228
SOUTHERN,4G,LOUISIANA,700,214745,70097,P,KENNER,PY23947,P,2300 WILLIAMS BLVD,KENNER,LA,70062,9998
SOUTHERN,4G,LOUISIANA,700,216565,70139,,NEW ORLEANS,PY24219,P,701 LOYOLA AVE,NEW ORLEANS,LA,70113,1952
SOUTHERN,4G,LOUISIANA,700,216565,70145,,NEW ORLEANS,PY24219,P,701 LOYOLA AVE,NEW ORLEANS,LA,70113,1952
SOUTHERN,4G,LOUISIANA,700,216565,70146,,NEW ORLEANS,PY24219,P,701 LOYOLA AVE,NEW ORLEANS,LA,70113,1952
SOUTHERN,4G,LOUISIANA,700,216565,70163,,NEW ORLEANS,PY24219,P,701 LOYOLA AVE,NEW ORLEANS,LA,70113,1952
SOUTHERN,4G,LOUISIANA,700,216565,70170,,NEW ORLEANS,PY24219,P,701 LOYOLA AVE,NEW ORLEANS,LA,70113,1952
SOUTHERN,4G,LOUISIANA,700,213445,70352,,GIBSON,PY23781,P,6353 S BAYOU BLACK DR,GIBSON,LA,70356,9998
SOUTHERN,4G,LOUISIANA,700,215889,70355,,MATHEWS,PY24104,P,4884 HIGHWAY 1 STE 4,MATHEWS,LA,70375,9998
SOUTHERN,4G,LOUISIANA,700,218580,70371,P,THIBODAUX,PY24560,P,910 CANAL BLVD,THIBODAUX,LA,70301,9998
SOUTHERN,4G,LOUISIANA,700,217189,70421,,PONCHATOULA,PY24333,P,275 N 5TH ST,PONCHATOULA,LA,70454,9998
SOUTHERN,4G,LOUISIANA,700,214979,70593,P,LAFAYETTE,PY23984,P,1105 MOSS ST,LAFAYETTE,LA,70501,9998
SOUTHERN,4G,LOUISIANA,700,213588,70738,P,GONZALES,PY23794,P,1706 S BURNSIDE AVE,GONZALES,LA,70737,9998
SOUTHERN,4G,LOUISIANA,700,211898,70792,P,CONVENT,PY23569,P,6574 LA 44,CONVENT,LA,70723,9998
SOUTHERN,4G,LOUISIANA,700,210624,70825,,BATON ROUGE,PY23370,P,750 FLORIDA ST,BATON ROUGE,LA,70801,9998
SOUTHERN,4G,LOUISIANA,700,210624,70873,P,BATON ROUGE,PY23370,P,750 FLORIDA ST,BATON ROUGE,LA,70801,9998
SOUTHERN,4G,LOUISIANA,700,210624,70893,P,BATON ROUGE,PY23370,P,750 FLORIDA ST,BATON ROUGE,LA,70801,9998
SOUTHERN,4G,LOUISIANA,700,210624,70894,P,BATON ROUGE,PY23370,P,750 FLORIDA ST,BATON ROUGE,LA,70801,9998
SOUTHERN,4G,LOUISIANA,700,217956,71102,P,SHREVEPORT,PY24454,P,2400 TEXAS AVE,SHREVEPORT,LA,71102,9998
SOUTHERN,4G,LOUISIANA,700,217956,71150,P,SHREVEPORT,PY24454,P,2400 TEXAS AVE,SHREVEPORT,LA,71102,9998
SOUTHERN,4G,LOUISIANA,700,216175,71217,P,MONROE,PY24156,P,501 STERLINGTON RD,MONROE,LA,71203,9998
SOUTHERN,4G,LOUISIANA,700,211482,71365,P,CENTER POINT,PY23511,P,1006 HIGHWAY 107,CENTER POINT,LA,71323,9998
SOUTHERN,4G,LOUISIANA,700,214667,71377,P,JONESVILLE,PY23933,P,902 FIRST ST,JONESVILLE,LA,71343,9998
SOUTHERN,4G,LOUISIANA,700,215239,71443,P,LEESVILLE,PY24021,P,303 S 3RD ST,LEESVILLE,LA,71446,9998
SOUTHERN,4G,AR-OK,730,040216,71920,,AMITY,PY20034,P,136 W THOMPSON ST,AMITY,AR,71921,9998
SOUTHERN,4G,AR-OK,730,046453,71966,P,ODEN,PY20897,P,1093 W HIGHWAY 88,ODEN,AR,71961,9998
SOUTHERN,4G,AR-OK,730,040765,72158,P,BENTON,PY20098,P,1425 MILITARY RD,BENTON,AR,72015,9998
SOUTHERN,4G,AR-OK,730,045130,72295,P,LITTLE ROCK,PY20709,P,600 E CAPITOL AVE,LITTLE ROCK,AR,72202,9998
SOUTHERN,4G,AR-OK,730,049495,72329,P,WILSON,PY21310,P,3 PARK ST,WILSON,AR,72395,9998
SOUTHERN,4G,AR-OK,730,048595,72657,,TIMBO,PY21193,P,7127 HIGHWAY 66,TIMBO,AR,72680,9998
SOUTHERN,4G,AR-OK,730,046381,72659,,NORFORK,PY20876,P,13862 HIGHWAY 5 S,NORFORK,AR,72658,9998
SOUTHERN,4G,AR-OK,730,392365,73039,P,DAVIS,PW21998,P,900 E MAIN ST,DAVIS,OK,73030,9998
SOUTHERN,4G,AR-OK,730,396138,73163,,OKLAHOMA CITY,PW22353,P,4025 W RENO AVE,OKLAHOMA CITY,OK,73125,9807
SOUTHERN,4G,AR-OK,730,396138,73164,P,OKLAHOMA CITY,PW22353,P,4025 W RENO AVE,OKLAHOMA CITY,OK,73125,9807
SOUTHERN,4G,AR-OK,730,396138,73167,,OKLAHOMA CITY,PW22353,P,4025 W RENO AVE,OKLAHOMA CITY,OK,73125,9807
SOUTHERN,4G,AR-OK,730,396138,73175,P,OKLAHOMA CITY,PW22353,P,4025 W RENO AVE,OKLAHOMA CITY,OK,73125,9807
SOUTHERN,4G,AR-OK,730,396138,73178,P,OKLAHOMA CITY,PW22353,P,4025 W RENO AVE,OKLAHOMA CITY,OK,73125,9807
SOUTHERN,4G,AR-OK,730,390242,73523,,ALTUS,PW21830,P,217 W CYPRESS ST,ALTUS,OK,73521,9998
SOUTHERN,4G,AR-OK,730,394741,73558,P,LAWTON,PW22212,P,501 SW 5TH ST,LAWTON,OK,73501,9998
SOUTHERN,4G,AR-OK,730,398162,73561,,TERRAL,PW22547,P,309 E APACHE ST,TERRAL,OK,73569,9998
SOUTHERN,4G,AR-OK,730,392827,73706,P,ENID,PW22044,P,115 W BROADWAY AVE FL 1,ENID,OK,73701,9998
SOUTHERN,4G,AR-OK,730,396765,74335,P,QUAPAW,PW22422,P,601 MAIN ST,QUAPAW,OK,74363,9998
SOUTHERN,4G,AR-OK,730,391012,74439,P,BRAGGS,PW21891,P,300 N MADISON ST,BRAGGS,OK,74423,9998
SOUTHERN,4G,AR-OK,730,399042,74440,P,WHITEFIELD,PW22638,P,201 N MAIN ST,WHITEFIELD,OK,74472,9998
SOUTHERN,4G,AR-OK,730,392882,74461,,EUFAULA,PW22048,P,131 W FOLEY ST,EUFAULA,OK,74432,9998
SOUTHERN,4G,TEXAS 1,752,482270,75260,,DALLAS,PW23428,P,401 TOM LANDRY HWY,DALLAS,TX,75260,9998
SOUTHERN,4G,TEXAS 1,752,482270,75359,P,DALLAS,PW23428,P,401 TOM LANDRY HWY,DALLAS,TX,75260,9998
SOUTHERN,4G,TEXAS 1,752,482270,75398,,DALLAS,PW23428,P,401 TOM LANDRY HWY,DALLAS,TX,75260,9998
SOUTHERN,4G,TEXAS 1,752,485305,75641,P,LONGVIEW,PW24532,P,2336 S MOBBERLY AVE,LONGVIEW,TX,75602,9998
SOUTHERN,4G,TEXAS 1,752,483780,75834,,GROVETON,PW23984,P,147 E 2ND ST,GROVETON,TX,75845,9998
SOUTHERN,4G,TEXAS 1,752,482390,76203,P,DENTON,PW23470,P,101 E MCKINNEY ST,DENTON,TX,76201,4255
SOUTHERN,4G,TEXAS 1,752,482390,76204,P,DENTON,PW23470,P,101 E MCKINNEY ST,DENTON,TX,76201,4255
SOUTHERN,4G,TEXAS 1,752,481835,76644,P,CLIFTON,PW23280,P,407 W 5TH ST,CLIFTON,TX,76634,9998
SOUTHERN,4G,TEXAS 1,752,489395,76798,,WACO,PW26197,P,430 W STATE HIGHWAY 6,WACO,TX,76702,9998
SOUTHERN,4G,TEXAS 3,780,488350,76949,,SILVER,PW25641,P,551 WILKES AVE,SILVER,TX,76949,9802
SOUTHERN,4G,TEXAS 2,770,484145,77201,,HOUSTON,PW24130,P,1500 HADLEY ST,HOUSTON,TX,77002,9998
SOUTHERN,4G,TEXAS 2,770,484143,77315,,NORTH HOUSTON,PW24935,P,4600 ALDINE BENDER RD RM 224,NORTH HOUSTON,TX,77315,9998
SOUTHERN,4G,TEXAS 2,770,489045,77337,P,TOMBALL,PW26047,P,122 N HOLDERRIETH BLVD,TOMBALL,TX,77375,9998
SOUTHERN,4G,TEXAS 2,770,484215,77349,,HUNTSVILLE,PW24152,P,3190 HIGHWAY 30 W,HUNTSVILLE,TX,77340,6431
SOUTHERN,4G,TEXAS 2,770,480610,77710,P,BEAUMONT,PW22886,P,5815 WALDEN RD,BEAUMONT,TX,77707,9998
SOUTHERN,4G,TEXAS 2,770,481885,77844,P,COLLEGE STATION,PW23297,P,2130 HARVEY MITCHELL PKWY S,COLLEGE STATION,TX,77840,9998
SOUTHERN,4G,TEXAS 2,770,481960,77850,P,CONCORD,PW23318,P,1117 COUNTY ROAD 3481,CONCORD,TX,77850,9801
SOUTHERN,4G,TEXAS 3,780,482065,78001,P,COTULLA,PW23355,P,209 N FRONT,COTULLA,TX,78014,9998
SOUTHERN,4G,TEXAS 3,780,484565,78062,P,KARNES CITY,PW24275,P,404 E WALL ST,KARNES CITY,TX,78118,9998
SOUTHERN,4G,TEXAS 3,780,489182,78150,,UNIVERSAL CITY,PW26113,P,830 NORTH BLVD,UNIVERSAL CITY,TX,78148,9998
SOUTHERN,4G,TEXAS 3,780,487980,78206,,SAN ANTONIO,PW25505,P,10410 PERRIN BEITEL RD,SAN ANTONIO,TX,78284,9998
SOUTHERN,4G,TEXAS 3,780,487980,78241,,SAN ANTONIO,PW25505,P,10410 PERRIN BEITEL RD,SAN ANTONIO,TX,78284,9998
SOUTHERN,4G,TEXAS 3,780,487980,78243,,SAN ANTONIO,PW25505,P,10410 PERRIN BEITEL RD,SAN ANTONIO,TX,78284,9998
SOUTHERN,4G,TEXAS 3,780,487980,78284,,SAN ANTONIO,PW25505,P,10410 PERRIN BEITEL RD,SAN ANTONIO,TX,78284,9998
SOUTHERN,4G,TEXAS 3,780,487980,78285,,SAN ANTONIO,PW25505,P,10410 PERRIN BEITEL RD,SAN ANTONIO,TX,78284,9998
SOUTHERN,4G,TEXAS 2,770,485725,78350,P,MATHIS,PW24628,P,121 S BEE ST,MATHIS,TX,78368,9998
SOUTHERN,4G,TEXAS 2,770,482030,78419,,CORPUS CHRISTI,PW23344,P,809 NUECES BAY BLVD,CORPUS CHRISTI,TX,78469,9998
SOUTHERN,4G,TEXAS 2,770,487470,78598,P,RAYMONDVILLE,PW25312,P,705 E HIDALGO AVE,RAYMONDVILLE,TX,78580,9998
SOUTHERN,4G,TEXAS 3,780,480420,78710,,AUSTIN,PW22815,P,8225 CROSS PARK DR,AUSTIN,TX,78710,9998
SOUTHERN,4G,TEXAS 3,780,480420,78712,,AUSTIN,PW22815,P,8225 CROSS PARK DR,AUSTIN,TX,78710,9998
SOUTHERN,4G,TEXAS 3,780,480420,78713,P,AUSTIN,PW22815,P,8225 CROSS PARK DR,AUSTIN,TX,78710,9998
SOUTHERN,4G,TEXAS 3,780,480420,78799,,AUSTIN,PW22815,P,8225 CROSS PARK DR,AUSTIN,TX,78710,9998
SOUTHERN,4G,TEXAS 3,780,480370,78836,P,ASHERTON,PW22795,P,572 W CARTER ST,ASHERTON,TX,78827,9998
SOUTHERN,4G,TEXAS 3,780,482365,78843,,DEL RIO,PW23458,P,2001 N BEDELL AVE,DEL RIO,TX,78840,9998
SOUTHERN,4G,TEXAS 3,780,488680,79051,P,STRATFORD,PW25890,P,201 N MAIN ST,STRATFORD,TX,79084,9803
SOUTHERN,4G,TEXAS 3,780,488275,79077,P,SHAMROCK,PW25611,P,210 N MADDEN ST,SHAMROCK,TX,79079,9998
SOUTHERN,4G,TEXAS 3,780,485245,79221,P,LOCKNEY,PW24511,P,107 N MAIN ST,LOCKNEY,TX,79241,9802
SOUTHERN,4G,TEXAS 3,780,481690,79223,,CHILDRESS,PW23231,P,507 AVENUE F NW,CHILDRESS,TX,79201,9998
SOUTHERN,4G,TEXAS 3,780,485395,79402,,LUBBOCK,PW24558,P,1515 CRICKETS AVE,LUBBOCK,TX,79402,9997
SOUTHERN,4G,TEXAS 3,780,485395,79406,,LUBBOCK,PW24558,P,1515 CRICKETS AVE,LUBBOCK,TX,79402,9997
SOUTHERN,4G,TEXAS 3,780,488470,79516,P,SNYDER,PW25670,P,1701 24TH ST,SNYDER,TX,79549,9998
SOUTHERN,4G,TEXAS 3,780,483150,79517,,FLUVANNA,PW23763,P,930 10TH ST,FLUVANNA,TX,79517,9998
SOUTHERN,4G,TEXAS 3,780,482845,79910,,EL PASO,PW23624,P,8401 BOEING DR,EL PASO,TX,79910,9998
SOUTHERN,4G,TEXAS 3,780,482845,79916,,EL PASO,PW23624,P,8401 BOEING DR,EL PASO,TX,79910,9998
SOUTHERN,4G,TEXAS 3,780,482845,79918,,EL PASO,PW23624,P,8401 BOEING DR,EL PASO,TX,79910,9998
SOUTHERN,4G,TEXAS 3,780,482845,79920,P,EL PASO,PW23624,P,8401 BOEING DR,EL PASO,TX,79910,9998
WESTPAC,4E,CO-WY,800,072358,80225,P,DENVER,PZ11306,P,951 20TH ST,DENVER,CO,80202,9998
WESTPAC,4E,CO-WY,800,072358,80266,,DENVER,PZ11306,P,951 20TH ST,DENVER,CO,80202,9998
WESTPAC,4E,CO-WY,800,075508,80429,P,LEADVILLE,PZ11584,P,130 W 5TH ST,LEADVILLE,CO,80461,9998
WESTPAC,4E,CO-WY,800,071818,80912,,COLORADO SPRINGS,PZ11196,P,201 E PIKES PEAK AVE,COLORADO SPRINGS,CO,80903,9900
WESTPAC,4E,CO-WY,800,071818,80913,,COLORADO SPRINGS,PZ11196,P,201 E PIKES PEAK AVE,COLORADO SPRINGS,CO,80903,9900
WESTPAC,4E,CO-WY,800,075418,81038,P,LAS ANIMAS,PZ11577,P,513 6TH ST,LAS ANIMAS,CO,81054,1716
WESTPAC,4E,CO-WY,800,071512,81126,P,CHAMA,PZ11157,P,21844 COUNTY ROAD P.6,CHAMA,CO,81126,9990
WESTPAC,4E,CO-WY,800,077992,81227,P,SALIDA,PZ11825,P,310 D ST,SALIDA,CO,81201,2843
WESTPAC,4E,CO-WY,800,077992,81232,P,SALIDA,PZ11825,P,310 D ST,SALIDA,CO,81201,2843
WESTPAC,4E,CO-WY,800,071962,81414,P,CORY,PZ11277,P,9340 HIGHWAY 65,CORY,CO,81414,9997
WESTPAC,4E,CO-WY,800,072421,81633,,DINOSAUR,PZ11314,P,114 STEGOSAURUS FWY,DINOSAUR,CO,81610,9997
WESTPAC,4E,CO-WY,800,571672,82005,,CHEYENNE,PW1B337,P,4800 CONVERSE AVE,CHEYENNE,WY,82009,9998
WESTPAC,4E,CO-WY,800,571672,82061,P,CHEYENNE,PW1B337,P,4800 CONVERSE AVE,CHEYENNE,WY,82009,9998
WESTPAC,4E,CO-WY,800,575396,82071,P,LARAMIE,PW1B434,P,152 N 5TH ST,LARAMIE,WY,82072,9998
WESTPAC,4E,CO-WY,800,573800,82731,,GILLETTE,PW1B388,P,311 S KENDRICK AVE,GILLETTE,WY,82716,9998
WESTPAC,4E,CO-WY,800,571178,82840,P,BUFFALO,PW1B323,P,193 S MAIN ST,BUFFALO,WY,82834,9998
WESTPAC,4E,CO-WY,800,575576,82929,P,LITTLE AMERICA,P015047,P,6945 STATE HIGHWAY 374,LITTLE AMERICA,WY,82929,9900
WESTPAC,4E,CO-WY,800,574028,82938,P,GREEN RIVER,PW1B396,P,350 UINTA DR,GREEN RIVER,WY,82935,9998
WESTPAC,4E,CO-WY,800,575054,83121,P,KEMMERER,PW1B423,P,318 SAPPHIRE ST,KEMMERER,WY,83101,9998
WESTPAC,4E,ID-MT-OR,970,154625,83433,P,ISLAND PARK,PZ12654,P,3978 US HIGHWAY 20,ISLAND PARK,ID,83429,9998
WESTPAC,4E,ID-MT-OR,970,155475,83635,P,MCCALL,PZ12722,P,495 DEINHARD LN,MCCALL,ID,83638,9998
WESTPAC,4E,ID-MT-OR,970,156325,83652,P,NAMPA,PZ12765,P,123 11TH AVE S,NAMPA,ID,83651,9998
WESTPAC,4E,ID-MT-OR,970,150925,83708,,BOISE,PZ12430,P,770 S 13TH ST,BOISE,ID,83708,9998
WESTPAC,4E,NV-UT,890,499180,84008,,VERNAL,PZ16353,P,67 N 800 W,VERNAL,UT,84078,9998
WESTPAC,4E,NV-UT,890,497174,84602,,PROVO,PZ16232,P,95 W 100 S,PROVO,UT,84601,9998
WESTPAC,4E,AZ-NM,852,036364,85026,,PHOENIX,PZ10747,P,4949 E VAN BUREN ST RM 187,PHOENIX,AZ,85026,9998
WESTPAC,4E,AZ-NM,852,030259,85190,P,APACHE JUNCTION,PZ10369,P,151 W SUPERSTITION BLVD,APACHE JUNCTION,AZ,85120,9998
WESTPAC,4E,AZ-NM,852,033478,85309,P,GLENDALE,PZ10551,P,5955 W PEORIA AVE,GLENDALE,AZ,85302,9998
WESTPAC,4E,AZ-NM,852,039842,85369,P,YUMA,PZ11001,P,2222 S 4TH AVE,YUMA,AZ,85364,9998
WESTPAC,4E,AZ-NM,852,036438,85535,,PIMA,PZ10750,P,41 E CENTER ST,PIMA,AZ,85543,9998
WESTPAC,4E,AZ-NM,852,038880,85707,P,TUCSON,PZ10945,P,1501 S CHERRYBELL STRA RM 205,TUCSON,AZ,85726,9998
WESTPAC,4E,AZ-NM,852,033182,86052,P,FREDONIA,PZ10538,P,85 N MAIN ST,FREDONIA,AZ,86022,9998
WESTPAC,4E,AZ-NM,852,036771,86313,P,PRESCOTT,PZ10767,P,442 MILLER VALLEY RD,PRESCOTT,AZ,86301,9998
WESTPAC,4E,AZ-NM,852,037030,86342,P,RIMROCK,PZ10784,P,5235 N LOOKOUT POINT RD,RIMROCK,AZ,86335,9997
WESTPAC,4E,AZ-NM,852,034440,86443,,KINGMAN,PZ10627,P,1901 JOHNSON AVE,KINGMAN,AZ,86401,9998
WESTPAC,4E,AZ-NM,852,342898,87009,,ESTANCIA,PZ13717,P,413 E HIGHLAND AVE,ESTANCIA,NM,87016,9998
WESTPAC,4E,AZ-NM,852,345964,87070,P,MORIARTY,PZ13944,P,514 ROUTE 66,MORIARTY,NM,87035,9998
WESTPAC,4E,AZ-NM,852,340147,87101,,ALBUQUERQUE,PZ13505,P,1135 BROADWAY BLVD NE,ALBUQUERQUE,NM,87101,0001
WESTPAC,4E,AZ-NM,852,340147,87115,,ALBUQUERQUE,PZ13505,P,1135 BROADWAY BLVD NE,ALBUQUERQUE,NM,87101,0001
WESTPAC,4E,AZ-NM,852,343423,87319,P,GALLUP,PZ13755,P,500 S SECOND ST,GALLUP,NM,87301,9998
WESTPAC,4E,AZ-NM,852,348736,87320,P,TOHATCHI,PZ14229,P,1 TOHATCHI DR,TOHATCHI,NM,87325,9998
WESTPAC,4E,AZ-NM,852,343423,87326,P,GALLUP,PZ13755,P,500 S SECOND ST,GALLUP,NM,87301,9998
WESTPAC,4E,AZ-NM,852,348463,87525,P,TAOS,PZ14211,P,318 PASEO DEL PUEBLO NORTE,TAOS,NM,87571,9998
WESTPAC,4E,AZ-NM,852,347434,87538,P,ROWE,PZ14092,P,3198 FRONTAGE RD,ROWE,NM,87562,9998
WESTPAC,4E,AZ-NM,852,349072,87543,P,VADITO,PZ14265,P,1709 STATE HIGHWAY 75,VADITO,NM,87579,9998
WESTPAC,4E,AZ-NM,852,346573,87573,,PECOS,PZ13993,P,63 S MAIN ST,PECOS,NM,87552,9998
WESTPAC,4E,AZ-NM,852,348295,87729,,SPRINGER,PZ14179,P,610 5TH ST,SPRINGER,NM,87747,9998
WESTPAC,4E,AZ-NM,852,349366,87750,,WATROUS,PZ14282,P,233 BRIDGE ST,WATROUS,NM,87753,1001
WESTPAC,4E,AZ-NM,852,344788,88006,P,LAS CRUCES,PZ13856,P,201 E LAS CRUCES AVE,LAS CRUCES,NM,88001,9998
WESTPAC,4E,AZ-NM,852,345124,88009,P,LORDSBURG,PZ13879,P,401 SHAKESPEARE ST,LORDSBURG,NM,88045,9998
WESTPAC,4E,AZ-NM,852,348211,88022,,SILVER CITY,PZ14161,P,500 N HUDSON ST,SILVER CITY,NM,88061,9998
WESTPAC,4E,AZ-NM,852,340315,88024,P,ANTHONY,PZ13520,P,1190 ANTHONY DR,ANTHONY,NM,88021,9800
WESTPAC,4E,AZ-NM,852,348211,88036,P,SILVER CITY,PZ14161,P,500 N HUDSON ST,SILVER CITY,NM,88061,9998
WESTPAC,4E,AZ-NM,852,348211,88053,P,SILVER CITY,PZ14161,P,500 N HUDSON ST,SILVER CITY,NM,88061,9998
WESTPAC,4E,AZ-NM,852,345124,88055,P,LORDSBURG,PZ13879,P,401 SHAKESPEARE ST,LORDSBURG,NM,88045,9998
WESTPAC,4E,AZ-NM,852,345691,88072,,MESQUITE,PZ13929,P,395 HIGHWAY 228,MESQUITE,NM,88048,9800
WESTPAC,4E,AZ-NM,852,341764,88103,P,CLOVIS,PZ13631,P,417 GIDDING ST STE 100,CLOVIS,NM,88101,9998
WESTPAC,4E,AZ-NM,852,346888,88114,,PORTALES,PZ14028,P,116 W 1ST ST,PORTALES,NM,88130,9998
WESTPAC,4E,AZ-NM,852,342625,88122,P,ELIDA,PZ13707,P,101 N CENTER ST,ELIDA,NM,88116,9800
WESTPAC,4E,AZ-NM,852,341764,88133,,CLOVIS,PZ13631,P,417 GIDDING ST STE 100,CLOVIS,NM,88101,9998
WESTPAC,4E,AZ-NM,852,348505,88213,,TATUM,PZ14214,P,114 S AVENUE A,TATUM,NM,88267,9802
WESTPAC,4E,AZ-NM,852,345229,88262,P,LOVINGTON,PZ13891,P,203 E AVENUE D,LOVINGTON,NM,88260,9998
WESTPAC,4E,AZ-NM,852,347476,88323,P,RUIDOSO,PZ14094,P,1090 MECHEM DR,RUIDOSO,NM,88345,9998
WESTPAC,4E,AZ-NM,852,341743,88350,P,CLOUDCROFT,PZ13628,P,20 CURLEW PL,CLOUDCROFT,NM,88317,9800
WESTPAC,4E,AZ-NM,852,348967,88433,,TUCUMCARI,PZ14247,P,220 S 1ST ST,TUCUMCARI,NM,88401,9998
SOUTHERN,4G,TEXAS 3,780,482845,88510,P,EL PASO,PW23624,P,8401 BOEING DR,EL PASO,TX,79910,9998
SOUTHERN,4G,TEXAS 3,780,482845,88511,P,EL PASO,PW23624,P,8401 BOEING DR,EL PASO,TX,79910,9998
SOUTHERN,4G,TEXAS 3,780,482845,88512,P,EL PASO,PW23624,P,8401 BOEING DR,EL PASO,TX,79910,9998
SOUTHERN,4G,TEXAS 3,780,482845,88514,P,EL PASO,PW23624,P,8401 BOEING DR,EL PASO,TX,79910,9998
SOUTHERN,4G,TEXAS 3,780,482845,88515,P,EL PASO,PW23624,P,8401 BOEING DR,EL PASO,TX,79910,9998
SOUTHERN,4G,TEXAS 3,780,482845,88517,P,EL PASO,PW23624,P,8401 BOEING DR,EL PASO,TX,79910,9998
SOUTHERN,4G,TEXAS 3,780,482845,88518,P,EL PASO,PW23624,P,8401 BOEING DR,EL PASO,TX,79910,9998
SOUTHERN,4G,TEXAS 3,780,482845,88519,P,EL PASO,PW23624,P,8401 BOEING DR,EL PASO,TX,79910,9998
SOUTHERN,4G,TEXAS 3,780,482845,88520,P,EL PASO,PW23624,P,8401 BOEING DR,EL PASO,TX,79910,9998
SOUTHERN,4G,TEXAS 3,780,482845,88521,P,EL PASO,PW23624,P,8401 BOEING DR,EL PASO,TX,79910,9998
SOUTHERN,4G,TEXAS 3,780,482845,88523,P,EL PASO,PW23624,P,8401 BOEING DR,EL PASO,TX,79910,9998
SOUTHERN,4G,TEXAS 3,780,482845,88524,P,EL PASO,PW23624,P,8401 BOEING DR,EL PASO,TX,79910,9998
SOUTHERN,4G,TEXAS 3,780,482845,88525,P,EL PASO,PW23624,P,8401 BOEING DR,EL PASO,TX,79910,9998
SOUTHERN,4G,TEXAS 3,780,482845,88526,P,EL PASO,PW23624,P,8401 BOEING DR,EL PASO,TX,79910,9998
SOUTHERN,4G,TEXAS 3,780,482845,88527,P,EL PASO,PW23624,P,8401 BOEING DR,EL PASO,TX,79910,9998
SOUTHERN,4G,TEXAS 3,780,482845,88528,P,EL PASO,PW23624,P,8401 BOEING DR,EL PASO,TX,79910,9998
SOUTHERN,4G,TEXAS 3,780,482845,88529,P,EL PASO,PW23624,P,8401 BOEING DR,EL PASO,TX,79910,9998
SOUTHERN,4G,TEXAS 3,780,482845,88530,P,EL PASO,PW23624,P,8401 BOEING DR,EL PASO,TX,79910,9998
SOUTHERN,4G,TEXAS 3,780,482845,88531,P,EL PASO,PW23624,P,8401 BOEING DR,EL PASO,TX,79910,9998
SOUTHERN,4G,TEXAS 3,780,482845,88532,P,EL PASO,PW23624,P,8401 BOEING DR,EL PASO,TX,79910,9998
SOUTHERN,4G,TEXAS 3,780,482845,88533,P,EL PASO,PW23624,P,8401 BOEING DR,EL PASO,TX,79910,9998
SOUTHERN,4G,TEXAS 3,780,482845,88534,P,EL PASO,PW23624,P,8401 BOEING DR,EL PASO,TX,79910,9998
SOUTHERN,4G,TEXAS 3,780,482845,88535,P,EL PASO,PW23624,P,8401 BOEING DR,EL PASO,TX,79910,9998
SOUTHERN,4G,TEXAS 3,780,482845,88536,P,EL PASO,PW23624,P,8401 BOEING DR,EL PASO,TX,79910,9998
SOUTHERN,4G,TEXAS 3,780,482845,88538,P,EL PASO,PW23624,P,8401 BOEING DR,EL PASO,TX,79910,9998
SOUTHERN,4G,TEXAS 3,780,482845,88539,P,EL PASO,PW23624,P,8401 BOEING DR,EL PASO,TX,79910,9998
SOUTHERN,4G,TEXAS 3,780,482845,88541,P,EL PASO,PW23624,P,8401 BOEING DR,EL PASO,TX,79910,9998
SOUTHERN,4G,TEXAS 3,780,482845,88542,P,EL PASO,PW23624,P,8401 BOEING DR,EL PASO,TX,79910,9998
SOUTHERN,4G,TEXAS 3,780,482845,88543,P,EL PASO,PW23624,P,8401 BOEING DR,EL PASO,TX,79910,9998
SOUTHERN,4G,TEXAS 3,780,482845,88544,P,EL PASO,PW23624,P,8401 BOEING DR,EL PASO,TX,79910,9998
SOUTHERN,4G,TEXAS 3,780,482845,88545,P,EL PASO,PW23624,P,8401 BOEING DR,EL PASO,TX,79910,9998
SOUTHERN,4G,TEXAS 3,780,482845,88546,P,EL PASO,PW23624,P,8401 BOEING DR,EL PASO,TX,79910,9998
SOUTHERN,4G,TEXAS 3,780,482845,88547,P,EL PASO,PW23624,P,8401 BOEING DR,EL PASO,TX,79910,9998
SOUTHERN,4G,TEXAS 3,780,482845,88548,P,EL PASO,PW23624,P,8401 BOEING DR,EL PASO,TX,79910,9998
SOUTHERN,4G,TEXAS 3,780,482845,88549,P,EL PASO,PW23624,P,8401 BOEING DR,EL PASO,TX,79910,9998
SOUTHERN,4G,TEXAS 3,780,482845,88550,P,EL PASO,PW23624,P,8401 BOEING DR,EL PASO,TX,79910,9998
SOUTHERN,4G,TEXAS 3,780,482845,88553,P,EL PASO,PW23624,P,8401 BOEING DR,EL PASO,TX,79910,9998
SOUTHERN,4G,TEXAS 3,780,482845,88555,P,EL PASO,PW23624,P,8401 BOEING DR,EL PASO,TX,79910,9998
SOUTHERN,4G,TEXAS 3,780,482845,88556,P,EL PASO,PW23624,P,8401 BOEING DR,EL PASO,TX,79910,9998
SOUTHERN,4G,TEXAS 3,780,482845,88557,P,EL PASO,PW23624,P,8401 BOEING DR,EL PASO,TX,79910,9998
SOUTHERN,4G,TEXAS 3,780,482845,88558,P,EL PASO,PW23624,P,8401 BOEING DR,EL PASO,TX,79910,9998
SOUTHERN,4G,TEXAS 3,780,482845,88559,P,EL PASO,PW23624,P,8401 BOEING DR,EL PASO,TX,79910,9998
SOUTHERN,4G,TEXAS 3,780,482845,88560,P,EL PASO,PW23624,P,8401 BOEING DR,EL PASO,TX,79910,9998
SOUTHERN,4G,TEXAS 3,780,482845,88561,P,EL PASO,PW23624,P,8401 BOEING DR,EL PASO,TX,79910,9998
SOUTHERN,4G,TEXAS 3,780,482845,88562,P,EL PASO,PW23624,P,8401 BOEING DR,EL PASO,TX,79910,9998
SOUTHERN,4G,TEXAS 3,780,482845,88563,P,EL PASO,PW23624,P,8401 BOEING DR,EL PASO,TX,79910,9998
SOUTHERN,4G,TEXAS 3,780,482845,88566,P,EL PASO,PW23624,P,8401 BOEING DR,EL PASO,TX,79910,9998
SOUTHERN,4G,TEXAS 3,780,482845,88567,P,EL PASO,PW23624,P,8401 BOEING DR,EL PASO,TX,79910,9998
SOUTHERN,4G,TEXAS 3,780,482845,88568,P,EL PASO,PW23624,P,8401 BOEING DR,EL PASO,TX,79910,9998
SOUTHERN,4G,TEXAS 3,780,482845,88569,P,EL PASO,PW23624,P,8401 BOEING DR,EL PASO,TX,79910,9998
SOUTHERN,4G,TEXAS 3,780,482845,88570,P,EL PASO,PW23624,P,8401 BOEING DR,EL PASO,TX,79910,9998
SOUTHERN,4G,TEXAS 3,780,482845,88571,P,EL PASO,PW23624,P,8401 BOEING DR,EL PASO,TX,79910,9998
SOUTHERN,4G,TEXAS 3,780,482845,88572,P,EL PASO,PW23624,P,8401 BOEING DR,EL PASO,TX,79910,9998
SOUTHERN,4G,TEXAS 3,780,482845,88573,P,EL PASO,PW23624,P,8401 BOEING DR,EL PASO,TX,79910,9998
SOUTHERN,4G,TEXAS 3,780,482845,88574,P,EL PASO,PW23624,P,8401 BOEING DR,EL PASO,TX,79910,9998
SOUTHERN,4G,TEXAS 3,780,482845,88576,P,EL PASO,PW23624,P,8401 BOEING DR,EL PASO,TX,79910,9998
SOUTHERN,4G,TEXAS 3,780,482845,88577,P,EL PASO,PW23624,P,8401 BOEING DR,EL PASO,TX,79910,9998
SOUTHERN,4G,TEXAS 3,780,482845,88578,P,EL PASO,PW23624,P,8401 BOEING DR,EL PASO,TX,79910,9998
SOUTHERN,4G,TEXAS 3,780,482845,88579,P,EL PASO,PW23624,P,8401 BOEING DR,EL PASO,TX,79910,9998
SOUTHERN,4G,TEXAS 3,780,482845,88580,P,EL PASO,PW23624,P,8401 BOEING DR,EL PASO,TX,79910,9998
SOUTHERN,4G,TEXAS 3,780,482845,88581,P,EL PASO,PW23624,P,8401 BOEING DR,EL PASO,TX,79910,9998
SOUTHERN,4G,TEXAS 3,780,482845,88582,P,EL PASO,PW23624,P,8401 BOEING DR,EL PASO,TX,79910,9998
SOUTHERN,4G,TEXAS 3,780,482845,88583,P,EL PASO,PW23624,P,8401 BOEING DR,EL PASO,TX,79910,9998
SOUTHERN,4G,TEXAS 3,780,482845,88584,P,EL PASO,PW23624,P,8401 BOEING DR,EL PASO,TX,79910,9998
SOUTHERN,4G,TEXAS 3,780,482845,88585,P,EL PASO,PW23624,P,8401 BOEING DR,EL PASO,TX,79910,9998
SOUTHERN,4G,TEXAS 3,780,482845,88586,P,EL PASO,PW23624,P,8401 BOEING DR,EL PASO,TX,79910,9998
SOUTHERN,4G,TEXAS 3,780,482845,88589,P,EL PASO,PW23624,P,8401 BOEING DR,EL PASO,TX,79910,9998
SOUTHERN,4G,TEXAS 3,780,482845,88595,P,EL PASO,PW23624,P,8401 BOEING DR,EL PASO,TX,79910,9998
WESTPAC,4E,NV-UT,890,316200,89087,,NORTH LAS VEGAS,PZ14533,P,1414 E LAKE MEAD BLVD,NORTH LAS VEGAS,NV,89030,9998
WESTPAC,4E,NV-UT,890,314880,89154,P,LAS VEGAS,PZ14477,P,1001 E SUNSET RD RM 1030,LAS VEGAS,NV,89199,9998
WESTPAC,4E,NV-UT,890,314880,89158,,LAS VEGAS,PZ14477,P,1001 E SUNSET RD RM 1030,LAS VEGAS,NV,89199,9998
WESTPAC,4E,NV-UT,890,314880,89199,,LAS VEGAS,PZ14477,P,1001 E SUNSET RD RM 1030,LAS VEGAS,NV,89199,9998
WESTPAC,4E,NV-UT,890,318240,89437,,SPARKS,PZ14616,P,750 4TH ST,SPARKS,NV,89431,7419
WESTPAC,4E,CALIFORNIA 5,900,054530,90010,,LOS ANGELES,PZ21805,P,7001 S CENTRAL AVE RM 322,LOS ANGELES,CA,90052,9424
WESTPAC,4E,CALIFORNIA 5,900,054530,90052,P,LOS ANGELES,PZ21805,P,7001 S CENTRAL AVE RM 322,LOS ANGELES,CA,90052,9424
WESTPAC,4E,CALIFORNIA 5,900,054530,90085,P,LOS ANGELES,PZ21805,P,7001 S CENTRAL AVE RM 322,LOS ANGELES,CA,90052,9424
WESTPAC,4E,CALIFORNIA 5,900,054530,90134,,LOS ANGELES,PZ21805,P,7001 S CENTRAL AVE RM 322,LOS ANGELES,CA,90052,9424
WESTPAC,4E,CALIFORNIA 5,900,053684,90311,,INGLEWOOD,PZ21519,P,300 E HILLCREST BLVD,INGLEWOOD,CA,90301,9998
WESTPAC,4E,CALIFORNIA 5,900,056978,90410,P,SANTA MONICA,PZ22872,P,1653 7TH ST,SANTA MONICA,CA,90401,9997
WESTPAC,4E,CALIFORNIA 5,900,057872,90506,,TORRANCE,PZ23592,P,2510 MONTEREY ST,TORRANCE,CA,90503,9998
WESTPAC,4E,CALIFORNIA 5,900,051020,90624,P,BUENA PARK,PZ20387,P,7377 LA PALMA AVE,BUENA PARK,CA,90622,9998
WESTPAC,4E,CALIFORNIA 5,900,056960,90671,P,SANTA FE SPRINGS,PZ22868,P,11760 TELEGRAPH RD,SANTA FE SPRINGS,CA,90670,9998
WESTPAC,4E,CALIFORNIA 5,900,054482,90822,,LONG BEACH,PZ21790,P,300 LONG BEACH BLVD,LONG BEACH,CA,90802,9998
WESTPAC,4E,CALIFORNIA 5,900,054482,90833,,LONG BEACH,PZ21790,P,300 LONG BEACH BLVD,LONG BEACH,CA,90802,9998
WESTPAC,4E,CALIFORNIA 4,926,054026,91023,P,LA CANADA FLINTRIDGE,PZ21613,P,607 FOOTHILL BLVD,LA CANADA FLINTRIDGE,CA,91011,9998
WESTPAC,4E,CALIFORNIA 3,913,056950,91382,,SANTA CLARITA,PZ22864,P,24355 CREEKSIDE RD,SANTA CLARITA,CA,91355,9998
WESTPAC,4E,CALIFORNIA 3,913,056950,91383,,SANTA CLARITA,PZ22864,P,24355 CREEKSIDE RD,SANTA CLARITA,CA,91355,9998
WESTPAC,4E,CALIFORNIA 3,913,055448,91618,P,NORTH HOLLYWOOD,PZ22202,P,7035 LAUREL CANYON BLVD,NORTH HOLLYWOOD,CA,91605,9998
WESTPAC,4E,CALIFORNIA 4,926,050108,91714,P,ALHAMBRA,PZ20050,P,10 W BAY STATE ST,ALHAMBRA,CA,91802,9998
WESTPAC,4E,CALIFORNIA 4,926,054190,91749,P,LA PUENTE,PZ21628,P,15310 ELLIOT AVE,LA PUENTE,CA,91747,9998
WESTPAC,4E,CALIFORNIA 4,926,055652,91758,,ONTARIO,PZ22333,P,1555 E HOLT BLVD,ONTARIO,CA,91761,9998
WESTPAC,4E,CALIFORNIA 4,926,050108,91804,,ALHAMBRA,PZ20050,P,10 W BAY STATE ST,ALHAMBRA,CA,91802,9998
WESTPAC,4E,CALIFORNIA 4,926,050108,91896,P,ALHAMBRA,PZ20050,P,10 W BAY STATE ST,ALHAMBRA,CA,91802,9998
WESTPAC,4E,CALIFORNIA 4,926,050108,91899,P,ALHAMBRA,PZ20050,P,10 W BAY STATE ST,ALHAMBRA,CA,91802,9998
WESTPAC,4E,CALIFORNIA 6,920,055562,92055,P,OCEANSIDE,PZ22309,P,1895 AVENIDA DEL ORO,OCEANSIDE,CA,92056,9998
WESTPAC,4E,CALIFORNIA 6,920,056768,92135,P,SAN DIEGO,PZ22794,P,11251 RANCHO CARMEL DR,SAN DIEGO,CA,92199,9988
WESTPAC,4E,CALIFORNIA 6,920,056768,92179,P,SAN DIEGO,PZ22794,P,11251 RANCHO CARMEL DR,SAN DIEGO,CA,92199,9988
WESTPAC,4E,CALIFORNIA 6,920,056768,92197,P,SAN DIEGO,PZ22794,P,11251 RANCHO CARMEL DR,SAN DIEGO,CA,92199,9988
WESTPAC,4E,CALIFORNIA 6,920,056768,92199,,SAN DIEGO,PZ22794,P,11251 RANCHO CARMEL DR,SAN DIEGO,CA,92199,9988
WESTPAC,4E,CALIFORNIA 6,920,056744,92403,,SAN BERNARDINO,PZ22789,P,390 W 5TH ST,SAN BERNARDINO,CA,92401,9998
WESTPAC,4E,CALIFORNIA 4,926,050222,92825,P,ANAHEIM,PZ20093,P,701 N LOARA ST,ANAHEIM,CA,92803,9998
WESTPAC,4E,CALIFORNIA 4,926,055664,92862,,ORANGE,PZ22336,P,1075 N TUSTIN ST,ORANGE,CA,92863,9998
WESTPAC,4E,CALIFORNIA 4,926,055664,92864,P,ORANGE,PZ22336,P,1075 N TUSTIN ST,ORANGE,CA,92863,9998
WESTPAC,4E,CALIFORNIA 4,926,050222,92899,,ANAHEIM,PZ20093,P,701 N LOARA ST,ANAHEIM,CA,92803,9998
WESTPAC,4E,CALIFORNIA 3,913,056942,93107,P,SANTA BARBARA,PZ22860,P,836 ANACAPA ST,SANTA BARBARA,CA,93102,9998
WESTPAC,4E,CALIFORNIA 3,913,057452,93208,P,SPRINGVILLE,PZ23089,P,35701 HIGHWAY 190,SPRINGVILLE,CA,93265,9998
WESTPAC,4E,CALIFORNIA 3,913,051776,93282,P,CORCORAN,PZ20754,P,917 CHASE AVE,CORCORAN,CA,93212,9998
WESTPAC,4E,CALIFORNIA 3,913,056870,93407,,SAN LUIS OBISPO,PZ22827,P,1655 DALIDIO DR,SAN LUIS OBISPO,CA,93401,1000
WESTPAC,4E,CALIFORNIA 3,913,056870,93410,,SAN LUIS OBISPO,PZ22827,P,1655 DALIDIO DR,SAN LUIS OBISPO,CA,93401,1000
WESTPAC,4E,CALIFORNIA 3,913,051164,93435,P,CAMBRIA,PZ20465,P,4100 BRIDGE ST,CAMBRIA,CA,93428,9998
WESTPAC,4E,CALIFORNIA 3,913,053816,93554,P,JOHANNESBURG,PZ21548,P,515 BROADWAY AVE,JOHANNESBURG,CA,93528,9997
WESTPAC,4E,CALIFORNIA 3,913,057176,93642,P,SHAVER LAKE,PZ22940,P,40677 SHAVER FOREST RD,SHAVER LAKE,CA,93664,9998
WESTPAC,4E,CALIFORNIA 3,913,050528,93669,,BASS LAKE,PZ20202,P,54449 ROAD 432,BASS LAKE,CA,93604,9998
WESTPAC,4E,CALIFORNIA 3,913,055106,93943,,MONTEREY,PZ22046,P,565 HARTNELL ST,MONTEREY,CA,93940,9998
WESTPAC,4E,CALIFORNIA 1,940,056786,94143,,SAN FRANCISCO,PZ22802,P,1300 EVANS AVE STE 300H,SAN FRANCISCO,CA,94188,9998
WESTPAC,4E,CALIFORNIA 2,956,051752,94527,P,CONCORD,PZ20691,P,2121 MERIDIAN PARK BLVD,CONCORD,CA,94520,9998
WESTPAC,4E,CALIFORNIA 2,956,055148,94575,,MORAGA,PZ22059,P,460 CENTER ST,MORAGA,CA,94556,9998
WESTPAC,4E,CALIFORNIA 2,956,055508,94613,P,OAKLAND,PZ22296,P,1675 7TH ST RM 236,OAKLAND,CA,94615,9997
WESTPAC,4E,CALIFORNIA 2,956,055508,94615,,OAKLAND,PZ22296,P,1675 7TH ST RM 236,OAKLAND,CA,94615,9997
WESTPAC,4E,CALIFORNIA 2,956,055508,94617,,OAKLAND,PZ22296,P,1675 7TH ST RM 236,OAKLAND,CA,94615,9997
WESTPAC,4E,CALIFORNIA 2,956,056462,94850,,RICHMOND,PZ22658,P,1025 NEVIN AVE,RICHMOND,CA,94801,3100
WESTPAC,4E,CALIFORNIA 1,940,056912,94974,,SAN QUENTIN,PZ22838,P,1 MAIN ST,SAN QUENTIN,CA,94964,9998
WESTPAC,4E,CALIFORNIA 1,940,055958,94999,,PETALUMA,PZ22457,P,120 4TH ST,PETALUMA,CA,94952,9998
WESTPAC,4E,CALIFORNIA 1,940,056834,95025,P,SAN JOSE,PZ22814,P,1750 LUNDY AVE,SAN JOSE,CA,95101,8000
WESTPAC,4E,CALIFORNIA 1,940,056834,95101,,SAN JOSE,PZ22814,P,1750 LUNDY AVE,SAN JOSE,CA,95101,8000
WESTPAC,4E,CALIFORNIA 1,940,056834,95115,P,SAN JOSE,PZ22814,P,1750 LUNDY AVE,SAN JOSE,CA,95101,8000
WESTPAC,4E,CALIFORNIA 1,940,056834,95141,,SAN JOSE,PZ22814,P,1750 LUNDY AVE,SAN JOSE,CA,95101,8000
WESTPAC,4E,CALIFORNIA 3,913,054878,95343,,MERCED,PZ21946,P,2334 M ST,MERCED,CA,95340,9998
WESTPAC,4E,CALIFORNIA 3,913,056024,95375,P,PINECREST,PZ22487,P,411 PINECREST LAKE RD,PINECREST,CA,95364,9998
WESTPAC,4E,CALIFORNIA 1,940,051878,95538,P,CRESCENT CITY,PZ20781,P,751 2ND ST,CRESCENT CITY,CA,95531,4314
WESTPAC,4E,CALIFORNIA 2,956,052532,95607,,ESPARTO,PZ21066,P,16884 YOLO AVE,ESPARTO,CA,95627,9998
WESTPAC,4E,CALIFORNIA 2,956,056060,95644,P,PIONEER,PZ22495,P,24282 STATE HIGHWAY 88,PIONEER,CA,95666,9998
WESTPAC,4E,CALIFORNIA 2,956,053774,95654,P,JACKSON,PZ21539,P,424 SUTTER ST,JACKSON,CA,95642,9998
WESTPAC,4E,CALIFORNIA 2,956,058388,95799,P,WEST SACRAMENTO,PZ23836,P,1601 MERKLEY AVE,WEST SACRAMENTO,CA,95691,9998
WESTPAC,4E,CALIFORNIA 1,940,054104,96070,P,LAKEHEAD,PZ21669,P,20856 ANTLERS RD,LAKEHEAD,CA,96051,9998
WESTPAC,4E,CALIFORNIA 2,956,057938,96111,P,TRUCKEE,PZ23622,P,10050 BRIDGE ST,TRUCKEE,CA,96161,0212
WESTPAC,4E,CALIFORNIA 2,956,056216,96129,,PORTOLA,PZ22548,P,440 S GULLING ST,PORTOLA,CA,96122,9995
WESTPAC,4E,CALIFORNIA 2,956,057408,96152,P,SOUTH LAKE TAHOE,PZ23059,P,1046 AL TAHOE BLVD,SOUTH LAKE TAHOE,CA,96150,9998
WESTPAC,4E,CALIFORNIA 2,956,057408,96154,P,SOUTH LAKE TAHOE,PZ23059,P,1046 AL TAHOE BLVD,SOUTH LAKE TAHOE,CA,96150,9998
WESTPAC,4E,CALIFORNIA 2,956,057408,96156,P,SOUTH LAKE TAHOE,PZ23059,P,1046 AL TAHOE BLVD,SOUTH LAKE TAHOE,CA,96150,9998
WESTPAC,4E,CALIFORNIA 2,956,057408,96157,P,SOUTH LAKE TAHOE,PZ23059,P,1046 AL TAHOE BLVD,SOUTH LAKE TAHOE,CA,96150,9998
OVERSEAS,4M,MILITARY POSTAL SERVSHANNON KELLY,962,610002,96200,M,DPO,P017333,P,2501 RYDIN RD,RICHMOND,CA,94850,9751
OVERSEAS,4M,MILITARY POSTAL SERVSHANNON KELLY,962,610001,96201,M,APO,PZ20001,P,2501 RYDIN RD,RICHMOND,CA,94850,9751
OVERSEAS,4M,MILITARY POSTAL SERVSHANNON KELLY,962,610001,96202,M,APO,PZ20001,P,2501 RYDIN RD,RICHMOND,CA,94850,9751
OVERSEAS,4M,MILITARY POSTAL SERVSHANNON KELLY,962,610001,96204,M,APO,PZ20001,P,2501 RYDIN RD,RICHMOND,CA,94850,9751
OVERSEAS,4M,MILITARY POSTAL SERVSHANNON KELLY,962,610001,96205,M,APO,PZ20001,P,2501 RYDIN RD,RICHMOND,CA,94850,9751
OVERSEAS,4M,MILITARY POSTAL SERVSHANNON KELLY,962,610001,96206,M,APO,PZ20001,P,2501 RYDIN RD,RICHMOND,CA,94850,9751
OVERSEAS,4M,MILITARY POSTAL SERVSHANNON KELLY,962,610001,96207,M,APO,PZ20001,P,2501 RYDIN RD,RICHMOND,CA,94850,9751
OVERSEAS,4M,MILITARY POSTAL SERVSHANNON KELLY,962,610001,96208,M,APO,PZ20001,P,2501 RYDIN RD,RICHMOND,CA,94850,9751
OVERSEAS,4M,MILITARY POSTAL SERVSHANNON KELLY,962,610002,96209,M,DPO,P017333,P,2501 RYDIN RD,RICHMOND,CA,94850,9751
OVERSEAS,4M,MILITARY POSTAL SERVSHANNON KELLY,962,610002,96210,M,DPO,P017333,P,2501 RYDIN RD,RICHMOND,CA,94850,9751
OVERSEAS,4M,MILITARY POSTAL SERVSHANNON KELLY,962,610001,96212,M,APO,PZ20001,P,2501 RYDIN RD,RICHMOND,CA,94850,9751
OVERSEAS,4M,MILITARY POSTAL SERVSHANNON KELLY,962,610001,96213,M,APO,PZ20001,P,2501 RYDIN RD,RICHMOND,CA,94850,9751
OVERSEAS,4M,MILITARY POSTAL SERVSHANNON KELLY,962,610001,96214,M,APO,PZ20001,P,2501 RYDIN RD,RICHMOND,CA,94850,9751
OVERSEAS,4M,MILITARY POSTAL SERVSHANNON KELLY,962,610001,96215,M,APO,PZ20001,P,2501 RYDIN RD,RICHMOND,CA,94850,9751
OVERSEAS,4M,MILITARY POSTAL SERVSHANNON KELLY,962,610001,96218,M,APO,PZ20001,P,2501 RYDIN RD,RICHMOND,CA,94850,9751
OVERSEAS,4M,MILITARY POSTAL SERVSHANNON KELLY,962,610001,96224,M,APO,PZ20001,P,2501 RYDIN RD,RICHMOND,CA,94850,9751
OVERSEAS,4M,MILITARY POSTAL SERVSHANNON KELLY,962,610001,96251,M,APO,PZ20001,P,2501 RYDIN RD,RICHMOND,CA,94850,9751
OVERSEAS,4M,MILITARY POSTAL SERVSHANNON KELLY,962,610001,96257,M,APO,PZ20001,P,2501 RYDIN RD,RICHMOND,CA,94850,9751
OVERSEAS,4M,MILITARY POSTAL SERVSHANNON KELLY,962,610001,96258,M,APO,PZ20001,P,2501 RYDIN RD,RICHMOND,CA,94850,9751
OVERSEAS,4M,MILITARY POSTAL SERVSHANNON KELLY,962,610001,96260,M,APO,PZ20001,P,2501 RYDIN RD,RICHMOND,CA,94850,9751
OVERSEAS,4M,MILITARY POSTAL SERVSHANNON KELLY,962,610001,96262,M,APO,PZ20001,P,2501 RYDIN RD,RICHMOND,CA,94850,9751
OVERSEAS,4M,MILITARY POSTAL SERVSHANNON KELLY,962,610001,96264,M,APO,PZ20001,P,2501 RYDIN RD,RICHMOND,CA,94850,9751
OVERSEAS,4M,MILITARY POSTAL SERVSHANNON KELLY,962,610001,96266,M,APO,PZ20001,P,2501 RYDIN RD,RICHMOND,CA,94850,9751
OVERSEAS,4M,MILITARY POSTAL SERVSHANNON KELLY,962,610001,96269,M,APO,PZ20001,P,2501 RYDIN RD,RICHMOND,CA,94850,9751
OVERSEAS,4M,MILITARY POSTAL SERVSHANNON KELLY,962,610001,96271,M,APO,PZ20001,P,2501 RYDIN RD,RICHMOND,CA,94850,9751
OVERSEAS,4M,MILITARY POSTAL SERVSHANNON KELLY,962,610001,96273,M,APO,PZ20001,P,2501 RYDIN RD,RICHMOND,CA,94850,9751
OVERSEAS,4M,MILITARY POSTAL SERVSHANNON KELLY,962,610001,96275,M,APO,PZ20001,P,2501 RYDIN RD,RICHMOND,CA,94850,9751
OVERSEAS,4M,MILITARY POSTAL SERVSHANNON KELLY,962,610001,96276,M,APO,PZ20001,P,2501 RYDIN RD,RICHMOND,CA,94850,9751
OVERSEAS,4M,MILITARY POSTAL SERVSHANNON KELLY,962,610001,96278,M,APO,PZ20001,P,2501 RYDIN RD,RICHMOND,CA,94850,9751
OVERSEAS,4M,MILITARY POSTAL SERVSHANNON KELLY,962,610001,96283,M,APO,PZ20001,P,2501 RYDIN RD,RICHMOND,CA,94850,9751
OVERSEAS,4M,MILITARY POSTAL SERVSHANNON KELLY,962,610001,96284,M,APO,PZ20001,P,2501 RYDIN RD,RICHMOND,CA,94850,9751
OVERSEAS,4M,MILITARY POSTAL SERVSHANNON KELLY,962,610001,96297,M,APO,PZ20001,P,2501 RYDIN RD,RICHMOND,CA,94850,9751
OVERSEAS,4M,MILITARY POSTAL SERVSHANNON KELLY,962,610001,96301,M,APO,PZ20001,P,2501 RYDIN RD,RICHMOND,CA,94850,9751
OVERSEAS,4M,MILITARY POSTAL SERVSHANNON KELLY,962,610002,96303,M,DPO,P017333,P,2501 RYDIN RD,RICHMOND,CA,94850,9751
OVERSEAS,4M,MILITARY POSTAL SERVSHANNON KELLY,962,610001,96306,M,APO,PZ20001,P,2501 RYDIN RD,RICHMOND,CA,94850,9751
OVERSEAS,4M,MILITARY POSTAL SERVSHANNON KELLY,962,610001,96309,M,APO,PZ20001,P,2501 RYDIN RD,RICHMOND,CA,94850,9751
OVERSEAS,4M,MILITARY POSTAL SERVSHANNON KELLY,962,610001,96310,M,APO,PZ20001,P,2501 RYDIN RD,RICHMOND,CA,94850,9751
OVERSEAS,4M,MILITARY POSTAL SERVSHANNON KELLY,962,610001,96311,M,APO,PZ20001,P,2501 RYDIN RD,RICHMOND,CA,94850,9751
OVERSEAS,4M,MILITARY POSTAL SERVSHANNON KELLY,962,610001,96315,M,APO,PZ20001,P,2501 RYDIN RD,RICHMOND,CA,94850,9751
OVERSEAS,4M,MILITARY POSTAL SERVSHANNON KELLY,962,610001,96319,M,APO,PZ20001,P,2501 RYDIN RD,RICHMOND,CA,94850,9751
OVERSEAS,4M,MILITARY POSTAL SERVSHANNON KELLY,962,610001,96321,M,APO,PZ20001,P,2501 RYDIN RD,RICHMOND,CA,94850,9751
OVERSEAS,4M,MILITARY POSTAL SERVSHANNON KELLY,962,610001,96322,M,APO,PZ20001,P,2501 RYDIN RD,RICHMOND,CA,94850,9751
OVERSEAS,4M,MILITARY POSTAL SERVSHANNON KELLY,962,610001,96326,M,APO,PZ20001,P,2501 RYDIN RD,RICHMOND,CA,94850,9751
OVERSEAS,4M,MILITARY POSTAL SERVSHANNON KELLY,962,610001,96328,M,APO,PZ20001,P,2501 RYDIN RD,RICHMOND,CA,94850,9751
OVERSEAS,4M,MILITARY POSTAL SERVSHANNON KELLY,962,610001,96331,M,APO,PZ20001,P,2501 RYDIN RD,RICHMOND,CA,94850,9751
OVERSEAS,4M,MILITARY POSTAL SERVSHANNON KELLY,962,610001,96336,M,APO,PZ20001,P,2501 RYDIN RD,RICHMOND,CA,94850,9751
OVERSEAS,4M,MILITARY POSTAL SERVSHANNON KELLY,962,610001,96337,M,APO,PZ20001,P,2501 RYDIN RD,RICHMOND,CA,94850,9751
OVERSEAS,4M,MILITARY POSTAL SERVSHANNON KELLY,962,610001,96338,M,APO,PZ20001,P,2501 RYDIN RD,RICHMOND,CA,94850,9751
OVERSEAS,4M,MILITARY POSTAL SERVSHANNON KELLY,962,610001,96339,M,APO,PZ20001,P,2501 RYDIN RD,RICHMOND,CA,94850,9751
OVERSEAS,4M,MILITARY POSTAL SERVSHANNON KELLY,962,610001,96343,M,APO,PZ20001,P,2501 RYDIN RD,RICHMOND,CA,94850,9751
OVERSEAS,4M,MILITARY POSTAL SERVSHANNON KELLY,962,610001,96346,M,APO,PZ20001,P,2501 RYDIN RD,RICHMOND,CA,94850,9751
OVERSEAS,4M,MILITARY POSTAL SERVSHANNON KELLY,962,610001,96347,M,APO,PZ20001,P,2501 RYDIN RD,RICHMOND,CA,94850,9751
OVERSEAS,4M,MILITARY POSTAL SERVSHANNON KELLY,962,610001,96349,M,APO,PZ20001,P,2501 RYDIN RD,RICHMOND,CA,94850,9751
OVERSEAS,4M,MILITARY POSTAL SERVSHANNON KELLY,962,610001,96350,M,APO,PZ20001,P,2501 RYDIN RD,RICHMOND,CA,94850,9751
OVERSEAS,4M,MILITARY POSTAL SERVSHANNON KELLY,962,610001,96351,M,APO,PZ20001,P,2501 RYDIN RD,RICHMOND,CA,94850,9751
OVERSEAS,4M,MILITARY POSTAL SERVSHANNON KELLY,962,610001,96362,M,APO,PZ20001,P,2501 RYDIN RD,RICHMOND,CA,94850,9751
OVERSEAS,4M,MILITARY POSTAL SERVSHANNON KELLY,962,610001,96365,M,APO,PZ20001,P,2501 RYDIN RD,RICHMOND,CA,94850,9751
OVERSEAS,4M,MILITARY POSTAL SERVSHANNON KELLY,962,610001,96367,M,APO,PZ20001,P,2501 RYDIN RD,RICHMOND,CA,94850,9751
OVERSEAS,4M,MILITARY POSTAL SERVSHANNON KELLY,962,610001,96368,M,APO,PZ20001,P,2501 RYDIN RD,RICHMOND,CA,94850,9751
OVERSEAS,4M,MILITARY POSTAL SERVSHANNON KELLY,962,610001,96370,M,APO,PZ20001,P,2501 RYDIN RD,RICHMOND,CA,94850,9751
OVERSEAS,4M,MILITARY POSTAL SERVSHANNON KELLY,962,610001,96371,M,APO,PZ20001,P,2501 RYDIN RD,RICHMOND,CA,94850,9751
OVERSEAS,4M,MILITARY POSTAL SERVSHANNON KELLY,962,610001,96372,M,APO,PZ20001,P,2501 RYDIN RD,RICHMOND,CA,94850,9751
OVERSEAS,4M,MILITARY POSTAL SERVSHANNON KELLY,962,610001,96373,M,APO,PZ20001,P,2501 RYDIN RD,RICHMOND,CA,94850,9751
OVERSEAS,4M,MILITARY POSTAL SERVSHANNON KELLY,962,610001,96374,M,APO,PZ20001,P,2501 RYDIN RD,RICHMOND,CA,94850,9751
OVERSEAS,4M,MILITARY POSTAL SERVSHANNON KELLY,962,610001,96375,M,APO,PZ20001,P,2501 RYDIN RD,RICHMOND,CA,94850,9751
OVERSEAS,4M,MILITARY POSTAL SERVSHANNON KELLY,962,610001,96376,M,APO,PZ20001,P,2501 RYDIN RD,RICHMOND,CA,94850,9751
OVERSEAS,4M,MILITARY POSTAL SERVSHANNON KELLY,962,610001,96377,M,APO,PZ20001,P,2501 RYDIN RD,RICHMOND,CA,94850,9751
OVERSEAS,4M,MILITARY POSTAL SERVSHANNON KELLY,962,610001,96378,M,APO,PZ20001,P,2501 RYDIN RD,RICHMOND,CA,94850,9751
OVERSEAS,4M,MILITARY POSTAL SERVSHANNON KELLY,962,610001,96379,M,APO,PZ20001,P,2501 RYDIN RD,RICHMOND,CA,94850,9751
OVERSEAS,4M,MILITARY POSTAL SERVSHANNON KELLY,962,610001,96380,M,APO,PZ20001,P,2501 RYDIN RD,RICHMOND,CA,94850,9751
OVERSEAS,4M,MILITARY POSTAL SERVSHANNON KELLY,962,610001,96382,M,APO,PZ20001,P,2501 RYDIN RD,RICHMOND,CA,94850,9751
OVERSEAS,4M,MILITARY POSTAL SERVSHANNON KELLY,962,610001,96384,M,APO,PZ20001,P,2501 RYDIN RD,RICHMOND,CA,94850,9751
OVERSEAS,4M,MILITARY POSTAL SERVSHANNON KELLY,962,610001,96385,M,APO,PZ20001,P,2501 RYDIN RD,RICHMOND,CA,94850,9751
OVERSEAS,4M,MILITARY POSTAL SERVSHANNON KELLY,962,610001,96386,M,APO,PZ20001,P,2501 RYDIN RD,RICHMOND,CA,94850,9751
OVERSEAS,4M,MILITARY POSTAL SERVSHANNON KELLY,962,610001,96387,M,APO,PZ20001,P,2501 RYDIN RD,RICHMOND,CA,94850,9751
OVERSEAS,4M,MILITARY POSTAL SERVSHANNON KELLY,962,610001,96388,M,APO,PZ20001,P,2501 RYDIN RD,RICHMOND,CA,94850,9751
OVERSEAS,4M,MILITARY POSTAL SERVSHANNON KELLY,962,610001,96389,M,APO,PZ20001,P,2501 RYDIN RD,RICHMOND,CA,94850,9751
OVERSEAS,4M,MILITARY POSTAL SERVSHANNON KELLY,962,610001,96400,M,APO,PZ20001,P,2501 RYDIN RD,RICHMOND,CA,94850,9751
OVERSEAS,4M,MILITARY POSTAL SERVSHANNON KELLY,962,610001,96401,M,APO,PZ20001,P,2501 RYDIN RD,RICHMOND,CA,94850,9751
OVERSEAS,4M,MILITARY POSTAL SERVSHANNON KELLY,962,610001,96502,M,APO,PZ20001,P,2501 RYDIN RD,RICHMOND,CA,94850,9751
OVERSEAS,4M,MILITARY POSTAL SERVSHANNON KELLY,962,610001,96503,M,APO,PZ20001,P,2501 RYDIN RD,RICHMOND,CA,94850,9751
OVERSEAS,4M,MILITARY POSTAL SERVSHANNON KELLY,962,610002,96504,M,DPO,P017333,P,2501 RYDIN RD,RICHMOND,CA,94850,9751
OVERSEAS,4M,MILITARY POSTAL SERVSHANNON KELLY,962,610002,96505,M,DPO,P017333,P,2501 RYDIN RD,RICHMOND,CA,94850,9751
OVERSEAS,4M,MILITARY POSTAL SERVSHANNON KELLY,962,610001,96506,M,APO,PZ20001,P,2501 RYDIN RD,RICHMOND,CA,94850,9751
OVERSEAS,4M,MILITARY POSTAL SERVSHANNON KELLY,962,610002,96507,M,DPO,P017333,P,2501 RYDIN RD,RICHMOND,CA,94850,9751
OVERSEAS,4M,MILITARY POSTAL SERVSHANNON KELLY,962,610001,96511,M,APO,PZ20001,P,2501 RYDIN RD,RICHMOND,CA,94850,9751
OVERSEAS,4M,MILITARY POSTAL SERVSHANNON KELLY,962,610002,96515,M,DPO,P017333,P,2501 RYDIN RD,RICHMOND,CA,94850,9751
OVERSEAS,4M,MILITARY POSTAL SERVSHANNON KELLY,962,610001,96516,M,APO,PZ20001,P,2501 RYDIN RD,RICHMOND,CA,94850,9751
OVERSEAS,4M,MILITARY POSTAL SERVSHANNON KELLY,962,610001,96517,M,APO,PZ20001,P,2501 RYDIN RD,RICHMOND,CA,94850,9751
OVERSEAS,4M,MILITARY POSTAL SERVSHANNON KELLY,962,610002,96520,M,DPO,P017333,P,2501 RYDIN RD,RICHMOND,CA,94850,9751
OVERSEAS,4M,MILITARY POSTAL SERVSHANNON KELLY,962,610002,96521,M,DPO,P017333,P,2501 RYDIN RD,RICHMOND,CA,94850,9751
OVERSEAS,4M,MILITARY POSTAL SERVSHANNON KELLY,962,610002,96530,M,DPO,P017333,P,2501 RYDIN RD,RICHMOND,CA,94850,9751
OVERSEAS,4M,MILITARY POSTAL SERVSHANNON KELLY,962,610001,96531,M,APO,PZ20001,P,2501 RYDIN RD,RICHMOND,CA,94850,9751
OVERSEAS,4M,MILITARY POSTAL SERVSHANNON KELLY,962,610002,96532,M,DPO,P017333,P,2501 RYDIN RD,RICHMOND,CA,94850,9751
OVERSEAS,4M,MILITARY POSTAL SERVSHANNON KELLY,962,610001,96534,M,APO,PZ20001,P,2501 RYDIN RD,RICHMOND,CA,94850,9751
OVERSEAS,4M,MILITARY POSTAL SERVSHANNON KELLY,962,610002,96535,M,DPO,P017333,P,2501 RYDIN RD,RICHMOND,CA,94850,9751
OVERSEAS,4M,MILITARY POSTAL SERVSHANNON KELLY,962,610001,96537,M,APO,PZ20001,P,2501 RYDIN RD,RICHMOND,CA,94850,9751
OVERSEAS,4M,MILITARY POSTAL SERVSHANNON KELLY,962,610001,96539,M,APO,PZ20001,P,2501 RYDIN RD,RICHMOND,CA,94850,9751
OVERSEAS,4M,MILITARY POSTAL SERVSHANNON KELLY,962,610001,96540,M,APO,PZ20001,P,2501 RYDIN RD,RICHMOND,CA,94850,9751
OVERSEAS,4M,MILITARY POSTAL SERVSHANNON KELLY,962,610001,96542,M,APO,PZ20001,P,2501 RYDIN RD,RICHMOND,CA,94850,9751
OVERSEAS,4M,MILITARY POSTAL SERVSHANNON KELLY,962,610001,96543,M,APO,PZ20001,P,2501 RYDIN RD,RICHMOND,CA,94850,9751
OVERSEAS,4M,MILITARY POSTAL SERVSHANNON KELLY,962,610001,96548,M,APO,PZ20001,P,2501 RYDIN RD,RICHMOND,CA,94850,9751
OVERSEAS,4M,MILITARY POSTAL SERVSHANNON KELLY,962,610002,96549,M,DPO,P017333,P,2501 RYDIN RD,RICHMOND,CA,94850,9751
OVERSEAS,4M,MILITARY POSTAL SERVSHANNON KELLY,962,610001,96550,M,APO,PZ20001,P,2501 RYDIN RD,RICHMOND,CA,94850,9751
OVERSEAS,4M,MILITARY POSTAL SERVSHANNON KELLY,962,610002,96551,M,DPO,P017333,P,2501 RYDIN RD,RICHMOND,CA,94850,9751
OVERSEAS,4M,MILITARY POSTAL SERVSHANNON KELLY,962,610001,96552,M,APO,PZ20001,P,2501 RYDIN RD,RICHMOND,CA,94850,9751
OVERSEAS,4M,MILITARY POSTAL SERVSHANNON KELLY,962,610001,96553,M,APO,PZ20001,P,2501 RYDIN RD,RICHMOND,CA,94850,9751
OVERSEAS,4M,MILITARY POSTAL SERVSHANNON KELLY,962,610002,96554,M,DPO,P017333,P,2501 RYDIN RD,RICHMOND,CA,94850,9751
OVERSEAS,4M,MILITARY POSTAL SERVSHANNON KELLY,962,610001,96555,M,APO,PZ20001,P,2501 RYDIN RD,RICHMOND,CA,94850,9751
OVERSEAS,4M,MILITARY POSTAL SERVSHANNON KELLY,962,610001,96557,M,APO,PZ20001,P,2501 RYDIN RD,RICHMOND,CA,94850,9751
OVERSEAS,4M,MILITARY POSTAL SERVSHANNON KELLY,962,610002,96562,M,DPO,P017333,P,2501 RYDIN RD,RICHMOND,CA,94850,9751
OVERSEAS,4M,MILITARY POSTAL SERVSHANNON KELLY,962,610001,96577,M,APO,PZ20001,P,2501 RYDIN RD,RICHMOND,CA,94850,9751
OVERSEAS,4M,MILITARY POSTAL SERVSHANNON KELLY,962,610001,96578,M,APO,PZ20001,P,2501 RYDIN RD,RICHMOND,CA,94850,9751
OVERSEAS,4M,MILITARY POSTAL SERVSHANNON KELLY,962,610001,96579,M,APO,PZ20001,P,2501 RYDIN RD,RICHMOND,CA,94850,9751
OVERSEAS,4M,MILITARY POSTAL SERVSHANNON KELLY,962,610001,96595,M,APO,PZ20001,P,2501 RYDIN RD,RICHMOND,CA,94850,9751
OVERSEAS,4M,MILITARY POSTAL SERVSHANNON KELLY,962,610001,96598,M,APO,PZ20001,P,2501 RYDIN RD,RICHMOND,CA,94850,9751
OVERSEAS,4M,MILITARY POSTAL SERVSHANNON KELLY,962,610001,96599,M,APO,PZ20001,P,2501 RYDIN RD,RICHMOND,CA,94850,9751
OVERSEAS,4M,MILITARY POSTAL SERVSHANNON KELLY,962,610001,96601,M,APO,PZ20001,P,2501 RYDIN RD,RICHMOND,CA,94850,9751
OVERSEAS,4M,MILITARY POSTAL SERVSHANNON KELLY,962,610001,96602,M,APO,PZ20001,P,2501 RYDIN RD,RICHMOND,CA,94850,9751
OVERSEAS,4M,MILITARY POSTAL SERVSHANNON KELLY,962,610001,96603,M,APO,PZ20001,P,2501 RYDIN RD,RICHMOND,CA,94850,9751
OVERSEAS,4M,MILITARY POSTAL SERVSHANNON KELLY,962,610001,96604,M,APO,PZ20001,P,2501 RYDIN RD,RICHMOND,CA,94850,9751
OVERSEAS,4M,MILITARY POSTAL SERVSHANNON KELLY,962,610001,96605,M,APO,PZ20001,P,2501 RYDIN RD,RICHMOND,CA,94850,9751
OVERSEAS,4M,MILITARY POSTAL SERVSHANNON KELLY,962,610001,96607,M,APO,PZ20001,P,2501 RYDIN RD,RICHMOND,CA,94850,9751
OVERSEAS,4M,MILITARY POSTAL SERVSHANNON KELLY,962,610001,96610,M,APO,PZ20001,P,2501 RYDIN RD,RICHMOND,CA,94850,9751
OVERSEAS,4M,MILITARY POSTAL SERVSHANNON KELLY,962,610001,96611,M,APO,PZ20001,P,2501 RYDIN RD,RICHMOND,CA,94850,9751
OVERSEAS,4M,MILITARY POSTAL SERVSHANNON KELLY,962,610001,96612,M,APO,PZ20001,P,2501 RYDIN RD,RICHMOND,CA,94850,9751
OVERSEAS,4M,MILITARY POSTAL SERVSHANNON KELLY,962,610001,96613,M,APO,PZ20001,P,2501 RYDIN RD,RICHMOND,CA,94850,9751
OVERSEAS,4M,MILITARY POSTAL SERVSHANNON KELLY,962,610001,96615,M,APO,PZ20001,P,2501 RYDIN RD,RICHMOND,CA,94850,9751
OVERSEAS,4M,MILITARY POSTAL SERVSHANNON KELLY,962,610001,96616,M,APO,PZ20001,P,2501 RYDIN RD,RICHMOND,CA,94850,9751
OVERSEAS,4M,MILITARY POSTAL SERVSHANNON KELLY,962,610001,96619,M,APO,PZ20001,P,2501 RYDIN RD,RICHMOND,CA,94850,9751
OVERSEAS,4M,MILITARY POSTAL SERVSHANNON KELLY,962,610001,96620,M,APO,PZ20001,P,2501 RYDIN RD,RICHMOND,CA,94850,9751
OVERSEAS,4M,MILITARY POSTAL SERVSHANNON KELLY,962,610001,96628,M,APO,PZ20001,P,2501 RYDIN RD,RICHMOND,CA,94850,9751
OVERSEAS,4M,MILITARY POSTAL SERVSHANNON KELLY,962,610001,96629,M,APO,PZ20001,P,2501 RYDIN RD,RICHMOND,CA,94850,9751
OVERSEAS,4M,MILITARY POSTAL SERVSHANNON KELLY,962,610001,96632,M,APO,PZ20001,P,2501 RYDIN RD,RICHMOND,CA,94850,9751
OVERSEAS,4M,MILITARY POSTAL SERVSHANNON KELLY,962,610001,96633,M,APO,PZ20001,P,2501 RYDIN RD,RICHMOND,CA,94850,9751
OVERSEAS,4M,MILITARY POSTAL SERVSHANNON KELLY,962,610001,96641,M,APO,PZ20001,P,2501 RYDIN RD,RICHMOND,CA,94850,9751
OVERSEAS,4M,MILITARY POSTAL SERVSHANNON KELLY,962,610001,96642,M,APO,PZ20001,P,2501 RYDIN RD,RICHMOND,CA,94850,9751
OVERSEAS,4M,MILITARY POSTAL SERVSHANNON KELLY,962,610001,96643,M,APO,PZ20001,P,2501 RYDIN RD,RICHMOND,CA,94850,9751
OVERSEAS,4M,MILITARY POSTAL SERVSHANNON KELLY,962,610001,96644,M,APO,PZ20001,P,2501 RYDIN RD,RICHMOND,CA,94850,9751
OVERSEAS,4M,MILITARY POSTAL SERVSHANNON KELLY,962,610001,96645,M,APO,PZ20001,P,2501 RYDIN RD,RICHMOND,CA,94850,9751
OVERSEAS,4M,MILITARY POSTAL SERVSHANNON KELLY,962,610001,96649,M,APO,PZ20001,P,2501 RYDIN RD,RICHMOND,CA,94850,9751
OVERSEAS,4M,MILITARY POSTAL SERVSHANNON KELLY,962,610001,96650,M,APO,PZ20001,P,2501 RYDIN RD,RICHMOND,CA,94850,9751
OVERSEAS,4M,MILITARY POSTAL SERVSHANNON KELLY,962,610001,96657,M,APO,PZ20001,P,2501 RYDIN RD,RICHMOND,CA,94850,9751
OVERSEAS,4M,MILITARY POSTAL SERVSHANNON KELLY,962,610001,96660,M,APO,PZ20001,P,2501 RYDIN RD,RICHMOND,CA,94850,9751
OVERSEAS,4M,MILITARY POSTAL SERVSHANNON KELLY,962,610001,96661,M,APO,PZ20001,P,2501 RYDIN RD,RICHMOND,CA,94850,9751
OVERSEAS,4M,MILITARY POSTAL SERVSHANNON KELLY,962,610001,96662,M,APO,PZ20001,P,2501 RYDIN RD,RICHMOND,CA,94850,9751
OVERSEAS,4M,MILITARY POSTAL SERVSHANNON KELLY,962,610001,96663,M,APO,PZ20001,P,2501 RYDIN RD,RICHMOND,CA,94850,9751
OVERSEAS,4M,MILITARY POSTAL SERVSHANNON KELLY,962,610001,96664,M,APO,PZ20001,P,2501 RYDIN RD,RICHMOND,CA,94850,9751
OVERSEAS,4M,MILITARY POSTAL SERVSHANNON KELLY,962,610001,96665,M,APO,PZ20001,P,2501 RYDIN RD,RICHMOND,CA,94850,9751
OVERSEAS,4M,MILITARY POSTAL SERVSHANNON KELLY,962,610001,96666,M,APO,PZ20001,P,2501 RYDIN RD,RICHMOND,CA,94850,9751
OVERSEAS,4M,MILITARY POSTAL SERVSHANNON KELLY,962,610001,96667,M,APO,PZ20001,P,2501 RYDIN RD,RICHMOND,CA,94850,9751
OVERSEAS,4M,MILITARY POSTAL SERVSHANNON KELLY,962,610001,96668,M,APO,PZ20001,P,2501 RYDIN RD,RICHMOND,CA,94850,9751
OVERSEAS,4M,MILITARY POSTAL SERVSHANNON KELLY,962,610001,96669,M,APO,PZ20001,P,2501 RYDIN RD,RICHMOND,CA,94850,9751
OVERSEAS,4M,MILITARY POSTAL SERVSHANNON KELLY,962,610001,96670,M,APO,PZ20001,P,2501 RYDIN RD,RICHMOND,CA,94850,9751
OVERSEAS,4M,MILITARY POSTAL SERVSHANNON KELLY,962,610001,96671,M,APO,PZ20001,P,2501 RYDIN RD,RICHMOND,CA,94850,9751
OVERSEAS,4M,MILITARY POSTAL SERVSHANNON KELLY,962,610001,96672,M,APO,PZ20001,P,2501 RYDIN RD,RICHMOND,CA,94850,9751
OVERSEAS,4M,MILITARY POSTAL SERVSHANNON KELLY,962,610001,96673,M,APO,PZ20001,P,2501 RYDIN RD,RICHMOND,CA,94850,9751
OVERSEAS,4M,MILITARY POSTAL SERVSHANNON KELLY,962,610001,96674,M,APO,PZ20001,P,2501 RYDIN RD,RICHMOND,CA,94850,9751
OVERSEAS,4M,MILITARY POSTAL SERVSHANNON KELLY,962,610001,96675,M,APO,PZ20001,P,2501 RYDIN RD,RICHMOND,CA,94850,9751
OVERSEAS,4M,MILITARY POSTAL SERVSHANNON KELLY,962,610001,96677,M,APO,PZ20001,P,2501 RYDIN RD,RICHMOND,CA,94850,9751
OVERSEAS,4M,MILITARY POSTAL SERVSHANNON KELLY,962,610001,96678,M,APO,PZ20001,P,2501 RYDIN RD,RICHMOND,CA,94850,9751
OVERSEAS,4M,MILITARY POSTAL SERVSHANNON KELLY,962,610001,96679,M,APO,PZ20001,P,2501 RYDIN RD,RICHMOND,CA,94850,9751
OVERSEAS,4M,MILITARY POSTAL SERVSHANNON KELLY,962,610001,96681,M,APO,PZ20001,P,2501 RYDIN RD,RICHMOND,CA,94850,9751
OVERSEAS,4M,MILITARY POSTAL SERVSHANNON KELLY,962,610001,96682,M,APO,PZ20001,P,2501 RYDIN RD,RICHMOND,CA,94850,9751
OVERSEAS,4M,MILITARY POSTAL SERVSHANNON KELLY,962,610001,96683,M,APO,PZ20001,P,2501 RYDIN RD,RICHMOND,CA,94850,9751
OVERSEAS,4M,MILITARY POSTAL SERVSHANNON KELLY,962,610001,96686,M,APO,PZ20001,P,2501 RYDIN RD,RICHMOND,CA,94850,9751
OVERSEAS,4M,MILITARY POSTAL SERVSHANNON KELLY,962,610001,96691,M,APO,PZ20001,P,2501 RYDIN RD,RICHMOND,CA,94850,9751
OVERSEAS,4M,MILITARY POSTAL SERVSHANNON KELLY,962,610001,96692,M,APO,PZ20001,P,2501 RYDIN RD,RICHMOND,CA,94850,9751
OVERSEAS,4M,MILITARY POSTAL SERVSHANNON KELLY,962,610001,96693,M,APO,PZ20001,P,2501 RYDIN RD,RICHMOND,CA,94850,9751
OVERSEAS,4M,MILITARY POSTAL SERVSHANNON KELLY,962,610001,96694,M,APO,PZ20001,P,2501 RYDIN RD,RICHMOND,CA,94850,9751
OVERSEAS,4M,MILITARY POSTAL SERVSHANNON KELLY,962,610001,96695,M,APO,PZ20001,P,2501 RYDIN RD,RICHMOND,CA,94850,9751
OVERSEAS,4M,MILITARY POSTAL SERVSHANNON KELLY,962,610001,96696,M,APO,PZ20001,P,2501 RYDIN RD,RICHMOND,CA,94850,9751
OVERSEAS,4M,MILITARY POSTAL SERVSHANNON KELLY,962,610001,96698,M,APO,PZ20001,P,2501 RYDIN RD,RICHMOND,CA,94850,9751
WESTPAC,4E,HAWAII,967,142400,96853,,HONOLULU,PZ12186,P,3600 AOLELE ST RM 208C,HONOLULU,HI,96820,9998
WESTPAC,4E,HAWAII,967,148900,96854,,WAHIAWA,PZ12353,P,115 LEHUA ST,WAHIAWA,HI,96786,9998
WESTPAC,4E,HAWAII,967,148900,96857,,WAHIAWA,PZ12353,P,115 LEHUA ST,WAHIAWA,HI,96786,9998
WESTPAC,4E,HAWAII,967,142400,96858,,HONOLULU,PZ12186,P,3600 AOLELE ST RM 208C,HONOLULU,HI,96820,9998
WESTPAC,4E,HAWAII,967,142400,96859,,HONOLULU,PZ12186,P,3600 AOLELE ST RM 208C,HONOLULU,HI,96820,9998
WESTPAC,4E,HAWAII,967,142400,96860,,HONOLULU,PZ12186,P,3600 AOLELE ST RM 208C,HONOLULU,HI,96820,9998
WESTPAC,4E,HAWAII,967,140100,96861,,AIEA,PZ12107,P,99-040 KAUHALE ST,AIEA,HI,96701,9998
WESTPAC,4E,HAWAII,967,142950,96863,,KAILUA,PZ12200,P,335 HAHANI ST,KAILUA,HI,96734,9998
WESTPAC,4E,HAWAII,967,142400,96898,P,HONOLULU,PZ12186,P,3600 AOLELE ST RM 208C,HONOLULU,HI,96820,9998
WESTPAC,4E,HAWAII,967,584000,96952,P,SAIPAN,PZ12999,P,1 CHALAN KANOA VLG,SAIPAN,MP,96950,9996
WESTPAC,4E,ID-MT-OR,970,406784,97252,,PORTLAND,PZ15411,P,745 NW HOYT ST,PORTLAND,OR,97208,8098
WESTPAC,4E,ID-MT-OR,970,406784,97291,P,PORTLAND,PZ15411,P,745 NW HOYT ST,PORTLAND,OR,97208,8098
WESTPAC,4E,ID-MT-OR,970,401872,97331,,CORVALLIS,PZ14882,P,311 SW 2ND ST,CORVALLIS,OR,97333,4631
WESTPAC,4E,ID-MT-OR,970,400352,97861,,ARLINGTON,PZ14735,P,300 ARLINGTON MALL,ARLINGTON,OR,97812,5000
WESTPAC,4E,WASHINGTON,980,547616,98131,,SEATTLE,PZ17429,P,2460 4TH AVE S,SEATTLE,WA,98134,1924
WESTPAC,4E,WASHINGTON,980,544284,98348,P,LA GRANDE,PZ16995,P,46518 MOUNTAIN HWY E,LA GRANDE,WA,98348,9800
WESTPAC,4E,WASHINGTON,980,546762,98378,P,PORT ORCHARD,PZ17304,P,1125 BETHEL AVE,PORT ORCHARD,WA,98366,9998
WESTPAC,4E,WASHINGTON,980,548330,98397,P,TACOMA,PZ17597,P,4001 S PINE ST,TACOMA,WA,98413,9998
WESTPAC,4E,WASHINGTON,980,548330,98398,P,TACOMA,PZ17597,P,4001 S PINE ST,TACOMA,WA,98413,9998
WESTPAC,4E,WASHINGTON,980,548330,98412,P,TACOMA,PZ17597,P,4001 S PINE ST,TACOMA,WA,98413,9998
WESTPAC,4E,WASHINGTON,980,548330,98413,,TACOMA,PZ17597,P,4001 S PINE ST,TACOMA,WA,98413,9998
WESTPAC,4E,WASHINGTON,980,548330,98497,P,TACOMA,PZ17597,P,4001 S PINE ST,TACOMA,WA,98413,9998
WESTPAC,4E,ALASKA,995,020312,99513,,ANCHORAGE,PZ10014,P,1601 W NORTHERN LIGHTS BLVD,ANCHORAGE,AK,99517,9998
WESTPAC,4E,ALASKA,995,020312,99529,,ANCHORAGE,PZ10014,P,1601 W NORTHERN LIGHTS BLVD,ANCHORAGE,AK,99517,9998
WESTPAC,4E,ALASKA,995,020312,99530,,ANCHORAGE,PZ10014,P,1601 W NORTHERN LIGHTS BLVD,ANCHORAGE,AK,99517,9998
WESTPAC,4E,ALASKA,995,025187,99545,P,KWIGILLINGOK,PZ10181,P,100 MAIN ST,KWIGILLINGOK,AK,99622,9800
WESTPAC,4E,ALASKA,995,020312,99599,,ANCHORAGE,PZ10014,P,1601 W NORTHERN LIGHTS BLVD,ANCHORAGE,AK,99517,9998
WESTPAC,4E,ALASKA,995,024914,99619,P,KODIAK,PZ10171,P,419 LOWER MILL BAY RD,KODIAK,AK,99615,9998
WESTPAC,4E,ALASKA,995,025508,99628,P,MANOKOTAK,PZ10191,P,300 C ST,MANOKOTAK,AK,99628,9800
WESTPAC,4E,ALASKA,995,026240,99638,P,NIKOLSKI,PZ10222,P,9998 NIKOLSKI RD,NIKOLSKI,AK,99638,9800
WESTPAC,4E,ALASKA,995,027059,99651,P,PLATINUM,PZ10248,P,1 MAIN ST,PLATINUM,AK,99651,9800
WESTPAC,4E,ALASKA,995,027449,99655,P,QUINHAGAK,PZ10260,P,101 QANIRTUUQ RD,QUINHAGAK,AK,99655,9800
WESTPAC,4E,ALASKA,995,027917,99665,P,SHAGELUK,PZ10282,P,500 MAIN ST,SHAGELUK,AK,99665,9800
WESTPAC,4E,ALASKA,995,029087,99681,P,TUNUNAK,PZ10332,P,100 AIRPORT WAY,TUNUNAK,AK,99681,9800
WESTPAC,4E,ALASKA,995,020312,99695,P,ANCHORAGE,PZ10014,P,1601 W NORTHERN LIGHTS BLVD,ANCHORAGE,AK,99517,9998
WESTPAC,4E,ALASKA,995,024914,99697,P,KODIAK,PZ10171,P,419 LOWER MILL BAY RD,KODIAK,AK,99615,9998
WESTPAC,4E,ALASKA,995,024265,99747,P,KAKTOVIK,PZ10152,P,2041 BARTER AVE,KAKTOVIK,AK,99747,9800
WESTPAC,4E,ALASKA,995,026318,99761,P,NOATAK,PZ10224,P,9998 NOATAK RD,NOATAK,AK,99761,9800
WESTPAC,4E,ALASKA,995,028502,99774,P,STEVENS VILLAGE,PZ10312,P,9774 STEVENS VILLAGE RD,STEVENS VILLAGE,AK,99774,9800
WESTPAC,4E,ALASKA,995,028853,99778,P,TELLER,PZ10321,P,100 MAIN ST,TELLER,AK,99778,9800
WESTPAC,4E,ALASKA,995,022769,99790,,FAIRBANKS,PZ10107,P,5400 MAIL TRAIL RD,FAIRBANKS,AK,99709,1001
WESTPAC,4E,ALASKA,995,024173,99811,P,JUNEAU,PZ10150,P,9491 VINTAGE BLVD,JUNEAU,AK,99801,9997
WESTPAC,4E,ALASKA,995,024173,99850,P,JUNEAU,PZ10150,P,9491 VINTAGE BLVD,JUNEAU,AK,99801,9997
WESTPAC,4E,ALASKA,995,024563,99903,P,KETCHIKAN,PZ10161,P,3609 TONGASS AVE,KETCHIKAN,AK,99901,9998
WESTPAC,4E,ALASKA,995,024563,99950,P,KETCHIKAN,PZ10161,P,3609 TONGASS AVE,KETCHIKAN,AK,99901,9998
